{"type": "FeatureCollection", "features": [{"type": "Feature", "geometry": {"type": "Point", "coordinates": [118.4439023, -8.5442948]}, "properties": {"id": "GEN-NTB-0001", "name": "PLTD Dompu", "osm_name": "", "type": "PLTD", "capacity_mw": "1.8", "province": "Nusa Tenggara Barat", "system": "NTB", "status": "existing", "operator": "", "method": "", "osm_id": "way/119783797", "osm_source": "", "review_flag": "NO_NAME;NO_CAPACITY;NO_TYPE", "source_id": "OSM-overpass", "capacity_unit": "MW"}}, {"type": "Feature", "geometry": {"type": "Point", "coordinates": [116.0724587, -8.6602738]}, "properties": {"id": "GEN-NTB-0002", "name": "PLTU Jeranjang", "osm_name": "PLTU Jeranjang", "type": "PLTU", "capacity_mw": "90.0", "province": "Nusa Tenggara Barat", "system": "NTB", "status": "existing", "operator": "Indonesia Power", "method": "", "osm_id": "way/173552269", "osm_source": "coal", "review_flag": "", "source_id": "OSM-overpass", "capacity_unit": "MW"}}, {"type": "Feature", "geometry": {"type": "Point", "coordinates": [116.0382681, -8.3540858]}, "properties": {"id": "GEN-NTB-0003", "name": "PLTS Gili Trawangan", "osm_name": "PLTS Gili Trawangan", "type": "PLTS", "capacity_mw": "0.6", "province": "Nusa Tenggara Barat", "system": "NTB", "status": "existing", "operator": "Perusahaan Listrik Negara", "method": "photovoltaic", "osm_id": "way/230478896", "osm_source": "solar", "review_flag": "", "source_id": "OSM-overpass", "capacity_unit": "MWp"}}, {"type": "Feature", "geometry": {"type": "Point", "coordinates": [116.0800007, -8.3572501]}, "properties": {"id": "GEN-NTB-0004", "name": "PLTS Gili Air", "osm_name": "PLTS Gili Air", "type": "PLTS", "capacity_mw": "0.16", "province": "Nusa Tenggara Barat", "system": "NTB", "status": "existing", "operator": "PLN Persero", "method": "photovoltaic", "osm_id": "way/230689630", "osm_source": "solar", "review_flag": "", "source_id": "OSM-overpass", "capacity_unit": "MWp"}}, {"type": "Feature", "geometry": {"type": "Point", "coordinates": [116.057367, -8.3486132]}, "properties": {"id": "GEN-NTB-0005", "name": "PLTS Gili Meno", "osm_name": "PLTS Gili Meno", "type": "PLTS", "capacity_mw": "0.06", "province": "Nusa Tenggara Barat", "system": "NTB", "status": "existing", "operator": "PLN", "method": "photovoltaic", "osm_id": "way/231666840", "osm_source": "solar", "review_flag": "", "source_id": "OSM-overpass", "capacity_unit": "MWp"}}, {"type": "Feature", "geometry": {"type": "Point", "coordinates": [118.6999845, -8.4110034]}, "properties": {"id": "GEN-NTB-0006", "name": "PLTMG Bima", "osm_name": "PLTMG Bima", "type": "PLTMG", "capacity_mw": "50.0", "province": "Nusa Tenggara Barat", "system": "NTB", "status": "existing", "operator": "PLN", "method": "combustion", "osm_id": "way/360110172", "osm_source": "gas", "review_flag": "", "source_id": "OSM-overpass", "capacity_unit": "MW"}}, {"type": "Feature", "geometry": {"type": "Point", "coordinates": [116.7054789, -8.4329047]}, "properties": {"id": "GEN-NTB-0007", "name": "PLTU Lombok Timur", "osm_name": "PLTU Lombok Timur", "type": "PLTU", "capacity_mw": "50.0", "province": "Nusa Tenggara Barat", "system": "NTB", "status": "existing", "operator": "", "method": "", "osm_id": "way/524519157", "osm_source": "coal", "review_flag": "", "source_id": "OSM-overpass", "capacity_unit": "MW"}}, {"type": "Feature", "geometry": {"type": "Point", "coordinates": [116.777658, -8.7411446]}, "properties": {"id": "GEN-NTB-0008", "name": "PLTU Sumbawa Barat", "osm_name": "PLTU Sumbawa Barat", "type": "PLTU", "capacity_mw": "14.0", "province": "Nusa Tenggara Barat", "system": "NTB", "status": "existing", "operator": "Perusahaan Listrik Negara", "method": "", "osm_id": "way/707043779", "osm_source": "coal", "review_flag": "", "source_id": "OSM-overpass", "capacity_unit": "MW"}}, {"type": "Feature", "geometry": {"type": "Point", "coordinates": [116.5764427, -8.6586347]}, "properties": {"id": "GEN-NTB-0009", "name": "PLTS Selong", "osm_name": "PLTS Selong", "type": "PLTS", "capacity_mw": "5.0", "province": "Nusa Tenggara Barat", "system": "NTB", "status": "existing", "operator": "", "method": "photovoltaic", "osm_id": "way/909882416", "osm_source": "solar", "review_flag": "", "source_id": "OSM-overpass", "capacity_unit": "MWp"}}, {"type": "Feature", "geometry": {"type": "Point", "coordinates": [116.6319336, -8.5183317]}, "properties": {"id": "GEN-NTB-0010", "name": "PLTS Pringgabaya", "osm_name": "PLTS Pringgabaya", "type": "PLTS", "capacity_mw": "5.0", "province": "Nusa Tenggara Barat", "system": "NTB", "status": "existing", "operator": "", "method": "photovoltaic", "osm_id": "way/909882419", "osm_source": "solar", "review_flag": "", "source_id": "OSM-overpass", "capacity_unit": "MWp"}}, {"type": "Feature", "geometry": {"type": "Point", "coordinates": [116.6923678, -8.4326717]}, "properties": {"id": "GEN-NTB-0011", "name": "PLTS Sambelia", "osm_name": "PLTS Sambelia", "type": "PLTS", "capacity_mw": "5.0", "province": "Nusa Tenggara Barat", "system": "NTB", "status": "existing", "operator": "", "method": "photovoltaic", "osm_id": "way/909882421", "osm_source": "solar", "review_flag": "", "source_id": "OSM-overpass", "capacity_unit": "MWp"}}, {"type": "Feature", "geometry": {"type": "Point", "coordinates": [116.2945573, -8.7936325]}, "properties": {"id": "GEN-NTB-0012", "name": "PLTS Sengkol", "osm_name": "PLTS Sengkol", "type": "PLTS", "capacity_mw": "5.0", "province": "Nusa Tenggara Barat", "system": "NTB", "status": "existing", "operator": "", "method": "photovoltaic", "osm_id": "way/909882422", "osm_source": "solar", "review_flag": "", "source_id": "OSM-overpass", "capacity_unit": "MWp"}}, {"type": "Feature", "geometry": {"type": "Point", "coordinates": [116.7102636, -8.4225888]}, "properties": {"id": "GEN-NTB-0013", "name": "PLTU Sambelia", "osm_name": "PLTU Sambelia", "type": "PLTU", "capacity_mw": "100.0", "province": "Nusa Tenggara Barat", "system": "NTB", "status": "existing", "operator": "", "method": "combustion", "osm_id": "way/929160635", "osm_source": "coal", "review_flag": "", "source_id": "OSM-overpass", "capacity_unit": "MW"}}, {"type": "Feature", "geometry": {"type": "Point", "coordinates": [117.3367175, -8.4484182]}, "properties": {"id": "GEN-NTB-0014", "name": "Komplek PLTMG Sumbawa 1, 2, dan 3", "osm_name": "Komplek PLTMG Sumbawa 1, 2, dan 3", "type": "PLTMG", "capacity_mw": "80.0", "province": "Nusa Tenggara Barat", "system": "NTB", "status": "existing", "operator": "PT. PLN Nusantara Power, PT. PLN Indonesia Power", "method": "combustion", "osm_id": "way/937059862", "osm_source": "diesel;gas", "review_flag": "", "source_id": "OSM-overpass", "capacity_unit": "MW"}}, {"type": "Feature", "geometry": {"type": "Point", "coordinates": [116.7401426, -8.9015418]}, "properties": {"id": "GEN-NTB-0015", "name": "PLTU Batu Hijau", "osm_name": "PLTU Batu Hijau", "type": "PLTU", "capacity_mw": "112.0", "province": "Nusa Tenggara Barat", "system": "NTB", "status": "existing", "operator": "PT Amman Mineral Nusa Tenggara", "method": "combustion", "osm_id": "way/944916493", "osm_source": "coal", "review_flag": "", "source_id": "OSM-overpass", "capacity_unit": "MW"}}, {"type": "Feature", "geometry": {"type": "Point", "coordinates": [116.0744654, -8.5899158]}, "properties": {"id": "GEN-NTB-0016", "name": "PLTMG Lombok New Peaker", "osm_name": "Lombok New Peaker Steam Gas Engine Power Plant", "type": "PLTG", "capacity_mw": "136.0", "province": "Nusa Tenggara Barat", "system": "NTB", "status": "existing", "operator": "", "method": "combustion", "osm_id": "way/1134331383", "osm_source": "gas", "review_flag": "", "source_id": "OSM-overpass", "capacity_unit": "MW"}}, {"type": "Feature", "geometry": {"type": "Point", "coordinates": [116.0746549, -8.5993327]}, "properties": {"id": "GEN-NTB-0017", "name": "PLTD Ampenan", "osm_name": "PTLD Ampenan Power Station", "type": "PLTD", "capacity_mw": "55.0", "province": "Nusa Tenggara Barat", "system": "NTB", "status": "existing", "operator": "", "method": "", "osm_id": "way/1216609678", "osm_source": "diesel", "review_flag": "NO_CAPACITY", "source_id": "OSM-overpass", "capacity_unit": "MW"}}, {"type": "Feature", "geometry": {"type": "Point", "coordinates": [116.8049889, -9.0078117]}, "properties": {"id": "GEN-NTB-0018", "name": "PLTS Sumbawa", "osm_name": "PLTS Sumbawa", "type": "PLTS", "capacity_mw": "26.8", "province": "Nusa Tenggara Barat", "system": "NTB", "status": "existing", "operator": "PT Amman Mineral Nusa Tenggara", "method": "photovoltaic", "osm_id": "way/1303667171", "osm_source": "solar", "review_flag": "", "source_id": "OSM-overpass", "capacity_unit": "MWp"}}]}