{"type": "FeatureCollection", "features": [{"type": "Feature", "geometry": {"type": "Point", "coordinates": [101.6188519, 0.6895688]}, "properties": {"id": "GEN-SMT-0001", "name": "PLTU Indah Kiat (multi-unit) Perawang", "osm_name": "Perawang Mill Coal Power Plant", "type": "PLTU", "capacity_mw": "755.0", "province": "Riau", "system": "Sumatra", "status": "existing", "operator": "", "method": "combustion", "osm_id": "relation/12405779", "osm_source": "coal", "review_flag": "NO_CAPACITY", "source_id": "OSM-overpass", "capacity_unit": "MW", "role": "Captive", "roleDescription": "Memasok listrik untuk kebutuhan industri atau pelanggan khusus.", "roleConfidence": "High", "roleReason": "Nama/operator menunjukkan pabrik pulp & paper"}}, {"type": "Feature", "geometry": {"type": "Point", "coordinates": [104.7449351, -3.0316148]}, "properties": {"id": "GEN-SMT-0002", "name": "PLTGU Keramasan", "osm_name": "PLTGU Keramasan", "type": "PLTGU", "capacity_mw": "80.0", "province": "Sumatera Selatan", "system": "Sumatra", "status": "existing", "operator": "", "method": "", "osm_id": "relation/14127028", "osm_source": "gas", "review_flag": "", "source_id": "OSM-overpass", "capacity_unit": "MW", "role": "Utility", "roleDescription": "Memasok listrik ke sistem kelistrikan publik.", "roleConfidence": "", "roleReason": ""}}, {"type": "Feature", "geometry": {"type": "Point", "coordinates": [103.3825072, -4.2225041]}, "properties": {"id": "GEN-SMT-0004", "name": "PLTP Rantau Dedap", "osm_name": "PLTP Rantau Dedap", "type": "PLTP", "capacity_mw": "91.0", "province": "Sumatera Selatan", "system": "Sumatra", "status": "existing", "operator": "", "method": "", "osm_id": "relation/19387721", "osm_source": "geothermal", "review_flag": "", "source_id": "OSM-overpass", "capacity_unit": "MW", "role": "Utility", "roleDescription": "Memasok listrik ke sistem kelistrikan publik.", "roleConfidence": "", "roleReason": ""}}, {"type": "Feature", "geometry": {"type": "Point", "coordinates": [106.4013528, -2.4999692]}, "properties": {"id": "GEN-SMT-0005", "name": "PLTD Koba", "osm_name": "PLTD Koba", "type": "PLTD", "capacity_mw": "5.0", "province": "Kepulauan Bangka Belitung", "system": "Babel", "status": "existing", "operator": "", "method": "", "osm_id": "way/186109191", "osm_source": "diesel", "review_flag": "", "source_id": "OSM-overpass", "capacity_unit": "MW", "role": "Utility", "roleDescription": "Memasok listrik ke sistem kelistrikan publik.", "roleConfidence": "", "roleReason": ""}}, {"type": "Feature", "geometry": {"type": "Point", "coordinates": [98.5405475, 2.7865021]}, "properties": {"id": "GEN-SMT-0006", "name": "Lau Renun hydro", "osm_name": "Lau Renun hydro", "type": "PLTA", "capacity_mw": "82.0", "province": "Sumatera Utara", "system": "Sumatra", "status": "existing", "operator": "PT. PLN", "method": "", "osm_id": "way/238272778", "osm_source": "hydro", "review_flag": "", "source_id": "OSM-overpass", "capacity_unit": "MW", "role": "Utility", "roleDescription": "Memasok listrik ke sistem kelistrikan publik.", "roleConfidence": "", "roleReason": ""}}, {"type": "Feature", "geometry": {"type": "Point", "coordinates": [103.4202689, 1.0419781]}, "properties": {"id": "GEN-SMT-0007", "name": "PLTU Tanjung Balai Karimun", "osm_name": "PLTU Tanjung Balai Karimun", "type": "PLTU", "capacity_mw": "14.0", "province": "Kepulauan Riau", "system": "Batam", "status": "existing", "operator": "", "method": "combustion", "osm_id": "way/254334992", "osm_source": "coal", "review_flag": "", "source_id": "OSM-overpass", "capacity_unit": "MW", "role": "Utility", "roleDescription": "Memasok listrik ke sistem kelistrikan publik.", "roleConfidence": "", "roleReason": ""}}, {"type": "Feature", "geometry": {"type": "Point", "coordinates": [98.668286, 3.7724229]}, "properties": {"id": "GEN-SMT-0008", "name": "PLTGU Belawan", "osm_name": "PLTGU Belawan", "type": "PLTGU", "capacity_mw": "720.0", "province": "Sumatera Utara", "system": "Sumatra", "status": "existing", "operator": "", "method": "", "osm_id": "way/277183762", "osm_source": "gas", "review_flag": "", "source_id": "OSM-overpass", "capacity_unit": "MW", "role": "Utility", "roleDescription": "Memasok listrik ke sistem kelistrikan publik.", "roleConfidence": "", "roleReason": ""}}, {"type": "Feature", "geometry": {"type": "Point", "coordinates": [96.1977401, 4.1054362]}, "properties": {"id": "GEN-SMT-0010", "name": "PLTU Nagan Raya", "osm_name": "PLTU Nagan Raya", "type": "PLTU", "capacity_mw": "200.0", "province": "Aceh", "system": "Sumatra", "status": "existing", "operator": "Perusahaan Listrik Negara", "method": "combustion", "osm_id": "way/321541350", "osm_source": "coal", "review_flag": "", "source_id": "OSM-overpass", "capacity_unit": "MW", "role": "Utility", "roleDescription": "Memasok listrik ke sistem kelistrikan publik.", "roleConfidence": "", "roleReason": ""}}, {"type": "Feature", "geometry": {"type": "Point", "coordinates": [98.7310234, 1.7516492]}, "properties": {"id": "GEN-SMT-0011", "name": "PLTU Labuhan Angin", "osm_name": "PLTU Labuhan Angin", "type": "PLTU", "capacity_mw": "230.0", "province": "Sumatera Utara", "system": "Sumatra", "status": "existing", "operator": "", "method": "combustion", "osm_id": "way/329719280", "osm_source": "coal", "review_flag": "", "source_id": "OSM-overpass", "capacity_unit": "MW", "role": "Utility", "roleDescription": "Memasok listrik ke sistem kelistrikan publik.", "roleConfidence": "", "roleReason": ""}}, {"type": "Feature", "geometry": {"type": "Point", "coordinates": [98.8437366, 1.7360892]}, "properties": {"id": "GEN-SMT-0012", "name": "PLTA Sipansihaporas II", "osm_name": "PLTA Sipansihaporas II", "type": "PLTA", "capacity_mw": "33.0", "province": "Sumatera Utara", "system": "Sumatra", "status": "existing", "operator": "", "method": "", "osm_id": "way/329730421", "osm_source": "hydro", "review_flag": "", "source_id": "OSM-overpass", "capacity_unit": "MW", "role": "Utility", "roleDescription": "Memasok listrik ke sistem kelistrikan publik.", "roleConfidence": "", "roleReason": ""}}, {"type": "Feature", "geometry": {"type": "Point", "coordinates": [98.5137747, 3.2262088]}, "properties": {"id": "GEN-SMT-0013", "name": "PLTPB Sibayak", "osm_name": "PLTPB Sibayak", "type": "PLTP", "capacity_mw": "12.0", "province": "Sumatera Utara", "system": "Sumatra", "status": "existing", "operator": "Pertamina Geothermal Energy;Dizamatra Powerindo", "method": "", "osm_id": "way/333361524", "osm_source": "geothermal", "review_flag": "", "source_id": "OSM-overpass", "capacity_unit": "MW", "role": "Utility", "roleDescription": "Memasok listrik ke sistem kelistrikan publik.", "roleConfidence": "", "roleReason": ""}}, {"type": "Feature", "geometry": {"type": "Point", "coordinates": [105.3883594, -5.5853215]}, "properties": {"id": "GEN-SMT-0014", "name": "PLTU Sebalang", "osm_name": "PLTU Sebalang", "type": "PLTU", "capacity_mw": "200.0", "province": "Lampung", "system": "Sumatra", "status": "existing", "operator": "PT PLN", "method": "", "osm_id": "way/337762452", "osm_source": "coal", "review_flag": "", "source_id": "OSM-overpass", "capacity_unit": "MW", "role": "Utility", "roleDescription": "Memasok listrik ke sistem kelistrikan publik.", "roleConfidence": "", "roleReason": ""}}, {"type": "Feature", "geometry": {"type": "Point", "coordinates": [100.3715873, -1.0766611]}, "properties": {"id": "GEN-SMT-0015", "name": "PLTU Teluk Sirih", "osm_name": "PLTU Teluk Sirih", "type": "PLTU", "capacity_mw": "224.0", "province": "Sumatera Barat", "system": "Sumatra", "status": "existing", "operator": "", "method": "", "osm_id": "way/450924241", "osm_source": "coal", "review_flag": "", "source_id": "OSM-overpass", "capacity_unit": "MW", "role": "Utility", "roleDescription": "Memasok listrik ke sistem kelistrikan publik.", "roleConfidence": "", "roleReason": ""}}, {"type": "Feature", "geometry": {"type": "Point", "coordinates": [101.462182, 0.5489611]}, "properties": {"id": "GEN-SMT-0016", "name": "PLTD/G Teluk Lembu", "osm_name": "PLTD/G Teluk Lembu", "type": "PLTD", "capacity_mw": "21.6", "province": "Riau", "system": "Sumatra", "status": "existing", "operator": "PT. Riau Power Satu", "method": "combustion", "osm_id": "way/465906682", "osm_source": "gas", "review_flag": "", "source_id": "OSM-overpass", "capacity_unit": "MW", "role": "Utility", "roleDescription": "Memasok listrik ke sistem kelistrikan publik.", "roleConfidence": "", "roleReason": ""}}, {"type": "Feature", "geometry": {"type": "Point", "coordinates": [95.3412835, 5.5387773]}, "properties": {"id": "GEN-SMT-0017", "name": "PLTD Lueng", "osm_name": "Lueng Bata Power Plant", "type": "PLTD", "capacity_mw": "58.5", "province": "Aceh", "system": "Sumatra", "status": "existing", "operator": "", "method": "", "osm_id": "way/468197327", "osm_source": "", "review_flag": "NO_CAPACITY;NO_TYPE", "source_id": "OSM-overpass", "capacity_unit": "MW", "role": "Utility", "roleDescription": "Memasok listrik ke sistem kelistrikan publik.", "roleConfidence": "", "roleReason": ""}}, {"type": "Feature", "geometry": {"type": "Point", "coordinates": [100.433046, -0.9343952]}, "properties": {"id": "GEN-SMT-0018", "name": "PLTG Pauh Limo", "osm_name": "PLTG Pauh Limo", "type": "PLTG", "capacity_mw": "49.0", "province": "Sumatera Barat", "system": "Sumatra", "status": "existing", "operator": "", "method": "combustion", "osm_id": "way/473523398", "osm_source": "gas", "review_flag": "", "source_id": "OSM-overpass", "capacity_unit": "MW", "role": "Utility", "roleDescription": "Memasok listrik ke sistem kelistrikan publik.", "roleConfidence": "", "roleReason": ""}}, {"type": "Feature", "geometry": {"type": "Point", "coordinates": [98.6347121, 3.7804962]}, "properties": {"id": "GEN-SMT-0019", "name": "PLTU Paluh Kurau", "osm_name": "PLTU Paluh Kurau", "type": "PLTU", "capacity_mw": "300.0", "province": "Sumatera Utara", "system": "Sumatra", "status": "existing", "operator": "", "method": "", "osm_id": "way/504810894", "osm_source": "coal", "review_flag": "", "source_id": "OSM-overpass", "capacity_unit": "MW", "role": "Utility", "roleDescription": "Memasok listrik ke sistem kelistrikan publik.", "roleConfidence": "", "roleReason": ""}}, {"type": "Feature", "geometry": {"type": "Point", "coordinates": [98.4975714, 2.7944567]}, "properties": {"id": "GEN-SMT-0020", "name": "PLTA Renun", "osm_name": "PLTA Renun", "type": "PLTA", "capacity_mw": "", "province": "Sumatera Utara", "system": "Sumatra", "status": "existing", "operator": "", "method": "", "osm_id": "way/511391884", "osm_source": "", "review_flag": "NO_CAPACITY", "source_id": "OSM-overpass", "capacity_unit": "MW", "role": "Utility", "roleDescription": "Memasok listrik ke sistem kelistrikan publik.", "roleConfidence": "", "roleReason": ""}}, {"type": "Feature", "geometry": {"type": "Point", "coordinates": [103.7992502, -3.506523]}, "properties": {"id": "GEN-SMT-0021", "name": "PLTGU Gunung Megang", "osm_name": "PLTGU Gunung Megang", "type": "PLTGU", "capacity_mw": "150.0", "province": "Sumatera Selatan", "system": "Sumatra", "status": "existing", "operator": "", "method": "", "osm_id": "way/527695410", "osm_source": "gas", "review_flag": "", "source_id": "OSM-overpass", "capacity_unit": "MW", "role": "Utility", "roleDescription": "Memasok listrik ke sistem kelistrikan publik.", "roleConfidence": "", "roleReason": ""}}, {"type": "Feature", "geometry": {"type": "Point", "coordinates": [102.4835863, -3.5930447]}, "properties": {"id": "GEN-SMT-0022", "name": "PLTA Musi", "osm_name": "PLTA Musi", "type": "PLTA", "capacity_mw": "210.0", "province": "Bengkulu", "system": "Sumatra", "status": "existing", "operator": "", "method": "run-of-the-river", "osm_id": "way/528512460", "osm_source": "hydro", "review_flag": "", "source_id": "OSM-overpass", "capacity_unit": "MW", "role": "Utility", "roleDescription": "Memasok listrik ke sistem kelistrikan publik.", "roleConfidence": "", "roleReason": ""}}, {"type": "Feature", "geometry": {"type": "Point", "coordinates": [101.5233476, 0.5636818]}, "properties": {"id": "GEN-SMT-0023", "name": "PLTU Tenayan Raya", "osm_name": "PLTU Tenayan Raya", "type": "PLTU", "capacity_mw": "220.0", "province": "Riau", "system": "Sumatra", "status": "existing", "operator": "", "method": "combustion", "osm_id": "way/528916594", "osm_source": "coal", "review_flag": "", "source_id": "OSM-overpass", "capacity_unit": "MW", "role": "Utility", "roleDescription": "Memasok listrik ke sistem kelistrikan publik.", "roleConfidence": "", "roleReason": ""}}, {"type": "Feature", "geometry": {"type": "Point", "coordinates": [104.5748938, -5.3076656]}, "properties": {"id": "GEN-SMT-0024", "name": "PLTP Ulubelu", "osm_name": "PLTP Ulubelu", "type": "PLTP", "capacity_mw": "220.0", "province": "Lampung", "system": "Sumatra", "status": "existing", "operator": "PLN", "method": "", "osm_id": "way/531143189", "osm_source": "geothermal", "review_flag": "", "source_id": "OSM-overpass", "capacity_unit": "MW", "role": "Utility", "roleDescription": "Memasok listrik ke sistem kelistrikan publik.", "roleConfidence": "", "roleReason": ""}}, {"type": "Feature", "geometry": {"type": "Point", "coordinates": [97.0899019, 5.2162499]}, "properties": {"id": "GEN-SMT-0025", "name": "PLTMG Arun I", "osm_name": "PLTMG Arun I", "type": "PLTMG", "capacity_mw": "184.0", "province": "Aceh", "system": "Sumatra", "status": "existing", "operator": "PT Pembangkitan Jawa Bali", "method": "", "osm_id": "way/542904306", "osm_source": "gas", "review_flag": "", "source_id": "OSM-overpass", "capacity_unit": "MW", "role": "Utility", "roleDescription": "Memasok listrik ke sistem kelistrikan publik.", "roleConfidence": "", "roleReason": ""}}, {"type": "Feature", "geometry": {"type": "Point", "coordinates": [106.1496436, -2.0775568]}, "properties": {"id": "GEN-SMT-0026", "name": "PLTU Air Anyir", "osm_name": "PLTU Air Anyir", "type": "PLTU", "capacity_mw": "60.0", "province": "Kepulauan Bangka Belitung", "system": "Babel", "status": "existing", "operator": "PT PLN Sektor Pembangkitan Bangka Belitung", "method": "combustion", "osm_id": "way/543959909", "osm_source": "coal", "review_flag": "", "source_id": "OSM-overpass", "capacity_unit": "MW", "role": "Utility", "roleDescription": "Memasok listrik ke sistem kelistrikan publik.", "roleConfidence": "", "roleReason": ""}}, {"type": "Feature", "geometry": {"type": "Point", "coordinates": [105.3533453, -5.5216466]}, "properties": {"id": "GEN-SMT-0028", "name": "PLTU Tarahan", "osm_name": "PLTU Tarahan", "type": "PLTU", "capacity_mw": "200.0", "province": "Lampung", "system": "Sumatra", "status": "existing", "operator": "", "method": "combustion", "osm_id": "way/557586715", "osm_source": "coal", "review_flag": "", "source_id": "OSM-overpass", "capacity_unit": "MW", "role": "Utility", "roleDescription": "Memasok listrik ke sistem kelistrikan publik.", "roleConfidence": "", "roleReason": ""}}, {"type": "Feature", "geometry": {"type": "Point", "coordinates": [100.881924, 0.2907544]}, "properties": {"id": "GEN-SMT-0029", "name": "PLTA Koto Panjang", "osm_name": "PLTA Koto Panjang", "type": "PLTA", "capacity_mw": "114.0", "province": "Riau", "system": "Sumatra", "status": "existing", "operator": "", "method": "", "osm_id": "way/558200147", "osm_source": "hydro", "review_flag": "", "source_id": "OSM-overpass", "capacity_unit": "MW", "role": "Utility", "roleDescription": "Memasok listrik ke sistem kelistrikan publik.", "roleConfidence": "", "roleReason": ""}}, {"type": "Feature", "geometry": {"type": "Point", "coordinates": [104.020618, 1.115555]}, "properties": {"id": "GEN-SMT-0031", "name": "PLTMG Baloi", "osm_name": "PLTMG Baloi", "type": "PLTMG", "capacity_mw": "30.0", "province": "Kepulauan Riau", "system": "Batam", "status": "existing", "operator": "", "method": "combustion", "osm_id": "way/602039121", "osm_source": "gas", "review_flag": "", "source_id": "OSM-overpass", "capacity_unit": "MW", "role": "Utility", "roleDescription": "Memasok listrik ke sistem kelistrikan publik.", "roleConfidence": "", "roleReason": ""}}, {"type": "Feature", "geometry": {"type": "Point", "coordinates": [99.2603324, 2.5117949]}, "properties": {"id": "GEN-SMT-0032", "name": "PLTA Asahan 1", "osm_name": "PLTA Asahan 1", "type": "PLTA", "capacity_mw": "180.0", "province": "Sumatera Utara", "system": "Sumatra", "status": "existing", "operator": "", "method": "water-storage", "osm_id": "way/602689146", "osm_source": "hydro", "review_flag": "", "source_id": "OSM-overpass", "capacity_unit": "MW", "role": "Utility", "roleDescription": "Memasok listrik ke sistem kelistrikan publik.", "roleConfidence": "", "roleReason": ""}}, {"type": "Feature", "geometry": {"type": "Point", "coordinates": [99.2802997, 2.5206126]}, "properties": {"id": "GEN-SMT-0033", "name": "PLTA Sigura-Gura", "osm_name": "PLTA Sigura-Gura", "type": "PLTA", "capacity_mw": "286.0", "province": "Sumatera Utara", "system": "Sumatra", "status": "existing", "operator": "", "method": "water-storage", "osm_id": "way/602689154", "osm_source": "hydro", "review_flag": "", "source_id": "OSM-overpass", "capacity_unit": "MW", "role": "Utility", "roleDescription": "Memasok listrik ke sistem kelistrikan publik.", "roleConfidence": "", "roleReason": ""}}, {"type": "Feature", "geometry": {"type": "Point", "coordinates": [104.0068031, 1.0135851]}, "properties": {"id": "GEN-SMT-0035", "name": "PLTGU Panaran", "osm_name": "PLTGU Panaran", "type": "PLTGU", "capacity_mw": "164.0", "province": "Kepulauan Riau", "system": "Batam", "status": "existing", "operator": "Mitra Energi Batam", "method": "combustion", "osm_id": "way/608005581", "osm_source": "gas", "review_flag": "", "source_id": "OSM-overpass", "capacity_unit": "MW", "role": "Utility", "roleDescription": "Memasok listrik ke sistem kelistrikan publik.", "roleConfidence": "", "roleReason": ""}}, {"type": "Feature", "geometry": {"type": "Point", "coordinates": [98.2585572, 4.1196588]}, "properties": {"id": "GEN-SMT-0036", "name": "PLTU Pangkalan Susu", "osm_name": "PLTU Pangkalan Susu", "type": "PLTU", "capacity_mw": "440.0", "province": "Aceh", "system": "Sumatra", "status": "existing", "operator": "Indonesia Power", "method": "combustion", "osm_id": "way/610023526", "osm_source": "coal", "review_flag": "", "source_id": "OSM-overpass", "capacity_unit": "MW", "role": "Utility", "roleDescription": "Memasok listrik ke sistem kelistrikan publik.", "roleConfidence": "", "roleReason": ""}}, {"type": "Feature", "geometry": {"type": "Point", "coordinates": [104.1348459, -2.8628747]}, "properties": {"id": "GEN-SMT-0037", "name": "PLTG Talang Duku", "osm_name": "PLTG Talang Duku", "type": "PLTG", "capacity_mw": "60.0", "province": "Sumatera Selatan", "system": "Sumatra", "status": "existing", "operator": "", "method": "", "osm_id": "way/610198178", "osm_source": "gas", "review_flag": "", "source_id": "OSM-overpass", "capacity_unit": "MW", "role": "Utility", "roleDescription": "Memasok listrik ke sistem kelistrikan publik.", "roleConfidence": "", "roleReason": ""}}, {"type": "Feature", "geometry": {"type": "Point", "coordinates": [104.1333958, 1.04422]}, "properties": {"id": "GEN-SMT-0038", "name": "PLTU Tanjung Kasam", "osm_name": "PLTU Tanjung Kasam", "type": "PLTU", "capacity_mw": "130.0", "province": "Kepulauan Riau", "system": "Batam", "status": "existing", "operator": "TJK Power", "method": "", "osm_id": "way/614805877", "osm_source": "coal", "review_flag": "", "source_id": "OSM-overpass", "capacity_unit": "MW", "role": "Utility", "roleDescription": "Memasok listrik ke sistem kelistrikan publik.", "roleConfidence": "", "roleReason": ""}}, {"type": "Feature", "geometry": {"type": "Point", "coordinates": [104.6562593, -3.207056]}, "properties": {"id": "GEN-SMT-0039", "name": "PLTGU Indralaya", "osm_name": "PLTGU Indralaya", "type": "PLTGU", "capacity_mw": "130.0", "province": "Sumatera Selatan", "system": "Sumatra", "status": "existing", "operator": "", "method": "combustion", "osm_id": "way/621794946", "osm_source": "gas", "review_flag": "", "source_id": "OSM-overpass", "capacity_unit": "MW", "role": "Utility", "roleDescription": "Memasok listrik ke sistem kelistrikan publik.", "roleConfidence": "", "roleReason": ""}}, {"type": "Feature", "geometry": {"type": "Point", "coordinates": [103.6778833, -1.6746401]}, "properties": {"id": "GEN-SMT-0040", "name": "PLTMG Sei Gelam", "osm_name": "Pusat Listrik Sei Gelam", "type": "PLTMG", "capacity_mw": "12.0", "province": "Jambi", "system": "Sumatra", "status": "existing", "operator": "PT PLN (Persero)", "method": "combustion", "osm_id": "way/623185709", "osm_source": "gas", "review_flag": "NO_CAPACITY", "source_id": "OSM-overpass", "capacity_unit": "MW", "role": "Utility", "roleDescription": "Memasok listrik ke sistem kelistrikan publik.", "roleConfidence": "", "roleReason": ""}}, {"type": "Feature", "geometry": {"type": "Point", "coordinates": [100.7533007, -0.6092886]}, "properties": {"id": "GEN-SMT-0041", "name": "PLTU Ombilin", "osm_name": "PLTU Ombilin", "type": "PLTU", "capacity_mw": "200.0", "province": "Sumatera Barat", "system": "Sumatra", "status": "existing", "operator": "Perusahaan Listrik Negara", "method": "", "osm_id": "way/626597111", "osm_source": "coal", "review_flag": "", "source_id": "OSM-overpass", "capacity_unit": "MW", "role": "Utility", "roleDescription": "Memasok listrik ke sistem kelistrikan publik.", "roleConfidence": "", "roleReason": ""}}, {"type": "Feature", "geometry": {"type": "Point", "coordinates": [101.3885701, -2.0463497]}, "properties": {"id": "GEN-SMT-0042", "name": "PLTD Koto Lolo", "osm_name": "PLTD Koto Lolo", "type": "PLTD", "capacity_mw": "21.0", "province": "Sumatera Barat", "system": "Sumatra", "status": "existing", "operator": "PLN", "method": "", "osm_id": "way/639281144", "osm_source": "diesel", "review_flag": "", "source_id": "OSM-overpass", "capacity_unit": "MW", "role": "Utility", "roleDescription": "Memasok listrik ke sistem kelistrikan publik.", "roleConfidence": "", "roleReason": ""}}, {"type": "Feature", "geometry": {"type": "Point", "coordinates": [104.1180164, -3.4009037]}, "properties": {"id": "GEN-SMT-0043", "name": "PLTU Simpang Belimbing", "osm_name": "PLTU Simpang Belimbing", "type": "PLTU", "capacity_mw": "300.0", "province": "Sumatera Selatan", "system": "Sumatra", "status": "existing", "operator": "GH EMM Indonesia", "method": "combustion", "osm_id": "way/662978699", "osm_source": "coal", "review_flag": "", "source_id": "OSM-overpass", "capacity_unit": "MW", "role": "Utility", "roleDescription": "Memasok listrik ke sistem kelistrikan publik.", "roleConfidence": "", "roleReason": ""}}, {"type": "Feature", "geometry": {"type": "Point", "coordinates": [104.0258208, 1.0642729]}, "properties": {"id": "GEN-SMT-0045", "name": "PLTG Batamindo Industrial Park", "osm_name": "PLTG Batamindo Industrial Park", "type": "PLTG", "capacity_mw": "114.0", "province": "Kepulauan Riau", "system": "Batam", "status": "existing", "operator": "", "method": "combustion", "osm_id": "way/692066654", "osm_source": "gas", "review_flag": "", "source_id": "OSM-overpass", "capacity_unit": "MW", "role": "Captive", "roleDescription": "Memasok listrik untuk kebutuhan industri atau pelanggan khusus.", "roleConfidence": "High", "roleReason": "Nama/operator menunjukkan kawasan industri"}}, {"type": "Feature", "geometry": {"type": "Point", "coordinates": [103.9004288, 1.0903717]}, "properties": {"id": "GEN-SMT-0046", "name": "PLTGU Tanjung Uncang & IPP Batam", "osm_name": "PLTGU Tanjung Uncang & IPP Batam", "type": "PLTGU", "capacity_mw": "120.0", "province": "Kepulauan Riau", "system": "Batam", "status": "existing", "operator": "", "method": "combustion", "osm_id": "way/706971183", "osm_source": "gas", "review_flag": "", "source_id": "OSM-overpass", "capacity_unit": "MW", "role": "Utility", "roleDescription": "Memasok listrik ke sistem kelistrikan publik.", "roleConfidence": "", "roleReason": ""}}, {"type": "Feature", "geometry": {"type": "Point", "coordinates": [103.797662, -3.7314036]}, "properties": {"id": "GEN-SMT-0047", "name": "PLTU Bukit Asam", "osm_name": "PLTU Bukit Asam", "type": "PLTU", "capacity_mw": "260.0", "province": "Sumatera Selatan", "system": "Sumatra", "status": "existing", "operator": "", "method": "combustion", "osm_id": "way/719550864", "osm_source": "coal", "review_flag": "", "source_id": "OSM-overpass", "capacity_unit": "MW", "role": "Utility", "roleDescription": "Memasok listrik ke sistem kelistrikan publik.", "roleConfidence": "", "roleReason": ""}}, {"type": "Feature", "geometry": {"type": "Point", "coordinates": [99.0263576, 1.8879656]}, "properties": {"id": "GEN-SMT-0048", "name": "PLTP Sarulla II", "osm_name": "PLTP Sarulla II", "type": "PLTP", "capacity_mw": "220.0", "province": "Sumatera Utara", "system": "Sumatra", "status": "existing", "operator": "PLN", "method": "", "osm_id": "way/721674156", "osm_source": "geothermal", "review_flag": "", "source_id": "OSM-overpass", "capacity_unit": "MW", "role": "Utility", "roleDescription": "Memasok listrik ke sistem kelistrikan publik.", "roleConfidence": "", "roleReason": ""}}, {"type": "Feature", "geometry": {"type": "Point", "coordinates": [99.0886277, 1.820782]}, "properties": {"id": "GEN-SMT-0049", "name": "PLTP Sarulla I", "osm_name": "PLTP Sarulla I", "type": "PLTP", "capacity_mw": "110.0", "province": "Sumatera Utara", "system": "Sumatra", "status": "existing", "operator": "PLN", "method": "", "osm_id": "way/721674157", "osm_source": "geothermal", "review_flag": "", "source_id": "OSM-overpass", "capacity_unit": "MW", "role": "Utility", "roleDescription": "Memasok listrik ke sistem kelistrikan publik.", "roleConfidence": "", "roleReason": ""}}, {"type": "Feature", "geometry": {"type": "Point", "coordinates": [97.0869756, 5.2140487]}, "properties": {"id": "GEN-SMT-0050", "name": "PLTG Sumbagut 2 Peaker", "osm_name": "Sumbagut 2 Peaker Power Plant", "type": "PLTG", "capacity_mw": "250.0", "province": "Aceh", "system": "Sumatra", "status": "existing", "operator": "PT PLN (Persero)", "method": "combustion", "osm_id": "way/721696769", "osm_source": "gas", "review_flag": "", "source_id": "OSM-overpass", "capacity_unit": "MW", "role": "Utility", "roleDescription": "Memasok listrik ke sistem kelistrikan publik.", "roleConfidence": "", "roleReason": ""}}, {"type": "Feature", "geometry": {"type": "Point", "coordinates": [104.7910651, -3.0105344]}, "properties": {"id": "GEN-SMT-0051", "name": "PLTS Jakabaring", "osm_name": "PLTS Jakabaring", "type": "PLTS", "capacity_mw": "1.6", "province": "Sumatera Selatan", "system": "Sumatra", "status": "existing", "operator": "", "method": "photovoltaic", "osm_id": "way/772768598", "osm_source": "solar", "review_flag": "", "source_id": "OSM-overpass", "capacity_unit": "MWp", "role": "Utility", "roleDescription": "Memasok listrik ke sistem kelistrikan publik.", "roleConfidence": "", "roleReason": ""}}, {"type": "Feature", "geometry": {"type": "Point", "coordinates": [107.6481523, -2.7585933]}, "properties": {"id": "GEN-SMT-0054", "name": "PLTD Pilang", "osm_name": "PLTD Pilang", "type": "PLTD", "capacity_mw": "5.0", "province": "Kepulauan Bangka Belitung", "system": "Babel", "status": "existing", "operator": "", "method": "", "osm_id": "way/800388453", "osm_source": "diesel", "review_flag": "", "source_id": "OSM-overpass", "capacity_unit": "MW", "role": "Utility", "roleDescription": "Memasok listrik ke sistem kelistrikan publik.", "roleConfidence": "", "roleReason": ""}}, {"type": "Feature", "geometry": {"type": "Point", "coordinates": [103.8073538, -3.7281238]}, "properties": {"id": "GEN-SMT-0055", "name": "PLTU Tanjung Enim", "osm_name": "PLTU Tanjung Enim", "type": "PLTU", "capacity_mw": "", "province": "Sumatera Selatan", "system": "Sumatra", "status": "existing", "operator": "PT Bukit Energi Servis Terpadu (PT BEST)", "method": "combustion", "osm_id": "way/814022610", "osm_source": "coal", "review_flag": "NO_CAPACITY", "source_id": "OSM-overpass", "capacity_unit": "MW", "role": "Utility", "roleDescription": "Memasok listrik ke sistem kelistrikan publik.", "roleConfidence": "", "roleReason": ""}}, {"type": "Feature", "geometry": {"type": "Point", "coordinates": [103.7562482, -2.155187]}, "properties": {"id": "GEN-SMT-0060", "name": "PLTU Sumsel 5", "osm_name": "PLTU Sumsel 5", "type": "PLTU", "capacity_mw": "300.0", "province": "Sumatera Selatan", "system": "Sumatra", "status": "existing", "operator": "", "method": "combustion", "osm_id": "way/917199954", "osm_source": "coal", "review_flag": "", "source_id": "OSM-overpass", "capacity_unit": "MW", "role": "Utility", "roleDescription": "Memasok listrik ke sistem kelistrikan publik.", "roleConfidence": "", "roleReason": ""}}, {"type": "Feature", "geometry": {"type": "Point", "coordinates": [103.6454265, -3.7520802]}, "properties": {"id": "GEN-SMT-0061", "name": "PLTU Keban Agung", "osm_name": "PLTU Keban Agung", "type": "PLTU", "capacity_mw": "270.0", "province": "Sumatera Selatan", "system": "Sumatra", "status": "existing", "operator": "", "method": "combustion", "osm_id": "way/926323064", "osm_source": "coal", "review_flag": "", "source_id": "OSM-overpass", "capacity_unit": "MW", "role": "Utility", "roleDescription": "Memasok listrik ke sistem kelistrikan publik.", "roleConfidence": "", "roleReason": ""}}, {"type": "Feature", "geometry": {"type": "Point", "coordinates": [100.349172, -0.6221396]}, "properties": {"id": "GEN-SMT-0062", "name": "PLTA Singkarak", "osm_name": "PLTA Singkarak", "type": "PLTA", "capacity_mw": "175.0", "province": "Sumatera Barat", "system": "Sumatra", "status": "existing", "operator": "", "method": "", "osm_id": "way/930242884", "osm_source": "hydro", "review_flag": "", "source_id": "OSM-overpass", "capacity_unit": "MW", "role": "Utility", "roleDescription": "Memasok listrik ke sistem kelistrikan publik.", "roleConfidence": "", "roleReason": ""}}, {"type": "Feature", "geometry": {"type": "Point", "coordinates": [100.1166728, -0.3107109]}, "properties": {"id": "GEN-SMT-0063", "name": "PLTA Maninjau", "osm_name": "PLTA Maninjau", "type": "PLTA", "capacity_mw": "68.0", "province": "Sumatera Barat", "system": "Sumatra", "status": "existing", "operator": "", "method": "", "osm_id": "way/930242896", "osm_source": "hydro", "review_flag": "", "source_id": "OSM-overpass", "capacity_unit": "MW", "role": "Utility", "roleDescription": "Memasok listrik ke sistem kelistrikan publik.", "roleConfidence": "", "roleReason": ""}}, {"type": "Feature", "geometry": {"type": "Point", "coordinates": [102.2720473, -3.9126533]}, "properties": {"id": "GEN-SMT-0064", "name": "PLTU Bengkulu", "osm_name": "PLTU Bengkulu", "type": "PLTU", "capacity_mw": "200.0", "province": "Bengkulu", "system": "Sumatra", "status": "existing", "operator": "", "method": "combustion", "osm_id": "way/930719085", "osm_source": "coal", "review_flag": "", "source_id": "OSM-overpass", "capacity_unit": "MW", "role": "Utility", "roleDescription": "Memasok listrik ke sistem kelistrikan publik.", "roleConfidence": "", "roleReason": ""}}, {"type": "Feature", "geometry": {"type": "Point", "coordinates": [98.6686635, 3.6159362]}, "properties": {"id": "GEN-SMT-0065", "name": "PLTG Glugur", "osm_name": "PLTG Glugur", "type": "PLTG", "capacity_mw": "44.0", "province": "Sumatera Utara", "system": "Sumatra", "status": "existing", "operator": "", "method": "combustion", "osm_id": "way/930833477", "osm_source": "gas", "review_flag": "", "source_id": "OSM-overpass", "capacity_unit": "MW", "role": "Utility", "roleDescription": "Memasok listrik ke sistem kelistrikan publik.", "roleConfidence": "", "roleReason": ""}}, {"type": "Feature", "geometry": {"type": "Point", "coordinates": [98.6663822, 3.7146521]}, "properties": {"id": "GEN-SMT-0066", "name": "PLTG Paya Pasir", "osm_name": "PLTG Paya Pasir", "type": "PLTG", "capacity_mw": "75.0", "province": "Sumatera Utara", "system": "Sumatra", "status": "existing", "operator": "", "method": "", "osm_id": "way/930833481", "osm_source": "gas", "review_flag": "", "source_id": "OSM-overpass", "capacity_unit": "MW", "role": "Utility", "roleDescription": "Memasok listrik ke sistem kelistrikan publik.", "roleConfidence": "", "roleReason": ""}}, {"type": "Feature", "geometry": {"type": "Point", "coordinates": [103.6485919, -4.1979192]}, "properties": {"id": "GEN-SMT-0067", "name": "PLTP Lumut Balai", "osm_name": "PLTP Lumut Balai", "type": "PLTP", "capacity_mw": "110.0", "province": "Sumatera Selatan", "system": "Sumatra", "status": "existing", "operator": "", "method": "", "osm_id": "way/931931104", "osm_source": "geothermal", "review_flag": "", "source_id": "OSM-overpass", "capacity_unit": "MW", "role": "Utility", "roleDescription": "Memasok listrik ke sistem kelistrikan publik.", "roleConfidence": "", "roleReason": ""}}, {"type": "Feature", "geometry": {"type": "Point", "coordinates": [104.3848747, -5.3901596]}, "properties": {"id": "GEN-SMT-0068", "name": "PLTA Semangka", "osm_name": "PLTA Semangka", "type": "PLTA", "capacity_mw": "56.0", "province": "Lampung", "system": "Sumatra", "status": "existing", "operator": "", "method": "", "osm_id": "way/931931106", "osm_source": "hydro", "review_flag": "", "source_id": "OSM-overpass", "capacity_unit": "MW", "role": "Utility", "roleDescription": "Memasok listrik ke sistem kelistrikan publik.", "roleConfidence": "", "roleReason": ""}}, {"type": "Feature", "geometry": {"type": "Point", "coordinates": [104.5096645, -4.944151]}, "properties": {"id": "GEN-SMT-0069", "name": "PLTA Besai", "osm_name": "PLTA Besai", "type": "PLTA", "capacity_mw": "90.0", "province": "Lampung", "system": "Sumatra", "status": "existing", "operator": "PLN", "method": "", "osm_id": "way/931931108", "osm_source": "hydro", "review_flag": "", "source_id": "OSM-overpass", "capacity_unit": "MW", "role": "Utility", "roleDescription": "Memasok listrik ke sistem kelistrikan publik.", "roleConfidence": "", "roleReason": ""}}, {"type": "Feature", "geometry": {"type": "Point", "coordinates": [105.1739671, -5.1839942]}, "properties": {"id": "GEN-SMT-0070", "name": "PLTD Tegineneng", "osm_name": "PLTD Tegineneng", "type": "PLTD", "capacity_mw": "28.5", "province": "Lampung", "system": "Sumatra", "status": "existing", "operator": "", "method": "", "osm_id": "way/931931152", "osm_source": "diesel", "review_flag": "", "source_id": "OSM-overpass", "capacity_unit": "MW", "role": "Utility", "roleDescription": "Memasok listrik ke sistem kelistrikan publik.", "roleConfidence": "", "roleReason": ""}}, {"type": "Feature", "geometry": {"type": "Point", "coordinates": [99.067744, 1.5117335]}, "properties": {"id": "GEN-SMT-0071", "name": "PLTA Batang Toru", "osm_name": "PLTA Batang Toru", "type": "PLTA", "capacity_mw": "510.0", "province": "Sumatera Utara", "system": "Sumatra", "status": "existing", "operator": "", "method": "", "osm_id": "way/938146449", "osm_source": "hydro", "review_flag": "", "source_id": "OSM-overpass", "capacity_unit": "MW", "role": "Utility", "roleDescription": "Memasok listrik ke sistem kelistrikan publik.", "roleConfidence": "", "roleReason": ""}}, {"type": "Feature", "geometry": {"type": "Point", "coordinates": [99.5707052, 0.7150503]}, "properties": {"id": "GEN-SMT-0072", "name": "PLTP Sorik Marapi", "osm_name": "PLTP Sorik Marapi", "type": "PLTP", "capacity_mw": "240.0", "province": "Sumatera Utara", "system": "Sumatra", "status": "existing", "operator": "", "method": "", "osm_id": "way/938146456", "osm_source": "geothermal", "review_flag": "", "source_id": "OSM-overpass", "capacity_unit": "MW", "role": "Utility", "roleDescription": "Memasok listrik ke sistem kelistrikan publik.", "roleConfidence": "", "roleReason": ""}}, {"type": "Feature", "geometry": {"type": "Point", "coordinates": [101.2255963, 1.3723051]}, "properties": {"id": "GEN-SMT-0073", "name": "PLTGU Cogeneration North Duri", "osm_name": "North Duri Cogeneration Plant", "type": "PLTG", "capacity_mw": "300.0", "province": "Riau", "system": "Sumatra", "status": "existing", "operator": "", "method": "combustion", "osm_id": "way/939125618", "osm_source": "gas", "review_flag": "", "source_id": "OSM-overpass", "capacity_unit": "MW", "role": "Captive", "roleDescription": "Memasok listrik untuk kebutuhan industri atau pelanggan khusus.", "roleConfidence": "High", "roleReason": "Nama/operator menunjukkan fasilitas refinery/oil-gas"}}, {"type": "Feature", "geometry": {"type": "Point", "coordinates": [101.2811511, 1.0732598]}, "properties": {"id": "GEN-SMT-0074", "name": "PLTMG Balai Pungut", "osm_name": "PLTMG Balai Pungut", "type": "PLTMG", "capacity_mw": "200.0", "province": "Riau", "system": "Sumatra", "status": "existing", "operator": "", "method": "", "osm_id": "way/939125620", "osm_source": "coal", "review_flag": "", "source_id": "OSM-overpass", "capacity_unit": "MW", "role": "Utility", "roleDescription": "Memasok listrik ke sistem kelistrikan publik.", "roleConfidence": "", "roleReason": ""}}, {"type": "Feature", "geometry": {"type": "Point", "coordinates": [102.0653312, 0.8266724]}, "properties": {"id": "GEN-SMT-0075", "name": "PLTU Koto Ringin", "osm_name": "PLTU Koto Ringin", "type": "PLTU", "capacity_mw": "6.0", "province": "Riau", "system": "Sumatra", "status": "stalled", "operator": "", "method": "combustion", "osm_id": "way/939125630", "osm_source": "coal", "review_flag": "", "source_id": "OSM-overpass", "capacity_unit": "MW", "role": "Utility", "roleDescription": "Memasok listrik ke sistem kelistrikan publik.", "roleConfidence": "", "roleReason": ""}}, {"type": "Feature", "geometry": {"type": "Point", "coordinates": [104.7169483, -3.0256146]}, "properties": {"id": "GEN-SMT-0076", "name": "PLTGU Musi II", "osm_name": "PLTGU Musi II", "type": "PLTGU", "capacity_mw": "30.0", "province": "Sumatera Selatan", "system": "Sumatra", "status": "existing", "operator": "", "method": "", "osm_id": "way/940047516", "osm_source": "gas", "review_flag": "", "source_id": "OSM-overpass", "capacity_unit": "MW", "role": "Utility", "roleDescription": "Memasok listrik ke sistem kelistrikan publik.", "roleConfidence": "", "roleReason": ""}}, {"type": "Feature", "geometry": {"type": "Point", "coordinates": [104.8721878, -2.9228194]}, "properties": {"id": "GEN-SMT-0077", "name": "PLTG Borang", "osm_name": "PLTG Borang", "type": "PLTG", "capacity_mw": "100.0", "province": "Sumatera Selatan", "system": "Sumatra", "status": "existing", "operator": "", "method": "combustion", "osm_id": "way/940047517", "osm_source": "gas", "review_flag": "NO_CAPACITY", "source_id": "OSM-overpass", "capacity_unit": "MW", "role": "Utility", "roleDescription": "Memasok listrik ke sistem kelistrikan publik.", "roleConfidence": "", "roleReason": ""}}, {"type": "Feature", "geometry": {"type": "Point", "coordinates": [104.8706872, -2.9285278]}, "properties": {"id": "GEN-SMT-0078", "name": "PLTG Palembang Timur", "osm_name": "Palembang Timur Power Plant", "type": "PLTG", "capacity_mw": "150.0", "province": "Sumatera Selatan", "system": "Sumatra", "status": "existing", "operator": "", "method": "", "osm_id": "way/940047518", "osm_source": "gas", "review_flag": "", "source_id": "OSM-overpass", "capacity_unit": "MW", "role": "Utility", "roleDescription": "Memasok listrik ke sistem kelistrikan publik.", "roleConfidence": "", "roleReason": ""}}, {"type": "Feature", "geometry": {"type": "Point", "coordinates": [104.8091881, -2.9678089]}, "properties": {"id": "GEN-SMT-0079", "name": "PLTD Sungai Juaro", "osm_name": "PLTD Sungai Juaro", "type": "PLTD", "capacity_mw": "25.0", "province": "Sumatera Selatan", "system": "Sumatra", "status": "existing", "operator": "", "method": "", "osm_id": "way/940047527", "osm_source": "diesel", "review_flag": "", "source_id": "OSM-overpass", "capacity_unit": "MW", "role": "Utility", "roleDescription": "Memasok listrik ke sistem kelistrikan publik.", "roleConfidence": "", "roleReason": ""}}, {"type": "Feature", "geometry": {"type": "Point", "coordinates": [103.6902133, -3.7244961]}, "properties": {"id": "GEN-SMT-0080", "name": "PLTU Banjarsari", "osm_name": "PLTU Banjarsari", "type": "PLTU", "capacity_mw": "270.0", "province": "Sumatera Selatan", "system": "Sumatra", "status": "existing", "operator": "PT Bukit Pembangkit Innovative", "method": "combustion", "osm_id": "way/940526241", "osm_source": "coal", "review_flag": "", "source_id": "OSM-overpass", "capacity_unit": "MW", "role": "Utility", "roleDescription": "Memasok listrik ke sistem kelistrikan publik.", "roleConfidence": "", "roleReason": ""}}, {"type": "Feature", "geometry": {"type": "Point", "coordinates": [103.0821877, -1.0077707]}, "properties": {"id": "GEN-SMT-0082", "name": "PLTU Sinar Mas Lontar Jambi", "osm_name": "Sinar Mas Jambi Lontar Power Plant", "type": "PLTU", "capacity_mw": "211.0", "province": "Jambi", "system": "Sumatra", "status": "existing", "operator": "PT Lontar Papyrus Pulp & Paper Mill", "method": "", "osm_id": "way/946699119", "osm_source": "", "review_flag": "NO_CAPACITY;NO_TYPE", "source_id": "OSM-overpass", "capacity_unit": "MW", "role": "Captive", "roleDescription": "Memasok listrik untuk kebutuhan industri atau pelanggan khusus.", "roleConfidence": "High", "roleReason": "Nama/operator menunjukkan pabrik pulp & paper"}}, {"type": "Feature", "geometry": {"type": "Point", "coordinates": [104.6266815, 0.9070262]}, "properties": {"id": "GEN-SMT-0083", "name": "PLTU Galang Batang", "osm_name": "PLTU Galang Batang", "type": "PLTU", "capacity_mw": "200.0", "province": "Kepulauan Riau", "system": "Batam", "status": "existing", "operator": "", "method": "combustion", "osm_id": "way/948167520", "osm_source": "coal", "review_flag": "", "source_id": "OSM-overpass", "capacity_unit": "MW", "role": "Utility", "roleDescription": "Memasok listrik ke sistem kelistrikan publik.", "roleConfidence": "", "roleReason": ""}}, {"type": "Feature", "geometry": {"type": "Point", "coordinates": [104.0226732, 1.1786981]}, "properties": {"id": "GEN-SMT-0084", "name": "PLTD Batu Ampar", "osm_name": "PLTD Batu Ampar", "type": "PLTD", "capacity_mw": "10.0", "province": "Kepulauan Riau", "system": "Batam", "status": "existing", "operator": "", "method": "", "osm_id": "way/948167521", "osm_source": "diesel", "review_flag": "", "source_id": "OSM-overpass", "capacity_unit": "MW", "role": "Utility", "roleDescription": "Memasok listrik ke sistem kelistrikan publik.", "roleConfidence": "", "roleReason": ""}}, {"type": "Feature", "geometry": {"type": "Point", "coordinates": [108.2535495, -2.8670846]}, "properties": {"id": "GEN-SMT-0085", "name": "PLTD Padang", "osm_name": "PLTD Padang", "type": "PLTD", "capacity_mw": "5.0", "province": "Kepulauan Bangka Belitung", "system": "Babel", "status": "existing", "operator": "", "method": "", "osm_id": "way/953023894", "osm_source": "diesel", "review_flag": "", "source_id": "OSM-overpass", "capacity_unit": "MW", "role": "Utility", "roleDescription": "Memasok listrik ke sistem kelistrikan publik.", "roleConfidence": "", "roleReason": ""}}, {"type": "Feature", "geometry": {"type": "Point", "coordinates": [107.5637904, -2.8929037]}, "properties": {"id": "GEN-SMT-0086", "name": "PLTU Suge", "osm_name": "PLTU Suge", "type": "PLTU", "capacity_mw": "33.0", "province": "Kepulauan Bangka Belitung", "system": "Babel", "status": "existing", "operator": "", "method": "combustion", "osm_id": "way/953023896", "osm_source": "coal", "review_flag": "", "source_id": "OSM-overpass", "capacity_unit": "MW", "role": "Utility", "roleDescription": "Memasok listrik ke sistem kelistrikan publik.", "roleConfidence": "", "roleReason": ""}}, {"type": "Feature", "geometry": {"type": "Point", "coordinates": [102.1468811, -3.0731025]}, "properties": {"id": "GEN-SMT-0087", "name": "PLTA Air Putih", "osm_name": "PLTA Air Putih", "type": "PLTA", "capacity_mw": "21.0", "province": "Bengkulu", "system": "Sumatra", "status": "existing", "operator": "", "method": "", "osm_id": "way/956594055", "osm_source": "hydro", "review_flag": "", "source_id": "OSM-overpass", "capacity_unit": "MW", "role": "Utility", "roleDescription": "Memasok listrik ke sistem kelistrikan publik.", "roleConfidence": "", "roleReason": ""}}, {"type": "Feature", "geometry": {"type": "Point", "coordinates": [102.306329, -3.1905433]}, "properties": {"id": "GEN-SMT-0088", "name": "PLTA Lebong", "osm_name": "PLTA Lebong", "type": "PLTA", "capacity_mw": "14.0", "province": "Bengkulu", "system": "Sumatra", "status": "existing", "operator": "", "method": "", "osm_id": "way/956594057", "osm_source": "hydro", "review_flag": "", "source_id": "OSM-overpass", "capacity_unit": "MW", "role": "Utility", "roleDescription": "Memasok listrik ke sistem kelistrikan publik.", "roleConfidence": "", "roleReason": ""}}, {"type": "Feature", "geometry": {"type": "Point", "coordinates": [102.3181629, -3.2067037]}, "properties": {"id": "GEN-SMT-0089", "name": "PLTA Tes", "osm_name": "PLTA Tes", "type": "PLTA", "capacity_mw": "18.0", "province": "Bengkulu", "system": "Sumatra", "status": "existing", "operator": "", "method": "", "osm_id": "way/956594058", "osm_source": "hydro", "review_flag": "", "source_id": "OSM-overpass", "capacity_unit": "MW", "role": "Utility", "roleDescription": "Memasok listrik ke sistem kelistrikan publik.", "roleConfidence": "", "roleReason": ""}}, {"type": "Feature", "geometry": {"type": "Point", "coordinates": [102.268821, -3.7878255]}, "properties": {"id": "GEN-SMT-0090", "name": "PLTD Suka Merindu", "osm_name": "PLTD Suka Merindu", "type": "PLTD", "capacity_mw": "33.0", "province": "Bengkulu", "system": "Sumatra", "status": "existing", "operator": "", "method": "", "osm_id": "way/956594059", "osm_source": "diesel", "review_flag": "", "source_id": "OSM-overpass", "capacity_unit": "MW", "role": "Utility", "roleDescription": "Memasok listrik ke sistem kelistrikan publik.", "roleConfidence": "", "roleReason": ""}}, {"type": "Feature", "geometry": {"type": "Point", "coordinates": [98.212291, 3.2549323]}, "properties": {"id": "GEN-SMT-0091", "name": "PLTA Wampu", "osm_name": "PLTA Wampu", "type": "PLTA", "capacity_mw": "45.0", "province": "Sumatera Utara", "system": "Sumatra", "status": "existing", "operator": "", "method": "", "osm_id": "way/957085166", "osm_source": "hydro", "review_flag": "", "source_id": "OSM-overpass", "capacity_unit": "MW", "role": "Utility", "roleDescription": "Memasok listrik ke sistem kelistrikan publik.", "roleConfidence": "", "roleReason": ""}}, {"type": "Feature", "geometry": {"type": "Point", "coordinates": [104.7828233, -5.25557]}, "properties": {"id": "GEN-SMT-0092", "name": "PLTA Batutegi", "osm_name": "PLTA Batutegi", "type": "PLTA", "capacity_mw": "90.0", "province": "Lampung", "system": "Sumatra", "status": "existing", "operator": "", "method": "", "osm_id": "way/958109271", "osm_source": "hydro", "review_flag": "", "source_id": "OSM-overpass", "capacity_unit": "MW", "role": "Utility", "roleDescription": "Memasok listrik ke sistem kelistrikan publik.", "roleConfidence": "", "roleReason": ""}}, {"type": "Feature", "geometry": {"type": "Point", "coordinates": [99.474152, 2.2989375]}, "properties": {"id": "GEN-SMT-0093", "name": "PLTA Hasang", "osm_name": "PLTA Hasang", "type": "PLTA", "capacity_mw": "39.0", "province": "Sumatera Utara", "system": "Sumatra", "status": "existing", "operator": "", "method": "", "osm_id": "way/958172154", "osm_source": "hydro", "review_flag": "", "source_id": "OSM-overpass", "capacity_unit": "MW", "role": "Utility", "roleDescription": "Memasok listrik ke sistem kelistrikan publik.", "roleConfidence": "", "roleReason": ""}}, {"type": "Feature", "geometry": {"type": "Point", "coordinates": [99.3098214, 2.5606618]}, "properties": {"id": "GEN-SMT-0094", "name": "PLTA Tangga", "osm_name": "PLTA Tangga", "type": "PLTA", "capacity_mw": "317.0", "province": "Sumatera Utara", "system": "Sumatra", "status": "existing", "operator": "", "method": "", "osm_id": "way/958172156", "osm_source": "hydro", "review_flag": "", "source_id": "OSM-overpass", "capacity_unit": "MW", "role": "Utility", "roleDescription": "Memasok listrik ke sistem kelistrikan publik.", "roleConfidence": "", "roleReason": ""}}, {"type": "Feature", "geometry": {"type": "Point", "coordinates": [95.3278944, 5.8749983]}, "properties": {"id": "GEN-SMT-0095", "name": "PLTD Aneuk Laot", "osm_name": "PLTD Aneuk Laot", "type": "PLTD", "capacity_mw": "4.0", "province": "Aceh", "system": "Sumatra", "status": "existing", "operator": "", "method": "", "osm_id": "way/958644942", "osm_source": "diesel", "review_flag": "", "source_id": "OSM-overpass", "capacity_unit": "MW", "role": "Utility", "roleDescription": "Memasok listrik ke sistem kelistrikan publik.", "roleConfidence": "", "roleReason": ""}}, {"type": "Feature", "geometry": {"type": "Point", "coordinates": [95.345612, 5.8555154]}, "properties": {"id": "GEN-SMT-0096", "name": "PLTD Cot Abeuk", "osm_name": "PLTD Cot Abeuk", "type": "PLTD", "capacity_mw": "6.0", "province": "Aceh", "system": "Sumatra", "status": "existing", "operator": "", "method": "", "osm_id": "way/958644943", "osm_source": "diesel", "review_flag": "", "source_id": "OSM-overpass", "capacity_unit": "MW", "role": "Utility", "roleDescription": "Memasok listrik ke sistem kelistrikan publik.", "roleConfidence": "", "roleReason": ""}}, {"type": "Feature", "geometry": {"type": "Point", "coordinates": [95.0755434, 5.6696603]}, "properties": {"id": "GEN-SMT-0097", "name": "PLTD Seurapong", "osm_name": "PLTD Seurapong", "type": "PLTD", "capacity_mw": "0.5", "province": "Aceh", "system": "Sumatra", "status": "existing", "operator": "", "method": "", "osm_id": "way/958644944", "osm_source": "diesel", "review_flag": "", "source_id": "OSM-overpass", "capacity_unit": "MW", "role": "Utility", "roleDescription": "Memasok listrik ke sistem kelistrikan publik.", "roleConfidence": "", "roleReason": ""}}, {"type": "Feature", "geometry": {"type": "Point", "coordinates": [95.171582, 5.6084823]}, "properties": {"id": "GEN-SMT-0098", "name": "PLTD Deudap", "osm_name": "PLTD Deudap", "type": "PLTD", "capacity_mw": "0.3", "province": "Aceh", "system": "Sumatra", "status": "existing", "operator": "", "method": "", "osm_id": "way/958644945", "osm_source": "diesel", "review_flag": "", "source_id": "OSM-overpass", "capacity_unit": "MW", "role": "Utility", "roleDescription": "Memasok listrik ke sistem kelistrikan publik.", "roleConfidence": "", "roleReason": ""}}, {"type": "Feature", "geometry": {"type": "Point", "coordinates": [98.6697348, 3.7755498]}, "properties": {"id": "GEN-SMT-0099", "name": "PLTG Kapal MV Karadeniz Powership Onur Sultan", "osm_name": "MV Karadeniz Powership Onur Sultan", "type": "PLTG", "capacity_mw": "240.0", "province": "Sumatera Utara", "system": "Sumatra", "status": "existing", "operator": "", "method": "combustion", "osm_id": "way/1034545850", "osm_source": "gas", "review_flag": "NO_CAPACITY", "source_id": "OSM-overpass", "capacity_unit": "MW", "role": "Utility", "roleDescription": "Memasok listrik ke sistem kelistrikan publik.", "roleConfidence": "", "roleReason": ""}}, {"type": "Feature", "geometry": {"type": "Point", "coordinates": [102.8527342, -2.1243999]}, "properties": {"id": "GEN-SMT-0100", "name": "PLTU Semaran", "osm_name": "PLTU Semaran", "type": "PLTU", "capacity_mw": "14.0", "province": "Jambi", "system": "Sumatra", "status": "existing", "operator": "PT Permata Prima Elektrindo", "method": "", "osm_id": "way/1052212667", "osm_source": "biomass", "review_flag": "NO_CAPACITY", "source_id": "OSM-overpass", "capacity_unit": "MW", "role": "Utility", "roleDescription": "Memasok listrik ke sistem kelistrikan publik.", "roleConfidence": "", "roleReason": ""}}, {"type": "Feature", "geometry": {"type": "Point", "coordinates": [101.5205226, 0.5396725]}, "properties": {"id": "GEN-SMT-0101", "name": "PLTGU Tenayan MRPR", "osm_name": "Riau (MRPR) Power Plant", "type": "PLTGU", "capacity_mw": "296.2", "province": "Riau", "system": "Sumatra", "status": "existing", "operator": "", "method": "", "osm_id": "way/1107800132", "osm_source": "", "review_flag": "NO_CAPACITY;NO_TYPE", "source_id": "OSM-overpass", "capacity_unit": "MW", "role": "Utility", "roleDescription": "Memasok listrik ke sistem kelistrikan publik.", "roleConfidence": "", "roleReason": ""}}, {"type": "Feature", "geometry": {"type": "Point", "coordinates": [100.456433, -0.9067185]}, "properties": {"id": "GEN-SMT-0102", "name": "Waterkracht Centrale Koerandji", "osm_name": "Waterkracht Centrale Koerandji", "type": "PLTA", "capacity_mw": "", "province": "Sumatera Barat", "system": "Sumatra", "status": "existing", "operator": "", "method": "run-of-the-river", "osm_id": "way/1127696139", "osm_source": "hydro", "review_flag": "NO_CAPACITY", "source_id": "OSM-overpass", "capacity_unit": "MW", "role": "Utility", "roleDescription": "Memasok listrik ke sistem kelistrikan publik.", "roleConfidence": "", "roleReason": ""}}, {"type": "Feature", "geometry": {"type": "Point", "coordinates": [97.6782952, 1.2084754]}, "properties": {"id": "GEN-SMT-0103", "name": "PLTMG MPP Nias", "osm_name": "PLTMG MPP Nias", "type": "PLTMG", "capacity_mw": "25.0", "province": "Sumatera Utara", "system": "Sumatra", "status": "existing", "operator": "", "method": "combustion", "osm_id": "way/1180199241", "osm_source": "gas", "review_flag": "", "source_id": "OSM-overpass", "capacity_unit": "MW", "role": "Utility", "roleDescription": "Memasok listrik ke sistem kelistrikan publik.", "roleConfidence": "", "roleReason": ""}}, {"type": "Feature", "geometry": {"type": "Point", "coordinates": [97.6781772, 1.2103007]}, "properties": {"id": "GEN-SMT-0104", "name": "PLTG Nias", "osm_name": "PLTG Nias", "type": "PLTG", "capacity_mw": "25.0", "province": "Sumatera Utara", "system": "Sumatra", "status": "existing", "operator": "", "method": "combustion", "osm_id": "way/1180199242", "osm_source": "gas", "review_flag": "", "source_id": "OSM-overpass", "capacity_unit": "MW", "role": "Utility", "roleDescription": "Memasok listrik ke sistem kelistrikan publik.", "roleConfidence": "", "roleReason": ""}}, {"type": "Feature", "geometry": {"type": "Point", "coordinates": [96.2021711, 4.1151476]}, "properties": {"id": "GEN-SMT-0105", "name": "PLTU IPP Nagan Raya", "osm_name": "PLTU IPP Nagan Raya", "type": "PLTU", "capacity_mw": "400.0", "province": "Aceh", "system": "Sumatra", "status": "existing", "operator": "Perusahaan Listrik Negara", "method": "combustion", "osm_id": "way/1180983527", "osm_source": "coal", "review_flag": "", "source_id": "OSM-overpass", "capacity_unit": "MW", "role": "Utility", "roleDescription": "Memasok listrik ke sistem kelistrikan publik.", "roleConfidence": "", "roleReason": ""}}, {"type": "Feature", "geometry": {"type": "Point", "coordinates": [101.8924244, 0.4388772]}, "properties": {"id": "GEN-SMT-0107", "name": "PLT Biomas RAPP Pangkalan Kerinci", "osm_name": "Riau Andalan Pulp & Paper Power Station", "type": "PLT Biomass", "capacity_mw": "", "province": "Riau", "system": "Sumatra", "status": "existing", "operator": "", "method": "", "osm_id": "way/1189446338", "osm_source": "biomass", "review_flag": "NO_CAPACITY", "source_id": "OSM-overpass", "capacity_unit": "MW", "role": "Captive", "roleDescription": "Memasok listrik untuk kebutuhan industri atau pelanggan khusus.", "roleConfidence": "High", "roleReason": "Nama/operator menunjukkan pabrik pulp & paper"}}, {"type": "Feature", "geometry": {"type": "Point", "coordinates": [101.2805214, 1.0699788]}, "properties": {"id": "GEN-SMT-0108", "name": "PLTG Duri", "osm_name": "Duri Power Plant", "type": "PLTG", "capacity_mw": "112.0", "province": "Riau", "system": "Sumatra", "status": "existing", "operator": "", "method": "combustion", "osm_id": "way/1203478280", "osm_source": "gas", "review_flag": "", "source_id": "OSM-overpass", "capacity_unit": "MW", "role": "Utility", "roleDescription": "Memasok listrik ke sistem kelistrikan publik.", "roleConfidence": "", "roleReason": ""}}, {"type": "Feature", "geometry": {"type": "Point", "coordinates": [106.1487126, -2.0765961]}, "properties": {"id": "GEN-SMT-0109", "name": "PLTG MPP Air Anyir", "osm_name": "PLTG MPP Air Anyir", "type": "PLTG", "capacity_mw": "50.0", "province": "Kepulauan Bangka Belitung", "system": "Babel", "status": "existing", "operator": "", "method": "combustion", "osm_id": "way/1214611090", "osm_source": "gas", "review_flag": "", "source_id": "OSM-overpass", "capacity_unit": "MW", "role": "Utility", "roleDescription": "Memasok listrik ke sistem kelistrikan publik.", "roleConfidence": "", "roleReason": ""}}, {"type": "Feature", "geometry": {"type": "Point", "coordinates": [99.3448779, 3.127251]}, "properties": {"id": "GEN-SMT-0110", "name": "PLTBg Sei Mangkei", "osm_name": "PLTBg Sei Mangkei", "type": "PLTBg", "capacity_mw": "2.4", "province": "Sumatera Utara", "system": "Sumatra", "status": "existing", "operator": "", "method": "combustion", "osm_id": "way/1224794317", "osm_source": "biogas", "review_flag": "NO_TYPE", "source_id": "OSM-overpass", "capacity_unit": "MW", "role": "Utility", "roleDescription": "Memasok listrik ke sistem kelistrikan publik.", "roleConfidence": "", "roleReason": ""}}, {"type": "Feature", "geometry": {"type": "Point", "coordinates": [98.6667543, 3.7711009]}, "properties": {"id": "GEN-SMT-0111", "name": "PLTD PT Berkat Bima Sentana Medan", "osm_name": "PT Berkat Bima Sentana Power Plant", "type": "PLTD", "capacity_mw": "120.0", "province": "Sumatera Utara", "system": "Sumatra", "status": "existing", "operator": "", "method": "combustion", "osm_id": "way/1227244933", "osm_source": "oil", "review_flag": "NO_CAPACITY", "source_id": "OSM-overpass", "capacity_unit": "MW", "role": "Utility", "roleDescription": "Memasok listrik ke sistem kelistrikan publik.", "roleConfidence": "", "roleReason": ""}}, {"type": "Feature", "geometry": {"type": "Point", "coordinates": [101.2010674, -2.1283044]}, "properties": {"id": "GEN-SMT-0112", "name": "PLTM Sako-1", "osm_name": "PLTM Sako-1", "type": "PLTM", "capacity_mw": "6.0", "province": "Sumatera Barat", "system": "Sumatra", "status": "existing", "operator": "", "method": "", "osm_id": "way/1273311983", "osm_source": "hydro", "review_flag": "", "source_id": "OSM-overpass", "capacity_unit": "MW", "role": "Utility", "roleDescription": "Memasok listrik ke sistem kelistrikan publik.", "roleConfidence": "", "roleReason": ""}}, {"type": "Feature", "geometry": {"type": "Point", "coordinates": [96.7427489, 4.6020756]}, "properties": {"id": "GEN-SMT-0113", "name": "PLTA Peusangan 1", "osm_name": "PLTA Peusangan 1", "type": "PLTA", "capacity_mw": "45.0", "province": "Aceh", "system": "Sumatra", "status": "existing", "operator": "", "method": "run-of-the-river", "osm_id": "way/1304188434", "osm_source": "hydro", "review_flag": "", "source_id": "OSM-overpass", "capacity_unit": "MW", "role": "Utility", "roleDescription": "Memasok listrik ke sistem kelistrikan publik.", "roleConfidence": "", "roleReason": ""}}, {"type": "Feature", "geometry": {"type": "Point", "coordinates": [96.6981478, 4.6500598]}, "properties": {"id": "GEN-SMT-0114", "name": "PLTA Peusangan 2", "osm_name": "PLTA Peusangan 2", "type": "PLTA", "capacity_mw": "43.0", "province": "Aceh", "system": "Sumatra", "status": "existing", "operator": "", "method": "run-of-the-river", "osm_id": "way/1304188435", "osm_source": "hydro", "review_flag": "", "source_id": "OSM-overpass", "capacity_unit": "MW", "role": "Utility", "roleDescription": "Memasok listrik ke sistem kelistrikan publik.", "roleConfidence": "", "roleReason": ""}}, {"type": "Feature", "geometry": {"type": "Point", "coordinates": [101.146979, -1.6013056]}, "properties": {"id": "GEN-SMT-0115", "name": "PLTP Muara Laboh", "osm_name": "PLTP Muara Laboh", "type": "PLTP", "capacity_mw": "160.0", "province": "Sumatera Barat", "system": "Sumatra", "status": "existing", "operator": "", "method": "", "osm_id": "way/1312349205", "osm_source": "geothermal", "review_flag": "", "source_id": "OSM-overpass", "capacity_unit": "MW", "role": "Utility", "roleDescription": "Memasok listrik ke sistem kelistrikan publik.", "roleConfidence": "", "roleReason": ""}}, {"type": "Feature", "geometry": {"type": "Point", "coordinates": [98.8672572, 1.7402548]}, "properties": {"id": "GEN-SMT-0116", "name": "PLTA Sipansihaporas I", "osm_name": "PLTA Sipansihaporas I", "type": "PLTA", "capacity_mw": "17.0", "province": "Sumatera Utara", "system": "Sumatra", "status": "existing", "operator": "", "method": "", "osm_id": "way/1314072048", "osm_source": "hydro", "review_flag": "", "source_id": "OSM-overpass", "capacity_unit": "MW", "role": "Utility", "roleDescription": "Memasok listrik ke sistem kelistrikan publik.", "roleConfidence": "", "roleReason": ""}}, {"type": "Feature", "geometry": {"type": "Point", "coordinates": [104.000245, 1.1443175]}, "properties": {"id": "GEN-SMT-0117", "name": "PLTS Batam", "osm_name": "PLTS Batam", "type": "PLTS", "capacity_mw": "1.0", "province": "Kepulauan Riau", "system": "Batam", "status": "existing", "operator": "", "method": "photovoltaic", "osm_id": "way/1315309553", "osm_source": "solar", "review_flag": "", "source_id": "OSM-overpass", "capacity_unit": "MWp", "role": "Utility", "roleDescription": "Memasok listrik ke sistem kelistrikan publik.", "roleConfidence": "", "roleReason": ""}}, {"type": "Feature", "geometry": {"type": "Point", "coordinates": [103.8079329, -3.8391168]}, "properties": {"id": "GEN-SMT-0118", "name": "PLTU Sumsel 8", "osm_name": "PLTU Sumsel 8", "type": "PLTU", "capacity_mw": "1320.0", "province": "Sumatera Selatan", "system": "Sumatra", "status": "existing", "operator": "PT Huadian Bukit Asam Power", "method": "combustion", "osm_id": "way/1316786274", "osm_source": "coal", "review_flag": "", "source_id": "OSM-overpass", "capacity_unit": "MW", "role": "Utility", "roleDescription": "Memasok listrik ke sistem kelistrikan publik.", "roleConfidence": "", "roleReason": ""}}, {"type": "Feature", "geometry": {"type": "Point", "coordinates": [102.3538969, 0.8751148]}, "properties": {"id": "GEN-SMT-0119", "name": "PLTMG Rawa Minyak", "osm_name": "PLTMG Rawa Minyak", "type": "PLTMG", "capacity_mw": "", "province": "Riau", "system": "Sumatra", "status": "existing", "operator": "", "method": "combustion", "osm_id": "way/1321567186", "osm_source": "oil", "review_flag": "NO_CAPACITY", "source_id": "OSM-overpass", "capacity_unit": "MW", "role": "Utility", "roleDescription": "Memasok listrik ke sistem kelistrikan publik.", "roleConfidence": "", "roleReason": ""}}, {"type": "Feature", "geometry": {"type": "Point", "coordinates": [105.793542, -1.600127]}, "properties": {"id": "GEN-SMT-0120", "name": "PLTS Belinyu", "osm_name": "PLTS Belinyu", "type": "PLTS", "capacity_mw": "1.0", "province": "Kepulauan Bangka Belitung", "system": "Babel", "status": "existing", "operator": "", "method": "photovoltaic", "osm_id": "way/1322971756", "osm_source": "solar", "review_flag": "", "source_id": "OSM-overpass", "capacity_unit": "MWp", "role": "Utility", "roleDescription": "Memasok listrik ke sistem kelistrikan publik.", "roleConfidence": "", "roleReason": ""}}, {"type": "Feature", "geometry": {"type": "Point", "coordinates": [101.401951, 1.6428335]}, "properties": {"id": "GEN-SMT-0121", "name": "PLTS Pertamina Dumai", "osm_name": "PLTS Pertamina Dumai", "type": "PLTS", "capacity_mw": "2.0", "province": "Riau", "system": "Sumatra", "status": "existing", "operator": "", "method": "photovoltaic", "osm_id": "way/1322972849", "osm_source": "solar", "review_flag": "", "source_id": "OSM-overpass", "capacity_unit": "MWp", "role": "Captive", "roleDescription": "Memasok listrik untuk kebutuhan industri atau pelanggan khusus.", "roleConfidence": "High", "roleReason": "Nama/operator menunjukkan fasilitas refinery/oil-gas"}}, {"type": "Feature", "geometry": {"type": "Point", "coordinates": [105.2721515, -5.8175951]}, "properties": {"id": "GEN-SMT-0122", "name": "PLTS Teluk Keramat", "osm_name": "PLTS Teluk Keramat", "type": "PLTS", "capacity_mw": "0.07", "province": "Lampung", "system": "Sumatra", "status": "existing", "operator": "", "method": "photovoltaic", "osm_id": "way/1326070098", "osm_source": "solar", "review_flag": "", "source_id": "OSM-overpass", "capacity_unit": "MWp", "role": "Utility", "roleDescription": "Memasok listrik ke sistem kelistrikan publik.", "roleConfidence": "", "roleReason": ""}}, {"type": "Feature", "geometry": {"type": "Point", "coordinates": [99.3602179, 3.1404565]}, "properties": {"id": "GEN-SMT-0123", "name": "PLTS Sei Mangkei", "osm_name": "PLTS Sei Mangkei", "type": "PLTS", "capacity_mw": "2.0", "province": "Sumatera Utara", "system": "Sumatra", "status": "existing", "operator": "", "method": "photovoltaic", "osm_id": "way/1331107102", "osm_source": "solar", "review_flag": "", "source_id": "OSM-overpass", "capacity_unit": "MWp", "role": "Utility", "roleDescription": "Memasok listrik ke sistem kelistrikan publik.", "roleConfidence": "", "roleReason": ""}}, {"type": "Feature", "geometry": {"type": "Point", "coordinates": [101.6723425, -2.2172865]}, "properties": {"id": "GEN-SMT-0124", "name": "PLTA Kerinci", "osm_name": "PLTA Kerinci", "type": "PLTA", "capacity_mw": "350.0", "province": "Jambi", "system": "Sumatra", "status": "existing", "operator": "PT Kerinci Merangin Hidro", "method": "", "osm_id": "way/1376708741", "osm_source": "hydro", "review_flag": "", "source_id": "OSM-overpass", "capacity_unit": "MW", "role": "Utility", "roleDescription": "Memasok listrik ke sistem kelistrikan publik.", "roleConfidence": "", "roleReason": ""}}, {"type": "Feature", "geometry": {"type": "Point", "coordinates": [103.204527, -0.2985338]}, "properties": {"id": "GEN-SMT-0126", "name": "PLTU Tembilahan", "osm_name": "PLTU Tembilahan", "type": "PLTU", "capacity_mw": "14.0", "province": "Riau", "system": "Sumatra", "status": "existing", "operator": "", "method": "combustion", "osm_id": "way/1394466750", "osm_source": "coal", "review_flag": "", "source_id": "OSM-overpass", "capacity_unit": "MW", "role": "Utility", "roleDescription": "Memasok listrik ke sistem kelistrikan publik.", "roleConfidence": "", "roleReason": ""}}, {"type": "Feature", "geometry": {"type": "Point", "coordinates": [102.9158625, -0.5181603]}, "properties": {"id": "GEN-SMT-0127", "name": "PLTU PT Inhil Sarimas Kelapa", "osm_name": "PLTU PT Inhil Sarimas Kelapa", "type": "PLTU", "capacity_mw": "15.0", "province": "Jambi", "system": "Sumatra", "status": "existing", "operator": "", "method": "combustion", "osm_id": "way/1394466866", "osm_source": "coal", "review_flag": "", "source_id": "OSM-overpass", "capacity_unit": "MW", "role": "Utility", "roleDescription": "Memasok listrik ke sistem kelistrikan publik.", "roleConfidence": "", "roleReason": ""}}, {"type": "Feature", "geometry": {"type": "Point", "coordinates": [97.2996323, 4.0168942]}, "properties": {"id": "GEN-SMT-0129", "name": "PLTD Rema", "osm_name": "", "type": "PLTD", "capacity_mw": "3.0", "province": "Aceh", "system": "Sumatra", "status": "existing", "operator": "", "method": "", "osm_id": "way/1460559922", "osm_source": "", "review_flag": "NO_NAME;NO_CAPACITY;NO_TYPE", "source_id": "OSM-overpass", "capacity_unit": "MW", "role": "Utility", "roleDescription": "Memasok listrik ke sistem kelistrikan publik.", "roleConfidence": "", "roleReason": ""}}, {"type": "Feature", "geometry": {"type": "Point", "coordinates": [100.9057351, 0.329262]}, "properties": {"id": "GEN-SMT-0130", "name": "Bendungan Sei Silam", "osm_name": "Bendungan Sei Silam", "type": "PLTA", "capacity_mw": "", "province": "Riau", "system": "Sumatra", "status": "existing", "operator": "", "method": "", "osm_id": "way/1462469867", "osm_source": "hydro", "review_flag": "NO_CAPACITY", "source_id": "OSM-overpass", "capacity_unit": "MW", "role": "Utility", "roleDescription": "Memasok listrik ke sistem kelistrikan publik.", "roleConfidence": "", "roleReason": ""}}, {"type": "Feature", "geometry": {"type": "Point", "coordinates": [103.3150219, 1.0534889]}, "properties": {"id": "GEN-SMT-0131", "name": "PLTU Soma Daya Utama", "osm_name": "PLTU Soma Daya Utama", "type": "PLTU", "capacity_mw": "62.0", "province": "Riau", "system": "Sumatra", "status": "existing", "operator": "", "method": "combustion", "osm_id": "way/1504769297", "osm_source": "coal", "review_flag": "", "source_id": "OSM-overpass", "capacity_unit": "MW", "role": "Utility", "roleDescription": "Memasok listrik ke sistem kelistrikan publik.", "roleConfidence": "", "roleReason": ""}}, {"type": "Feature", "geometry": {"type": "Point", "coordinates": [103.3519128, 1.0122481]}, "properties": {"id": "GEN-SMT-0132", "name": "PLTS Karimun", "osm_name": "PLTS Karimun", "type": "PLTS", "capacity_mw": "5.0", "province": "Riau", "system": "Sumatra", "status": "existing", "operator": "Karimun Power", "method": "photovoltaic", "osm_id": "way/1504769383", "osm_source": "solar", "review_flag": "", "source_id": "OSM-overpass", "capacity_unit": "MWp", "role": "Utility", "roleDescription": "Memasok listrik ke sistem kelistrikan publik.", "roleConfidence": "", "roleReason": ""}}]}