{"type": "FeatureCollection", "features": [{"type": "Feature", "geometry": {"type": "Point", "coordinates": [123.5464335, -10.1884429]}, "properties": {"id": "GEN-NTT-0001", "name": "PLTD Tenau", "osm_name": "PLTD Tenau", "type": "PLTD", "capacity_mw": "6.4", "province": "Nusa Tenggara Timur", "system": "NTT", "status": "existing", "operator": "", "method": "combustion", "osm_id": "way/150155344", "osm_source": "diesel", "review_flag": "", "source_id": "OSM-overpass", "capacity_unit": "MW", "role": "Utility", "roleDescription": "Memasok listrik ke sistem kelistrikan publik.", "roleConfidence": "", "roleReason": ""}}, {"type": "Feature", "geometry": {"type": "Point", "coordinates": [122.1905953, -8.5967197]}, "properties": {"id": "GEN-NTT-0002", "name": "PLTD Wolomarang", "osm_name": "PLTD Wolomarang", "type": "PLTD", "capacity_mw": "3.0", "province": "Nusa Tenggara Timur", "system": "NTT", "status": "existing", "operator": "", "method": "combustion", "osm_id": "way/244246232", "osm_source": "diesel", "review_flag": "", "source_id": "OSM-overpass", "capacity_unit": "MW", "role": "Utility", "roleDescription": "Memasok listrik ke sistem kelistrikan publik.", "roleConfidence": "", "roleReason": ""}}, {"type": "Feature", "geometry": {"type": "Point", "coordinates": [120.2227955, -9.5391303]}, "properties": {"id": "GEN-NTT-0004", "name": "PLTS Hambapraing", "osm_name": "Pembangkit Listrik Tenaga Surya", "type": "PLTS", "capacity_mw": "1.0", "province": "Nusa Tenggara Timur", "system": "NTT", "status": "existing", "operator": "PT Buana Energi Surya Persada", "method": "", "osm_id": "way/515587640", "osm_source": "solar", "review_flag": "", "source_id": "OSM-overpass", "capacity_unit": "MWp", "role": "Utility", "roleDescription": "Memasok listrik ke sistem kelistrikan publik.", "roleConfidence": "", "roleReason": ""}}, {"type": "Feature", "geometry": {"type": "Point", "coordinates": [123.4913586, -10.2393253]}, "properties": {"id": "GEN-NTT-0007", "name": "PLTU Bolok", "osm_name": "PLTU Bolok", "type": "PLTU", "capacity_mw": "33.0", "province": "Nusa Tenggara Timur", "system": "NTT", "status": "existing", "operator": "", "method": "", "osm_id": "way/611789533", "osm_source": "coal", "review_flag": "", "source_id": "OSM-overpass", "capacity_unit": "MW", "role": "Utility", "roleDescription": "Memasok listrik ke sistem kelistrikan publik.", "roleConfidence": "", "roleReason": ""}}, {"type": "Feature", "geometry": {"type": "Point", "coordinates": [124.8180958, -9.005082]}, "properties": {"id": "GEN-NTT-0008", "name": "PLTU Atapupu", "osm_name": "PLTU Atapupu", "type": "PLTU", "capacity_mw": "24.0", "province": "Nusa Tenggara Timur", "system": "NTT", "status": "existing", "operator": "", "method": "", "osm_id": "way/614569627", "osm_source": "", "review_flag": "NO_CAPACITY", "source_id": "OSM-overpass", "capacity_unit": "MW", "role": "Utility", "roleDescription": "Memasok listrik ke sistem kelistrikan publik.", "roleConfidence": "", "roleReason": ""}}, {"type": "Feature", "geometry": {"type": "Point", "coordinates": [123.4593698, -10.353854]}, "properties": {"id": "GEN-NTT-0009", "name": "PLTMG Kupang", "osm_name": "PLTMG Kupang", "type": "PLTMG", "capacity_mw": "40.0", "province": "Nusa Tenggara Timur", "system": "NTT", "status": "existing", "operator": "", "method": "", "osm_id": "way/716898232", "osm_source": "gas", "review_flag": "", "source_id": "OSM-overpass", "capacity_unit": "MW", "role": "Utility", "roleDescription": "Memasok listrik ke sistem kelistrikan publik.", "roleConfidence": "", "roleReason": ""}}, {"type": "Feature", "geometry": {"type": "Point", "coordinates": [123.7486233, -10.1469168]}, "properties": {"id": "GEN-NTT-0010", "name": "PLTS Oelpuah", "osm_name": "PLTS Oelpuah", "type": "PLTS", "capacity_mw": "5.0", "province": "Nusa Tenggara Timur", "system": "NTT", "status": "existing", "operator": "PT Lembaga Elektronik Nasional (LEN)", "method": "photovoltaic", "osm_id": "way/798987869", "osm_source": "solar", "review_flag": "", "source_id": "OSM-overpass", "capacity_unit": "MWp", "role": "Utility", "roleDescription": "Memasok listrik ke sistem kelistrikan publik.", "roleConfidence": "", "roleReason": ""}}, {"type": "Feature", "geometry": {"type": "Point", "coordinates": [120.5704061, -8.7601128]}, "properties": {"id": "GEN-NTT-0011", "name": "PLTMH Sita", "osm_name": "", "type": "PLTMH", "capacity_mw": "1.0", "province": "Nusa Tenggara Timur", "system": "NTT", "status": "existing", "operator": "", "method": "run-of-the-river", "osm_id": "way/845393015", "osm_source": "hydro", "review_flag": "NO_NAME;NO_CAPACITY", "source_id": "OSM-overpass", "capacity_unit": "MW", "role": "Community", "roleDescription": "Memasok listrik untuk komunitas lokal, desa terpencil, atau pulau kecil.", "roleConfidence": "High", "roleReason": "Sistem elektrifikasi desa"}}, {"type": "Feature", "geometry": {"type": "Point", "coordinates": [122.3282918, -8.6296498]}, "properties": {"id": "GEN-NTT-0012", "name": "PLTS Maumere", "osm_name": "PLTS Maumere", "type": "PLTS", "capacity_mw": "2.0", "province": "Nusa Tenggara Timur", "system": "NTT", "status": "existing", "operator": "", "method": "photovoltaic", "osm_id": "way/937059859", "osm_source": "solar", "review_flag": "", "source_id": "OSM-overpass", "capacity_unit": "MWp", "role": "Utility", "roleDescription": "Memasok listrik ke sistem kelistrikan publik.", "roleConfidence": "", "roleReason": ""}}, {"type": "Feature", "geometry": {"type": "Point", "coordinates": [122.3410147, -8.6198021]}, "properties": {"id": "GEN-NTT-0013", "name": "PLTMG Maumere", "osm_name": "PLTMG Maumere", "type": "PLTMG", "capacity_mw": "40.0", "province": "Nusa Tenggara Timur", "system": "NTT", "status": "existing", "operator": "", "method": "", "osm_id": "way/937059861", "osm_source": "gas", "review_flag": "", "source_id": "OSM-overpass", "capacity_unit": "MW", "role": "Utility", "roleDescription": "Memasok listrik ke sistem kelistrikan publik.", "roleConfidence": "", "roleReason": ""}}, {"type": "Feature", "geometry": {"type": "Point", "coordinates": [121.6998428, -8.5106178]}, "properties": {"id": "GEN-NTT-0014", "name": "PLTU Ropa", "osm_name": "PLTU Ropa", "type": "PLTU", "capacity_mw": "14.0", "province": "Nusa Tenggara Timur", "system": "NTT", "status": "existing", "operator": "", "method": "", "osm_id": "way/937059863", "osm_source": "coal", "review_flag": "", "source_id": "OSM-overpass", "capacity_unit": "MW", "role": "Utility", "roleDescription": "Memasok listrik ke sistem kelistrikan publik.", "roleConfidence": "", "roleReason": ""}}, {"type": "Feature", "geometry": {"type": "Point", "coordinates": [119.9435178, -8.4610735]}, "properties": {"id": "GEN-NTT-0015", "name": "PLTMG Flores", "osm_name": "PLTMG Flores", "type": "PLTMG", "capacity_mw": "20.0", "province": "Nusa Tenggara Timur", "system": "NTT", "status": "existing", "operator": "", "method": "", "osm_id": "way/937059866", "osm_source": "gas", "review_flag": "", "source_id": "OSM-overpass", "capacity_unit": "MW", "role": "Utility", "roleDescription": "Memasok listrik ke sistem kelistrikan publik.", "roleConfidence": "", "roleReason": ""}}, {"type": "Feature", "geometry": {"type": "Point", "coordinates": [120.4355139, -8.7260519]}, "properties": {"id": "GEN-NTT-0016", "name": "PLTP Ulumbu", "osm_name": "PLTG Ulumbu", "type": "PLTP", "capacity_mw": "10.0", "province": "Nusa Tenggara Timur", "system": "NTT", "status": "existing", "operator": "", "method": "", "osm_id": "way/937059867", "osm_source": "geothermal", "review_flag": "", "source_id": "OSM-overpass", "capacity_unit": "MW", "role": "Utility", "roleDescription": "Memasok listrik ke sistem kelistrikan publik.", "roleConfidence": "", "roleReason": ""}}, {"type": "Feature", "geometry": {"type": "Point", "coordinates": [123.4589058, -10.3501327]}, "properties": {"id": "GEN-NTT-0017", "name": "PLTU Timor-1", "osm_name": "PLTU Timor-1", "type": "PLTU", "capacity_mw": "100.0", "province": "Nusa Tenggara Timur", "system": "NTT", "status": "existing", "operator": "", "method": "combustion", "osm_id": "way/1198315805", "osm_source": "coal", "review_flag": "", "source_id": "OSM-overpass", "capacity_unit": "MW", "role": "Utility", "roleDescription": "Memasok listrik ke sistem kelistrikan publik.", "roleConfidence": "", "roleReason": ""}}, {"type": "Feature", "geometry": {"type": "Point", "coordinates": [121.76608, -8.7929784]}, "properties": {"id": "GEN-NTT-0018", "name": "PLTP Sokoria", "osm_name": "PLTP Sokoria", "type": "PLTP", "capacity_mw": "8.0", "province": "Nusa Tenggara Timur", "system": "NTT", "status": "existing", "operator": "", "method": "", "osm_id": "way/1313835498", "osm_source": "geothermal", "review_flag": "", "source_id": "OSM-overpass", "capacity_unit": "MW", "role": "Utility", "roleDescription": "Memasok listrik ke sistem kelistrikan publik.", "roleConfidence": "", "roleReason": ""}}, {"type": "Feature", "geometry": {"type": "Point", "coordinates": [122.8307471, -10.8839841]}, "properties": {"id": "GEN-NTT-0019", "name": "PLTS Nembrala", "osm_name": "PLTS Nembrala", "type": "PLTS", "capacity_mw": "0.1", "province": "Nusa Tenggara Timur", "system": "NTT", "status": "existing", "operator": "", "method": "photovoltaic", "osm_id": "way/1322035311", "osm_source": "solar", "review_flag": "", "source_id": "OSM-overpass", "capacity_unit": "MWp", "role": "Community", "roleDescription": "Memasok listrik untuk komunitas lokal, desa terpencil, atau pulau kecil.", "roleConfidence": "High", "roleReason": "Sistem elektrifikasi pulau kecil"}}, {"type": "Feature", "geometry": {"type": "Point", "coordinates": [120.4800836, -10.0089602]}, "properties": {"id": "GEN-NTT-0020", "name": "PLTS Praimbana", "osm_name": "PLTS Praimbana", "type": "PLTS", "capacity_mw": "0.13", "province": "Nusa Tenggara Timur", "system": "NTT", "status": "existing", "operator": "", "method": "photovoltaic", "osm_id": "way/1322035319", "osm_source": "solar", "review_flag": "", "source_id": "OSM-overpass", "capacity_unit": "MWp", "role": "Community", "roleDescription": "Memasok listrik untuk komunitas lokal, desa terpencil, atau pulau kecil.", "roleConfidence": "High", "roleReason": "Sistem elektrifikasi desa"}}, {"type": "Feature", "geometry": {"type": "Point", "coordinates": [122.9381078, -8.5302927]}, "properties": {"id": "GEN-NTT-0021", "name": "PLTS Solor Barat", "osm_name": "PLTS Solor Barat", "type": "PLTS", "capacity_mw": "0.275", "province": "Nusa Tenggara Timur", "system": "NTT", "status": "existing", "operator": "PT PLN", "method": "photovoltaic", "osm_id": "way/1322035330", "osm_source": "solar", "review_flag": "", "source_id": "OSM-overpass", "capacity_unit": "MWp", "role": "Utility", "roleDescription": "Memasok listrik ke sistem kelistrikan publik.", "roleConfidence": "", "roleReason": ""}}, {"type": "Feature", "geometry": {"type": "Point", "coordinates": [121.7060922, -8.3069116]}, "properties": {"id": "GEN-NTT-0022", "name": "PLTS Palue", "osm_name": "PLTS Palue", "type": "PLTS", "capacity_mw": "0.76", "province": "Nusa Tenggara Timur", "system": "NTT", "status": "existing", "operator": "", "method": "photovoltaic", "osm_id": "way/1322035334", "osm_source": "solar", "review_flag": "", "source_id": "OSM-overpass", "capacity_unit": "MWp", "role": "Utility", "roleDescription": "Memasok listrik ke sistem kelistrikan publik.", "roleConfidence": "", "roleReason": ""}}, {"type": "Feature", "geometry": {"type": "Point", "coordinates": [119.857453, -8.3938237]}, "properties": {"id": "GEN-NTT-0023", "name": "PLTS Seraya Marranu", "osm_name": "PLTS Seraya Marranu", "type": "PLTS", "capacity_mw": "0.19", "province": "Nusa Tenggara Timur", "system": "NTT", "status": "existing", "operator": "", "method": "photovoltaic", "osm_id": "way/1322035336", "osm_source": "solar", "review_flag": "", "source_id": "OSM-overpass", "capacity_unit": "MWp", "role": "Community", "roleDescription": "Memasok listrik untuk komunitas lokal, desa terpencil, atau pulau kecil.", "roleConfidence": "High", "roleReason": "Sistem elektrifikasi pulau kecil"}}, {"type": "Feature", "geometry": {"type": "Point", "coordinates": [120.2529124, -8.3496123]}, "properties": {"id": "GEN-NTT-0024", "name": "PLTS Mbakung", "osm_name": "PLTS Mbakung", "type": "PLTS", "capacity_mw": "0.26", "province": "Nusa Tenggara Timur", "system": "NTT", "status": "existing", "operator": "", "method": "photovoltaic", "osm_id": "way/1322035338", "osm_source": "solar", "review_flag": "", "source_id": "OSM-overpass", "capacity_unit": "MWp", "role": "Utility", "roleDescription": "Memasok listrik ke sistem kelistrikan publik.", "roleConfidence": "", "roleReason": ""}}, {"type": "Feature", "geometry": {"type": "Point", "coordinates": [119.9620628, -8.8188254]}, "properties": {"id": "GEN-NTT-0025", "name": "PLTS Nangabere", "osm_name": "PLTS Nangabere", "type": "PLTS", "capacity_mw": "0.27", "province": "Nusa Tenggara Timur", "system": "NTT", "status": "existing", "operator": "", "method": "photovoltaic", "osm_id": "way/1322035340", "osm_source": "solar", "review_flag": "", "source_id": "OSM-overpass", "capacity_unit": "MWp", "role": "Utility", "roleDescription": "Memasok listrik ke sistem kelistrikan publik.", "roleConfidence": "", "roleReason": ""}}, {"type": "Feature", "geometry": {"type": "Point", "coordinates": [120.8043655, -8.5194977]}, "properties": {"id": "GEN-NTT-0026", "name": "PLTS Golo Munde", "osm_name": "PLTS Golo Munde", "type": "PLTS", "capacity_mw": "0.2", "province": "Nusa Tenggara Timur", "system": "NTT", "status": "existing", "operator": "", "method": "photovoltaic", "osm_id": "way/1322035341", "osm_source": "solar", "review_flag": "", "source_id": "OSM-overpass", "capacity_unit": "MWp", "role": "Utility", "roleDescription": "Memasok listrik ke sistem kelistrikan publik.", "roleConfidence": "", "roleReason": ""}}, {"type": "Feature", "geometry": {"type": "Point", "coordinates": [120.3015548, -8.8784434]}, "properties": {"id": "GEN-NTT-0027", "name": "PLTS Nuca Molas", "osm_name": "PLTS Nuca Molas", "type": "PLTS", "capacity_mw": "0.38", "province": "Nusa Tenggara Timur", "system": "NTT", "status": "existing", "operator": "", "method": "photovoltaic", "osm_id": "way/1322035344", "osm_source": "solar", "review_flag": "", "source_id": "OSM-overpass", "capacity_unit": "MWp", "role": "Utility", "roleDescription": "Memasok listrik ke sistem kelistrikan publik.", "roleConfidence": "", "roleReason": ""}}, {"type": "Feature", "geometry": {"type": "Point", "coordinates": [120.2754246, -8.4502505]}, "properties": {"id": "GEN-NTT-0028", "name": "PLTS Wontong", "osm_name": "PLTS Wontong", "type": "PLTS", "capacity_mw": "0.32", "province": "Nusa Tenggara Timur", "system": "NTT", "status": "existing", "operator": "", "method": "photovoltaic", "osm_id": "way/1322035352", "osm_source": "solar", "review_flag": "", "source_id": "OSM-overpass", "capacity_unit": "MWp", "role": "Utility", "roleDescription": "Memasok listrik ke sistem kelistrikan publik.", "roleConfidence": "", "roleReason": ""}}, {"type": "Feature", "geometry": {"type": "Point", "coordinates": [119.7452233, -8.5258627]}, "properties": {"id": "GEN-NTT-0029", "name": "PLTS Mesa", "osm_name": "PLTS Mesa", "type": "PLTS", "capacity_mw": "0.53", "province": "Nusa Tenggara Timur", "system": "NTT", "status": "existing", "operator": "", "method": "photovoltaic", "osm_id": "way/1322035355", "osm_source": "solar", "review_flag": "", "source_id": "OSM-overpass", "capacity_unit": "MWp", "role": "Utility", "roleDescription": "Memasok listrik ke sistem kelistrikan publik.", "roleConfidence": "", "roleReason": ""}}, {"type": "Feature", "geometry": {"type": "Point", "coordinates": [119.7126574, -8.5719699]}, "properties": {"id": "GEN-NTT-0030", "name": "PLTS Papagarang", "osm_name": "PLTS Papagarang", "type": "PLTS", "capacity_mw": "0.38", "province": "Nusa Tenggara Timur", "system": "NTT", "status": "existing", "operator": "", "method": "photovoltaic", "osm_id": "way/1322035356", "osm_source": "solar", "review_flag": "", "source_id": "OSM-overpass", "capacity_unit": "MWp", "role": "Utility", "roleDescription": "Memasok listrik ke sistem kelistrikan publik.", "roleConfidence": "", "roleReason": ""}}, {"type": "Feature", "geometry": {"type": "Point", "coordinates": [120.1489754, -8.3476364]}, "properties": {"id": "GEN-NTT-0031", "name": "PLTS Longos", "osm_name": "PLTS Longos", "type": "PLTS", "capacity_mw": "0.15", "province": "Nusa Tenggara Timur", "system": "NTT", "status": "existing", "operator": "", "method": "photovoltaic", "osm_id": "way/1322035357", "osm_source": "solar", "review_flag": "", "source_id": "OSM-overpass", "capacity_unit": "MWp", "role": "Community", "roleDescription": "Memasok listrik untuk komunitas lokal, desa terpencil, atau pulau kecil.", "roleConfidence": "High", "roleReason": "Sistem elektrifikasi pulau kecil"}}, {"type": "Feature", "geometry": {"type": "Point", "coordinates": [124.2797486, -8.4714722]}, "properties": {"id": "GEN-NTT-0032", "name": "PLTS Treweng", "osm_name": "PLTS Treweng", "type": "PLTS", "capacity_mw": "0.11", "province": "Nusa Tenggara Timur", "system": "NTT", "status": "existing", "operator": "PT PLN", "method": "photovoltaic", "osm_id": "way/1371199601", "osm_source": "solar", "review_flag": "", "source_id": "OSM-overpass", "capacity_unit": "MWp", "role": "Community", "roleDescription": "Memasok listrik untuk komunitas lokal, desa terpencil, atau pulau kecil.", "roleConfidence": "High", "roleReason": "Sistem elektrifikasi pulau kecil"}}, {"type": "Feature", "geometry": {"type": "Point", "coordinates": [124.4952014, -8.4058365]}, "properties": {"id": "GEN-NTT-0033", "name": "PLTS Tribur", "osm_name": "PLTS Tribur", "type": "PLTS", "capacity_mw": "0.25", "province": "Nusa Tenggara Timur", "system": "NTT", "status": "existing", "operator": "PT PLN", "method": "photovoltaic", "osm_id": "way/1371199620", "osm_source": "solar", "review_flag": "", "source_id": "OSM-overpass", "capacity_unit": "MWp", "role": "Utility", "roleDescription": "Memasok listrik ke sistem kelistrikan publik.", "roleConfidence": "", "roleReason": ""}}, {"type": "Feature", "geometry": {"type": "Point", "coordinates": [124.3749957, -8.2097636]}, "properties": {"id": "GEN-NTT-0034", "name": "PLTS Ternate", "osm_name": "PLTS Ternate", "type": "PLTS", "capacity_mw": "0.28", "province": "Nusa Tenggara Timur", "system": "NTT", "status": "existing", "operator": "PT PLN", "method": "photovoltaic", "osm_id": "way/1371199637", "osm_source": "solar", "review_flag": "", "source_id": "OSM-overpass", "capacity_unit": "MWp", "role": "Utility", "roleDescription": "Memasok listrik ke sistem kelistrikan publik.", "roleConfidence": "", "roleReason": ""}}, {"type": "Feature", "geometry": {"type": "Point", "coordinates": [124.2405934, -8.37253]}, "properties": {"id": "GEN-NTT-0035", "name": "PLTS Nule", "osm_name": "PLTS Nule", "type": "PLTS", "capacity_mw": "0.25", "province": "Nusa Tenggara Timur", "system": "NTT", "status": "existing", "operator": "PT PLN", "method": "photovoltaic", "osm_id": "way/1371199648", "osm_source": "solar", "review_flag": "", "source_id": "OSM-overpass", "capacity_unit": "MWp", "role": "Utility", "roleDescription": "Memasok listrik ke sistem kelistrikan publik.", "roleConfidence": "", "roleReason": ""}}, {"type": "Feature", "geometry": {"type": "Point", "coordinates": [121.5944621, -10.6179725]}, "properties": {"id": "GEN-NTT-0036", "name": "PLTS Raijua", "osm_name": "PLTS Raijua", "type": "PLTS", "capacity_mw": "0.15", "province": "Nusa Tenggara Timur", "system": "NTT", "status": "existing", "operator": "PT PLN", "method": "photovoltaic", "osm_id": "way/1371199703", "osm_source": "solar", "review_flag": "", "source_id": "OSM-overpass", "capacity_unit": "MWp", "role": "Community", "roleDescription": "Memasok listrik untuk komunitas lokal, desa terpencil, atau pulau kecil.", "roleConfidence": "High", "roleReason": "Sistem elektrifikasi pulau kecil"}}, {"type": "Feature", "geometry": {"type": "Point", "coordinates": [124.3214553, -8.2980884]}, "properties": {"id": "GEN-NTT-0037", "name": "PLTS Pura", "osm_name": "PLTS Pura", "type": "PLTS", "capacity_mw": "0.175", "province": "Nusa Tenggara Timur", "system": "NTT", "status": "existing", "operator": "PT PLN", "method": "photovoltaic", "osm_id": "way/1371199721", "osm_source": "solar", "review_flag": "", "source_id": "OSM-overpass", "capacity_unit": "MWp", "role": "Community", "roleDescription": "Memasok listrik untuk komunitas lokal, desa terpencil, atau pulau kecil.", "roleConfidence": "High", "roleReason": "Sistem elektrifikasi pulau kecil"}}, {"type": "Feature", "geometry": {"type": "Point", "coordinates": [124.8674083, -9.0847345]}, "properties": {"id": "GEN-NTT-0038", "name": "PLTS Kabuna", "osm_name": "", "type": "PLTS", "capacity_mw": "0.00286", "province": "Nusa Tenggara Timur", "system": "NTT", "status": "existing", "operator": "", "method": "photovoltaic", "osm_id": "way/1373003292", "osm_source": "solar", "review_flag": "", "source_id": "OSM-overpass", "capacity_unit": "MWp", "role": "Community", "roleDescription": "Memasok listrik untuk komunitas lokal, desa terpencil, atau pulau kecil.", "roleConfidence": "High", "roleReason": "Sistem elektrifikasi desa"}}, {"type": "Feature", "geometry": {"type": "Point", "coordinates": [122.3932506, -8.4880505]}, "properties": {"id": "GEN-NTT-0039", "name": "PLTS Koja Besar", "osm_name": "PLTS Koja besar", "type": "PLTS", "capacity_mw": "0.150", "province": "Nusa Tenggara Timur", "system": "NTT", "status": "existing", "operator": "", "method": "photovoltaic", "osm_id": "way/1381155744", "osm_source": "solar", "review_flag": "NO_CAPACITY", "source_id": "OSM-overpass", "capacity_unit": "MWp", "role": "Community", "roleDescription": "Memasok listrik untuk komunitas lokal, desa terpencil, atau pulau kecil.", "roleConfidence": "High", "roleReason": "Sistem elektrifikasi pulau kecil"}}, {"type": "Feature", "geometry": {"type": "Point", "coordinates": [122.4435984, -8.4531407]}, "properties": {"id": "GEN-NTT-0040", "name": "PLTS Parumaan", "osm_name": "PLTS Parumaan", "type": "PLTS", "capacity_mw": "0.420", "province": "Nusa Tenggara Timur", "system": "NTT", "status": "existing", "operator": "", "method": "photovoltaic", "osm_id": "way/1381160881", "osm_source": "solar", "review_flag": "NO_CAPACITY", "source_id": "OSM-overpass", "capacity_unit": "MWp", "role": "Utility", "roleDescription": "Memasok listrik ke sistem kelistrikan publik.", "roleConfidence": "", "roleReason": ""}}, {"type": "Feature", "geometry": {"type": "Point", "coordinates": [124.3740605, -8.1821066]}, "properties": {"id": "GEN-NTT-0041", "name": "PLTS Desa Pulau Buaya", "osm_name": "PLTS DESA PULAU BUAYA", "type": "PLTS", "capacity_mw": "0.250", "province": "Nusa Tenggara Timur", "system": "NTT", "status": "existing", "operator": "", "method": "photovoltaic", "osm_id": "way/1469884017", "osm_source": "solar", "review_flag": "NO_CAPACITY", "source_id": "OSM-overpass", "capacity_unit": "MWp", "role": "Community", "roleDescription": "Memasok listrik untuk komunitas lokal, desa terpencil, atau pulau kecil.", "roleConfidence": "High", "roleReason": "Sistem elektrifikasi desa"}}, {"type": "Feature", "geometry": {"type": "Point", "coordinates": [120.6347, -8.5638]}, "properties": {"id": "GEN-NTT-0042", "name": "PLTMH Wae Nampe", "osm_name": "", "type": "PLTMH", "capacity_mw": "0.05", "province": "Nusa Tenggara Timur", "system": "NTT", "status": "existing", "operator": "", "method": "", "osm_id": "", "osm_source": "", "review_flag": "MANUAL_ADD_v1.0", "source_id": "manual_revision_v1.0", "capacity_unit": "MW", "role": "Community", "roleDescription": "Memasok listrik untuk komunitas lokal, desa terpencil, atau pulau kecil.", "roleConfidence": "High", "roleReason": "Sistem elektrifikasi desa"}}]}