{"type": "FeatureCollection", "features": [{"type": "Feature", "geometry": {"type": "Point", "coordinates": [109.3276215, -0.001087]}, "properties": {"id": "GEN-KLM-0001", "name": "PLTD Siantan Kalbar", "type": "PLTD", "capacity_mw": 30.0, "province": "Kalimantan Barat", "system": "Khatulistiwa", "status": "existing", "operator": "Perusahaan Listrik Negara", "method": "combustion", "osm_id": "way/284402692", "osm_source": "oil", "review_flag": "", "source_id": "OSM-overpass"}}, {"type": "Feature", "geometry": {"type": "Point", "coordinates": [115.4458201, -2.1585393]}, "properties": {"id": "GEN-KLM-0002", "name": "PLTU MSW", "type": "PLTU", "capacity_mw": 60.0, "province": "Kalimantan Selatan", "system": "Kalselteng", "status": "existing", "operator": "", "method": "combustion", "osm_id": "way/353964382", "osm_source": "coal", "review_flag": "", "source_id": "OSM-overpass"}}, {"type": "Feature", "geometry": {"type": "Point", "coordinates": [116.8413592, -1.2625591]}, "properties": {"id": "GEN-KLM-0003", "name": "PLTD Gunung Malang", "type": "PLTD", "capacity_mw": 16.0, "province": "Kalimantan Timur", "system": "Mahakam", "status": "existing", "operator": "Perusahaan Listrik Negara", "method": "", "osm_id": "way/373369943", "osm_source": "diesel", "review_flag": "", "source_id": "OSM-overpass"}}, {"type": "Feature", "geometry": {"type": "Point", "coordinates": [114.5703126, -3.3102183]}, "properties": {"id": "GEN-KLM-0004", "name": "PLTD & PLTG Trisakti", "type": "PLTD", "capacity_mw": 111.0, "province": "Kalimantan Selatan", "system": "Kalselteng", "status": "existing", "operator": "PLN", "method": "combustion", "osm_id": "way/416518494", "osm_source": "diesel;gas", "review_flag": "", "source_id": "OSM-overpass"}}, {"type": "Feature", "geometry": {"type": "Point", "coordinates": [117.0519962, -0.3823542]}, "properties": {"id": "GEN-KLM-0005", "name": "PLTGU Tanjung Batu", "type": "PLTGU", "capacity_mw": 60.0, "province": "Kalimantan Timur", "system": "Mahakam", "status": "existing", "operator": "", "method": "", "osm_id": "way/450527117", "osm_source": "gas", "review_flag": "", "source_id": "OSM-overpass"}}, {"type": "Feature", "geometry": {"type": "Point", "coordinates": [117.062746, -0.3715316]}, "properties": {"id": "GEN-KLM-0006", "name": "PLTU Embalut", "type": "PLTU", "capacity_mw": 110.0, "province": "Kalimantan Timur", "system": "Mahakam", "status": "existing", "operator": "", "method": "combustion", "osm_id": "way/450527118", "osm_source": "coal", "review_flag": "", "source_id": "OSM-overpass"}}, {"type": "Feature", "geometry": {"type": "Point", "coordinates": [116.9503976, -1.2386724]}, "properties": {"id": "GEN-KLM-0007", "name": "PTLD Batakan", "type": "PLTD", "capacity_mw": 4.0, "province": "Kalimantan Timur", "system": "Mahakam", "status": "existing", "operator": "PLN", "method": "", "osm_id": "way/508067180", "osm_source": "diesel", "review_flag": "", "source_id": "OSM-overpass"}}, {"type": "Feature", "geometry": {"type": "Point", "coordinates": [110.555892, 0.0297497]}, "properties": {"id": "GEN-KLM-0008", "name": "PLTU Sanggau", "type": "PLTU", "capacity_mw": 17.0, "province": "Kalimantan Barat", "system": "Khatulistiwa", "status": "existing", "operator": "Indonesia Power", "method": "combustion", "osm_id": "way/563399561", "osm_source": "coal", "review_flag": "", "source_id": "OSM-overpass"}}, {"type": "Feature", "geometry": {"type": "Point", "coordinates": [111.43339, 0.0739163]}, "properties": {"id": "GEN-KLM-0009", "name": "PLTU Sintang", "type": "PLTU", "capacity_mw": 27.0, "province": "Kalimantan Barat", "system": "Khatulistiwa", "status": "existing", "operator": "Indonesia Power", "method": "combustion", "osm_id": "way/563399562", "osm_source": "coal", "review_flag": "", "source_id": "OSM-overpass"}}, {"type": "Feature", "geometry": {"type": "Point", "coordinates": [108.863233, 0.8300932]}, "properties": {"id": "GEN-KLM-0010", "name": "PLTU Kalbar-2", "type": "PLTU", "capacity_mw": 55.0, "province": "Kalimantan Barat", "system": "Khatulistiwa", "status": "existing", "operator": "Perusahaan Listrik Negara", "method": "combustion", "osm_id": "way/563399569", "osm_source": "coal", "review_flag": "", "source_id": "OSM-overpass"}}, {"type": "Feature", "geometry": {"type": "Point", "coordinates": [116.7884605, -1.1700853]}, "properties": {"id": "GEN-KLM-0011", "name": "PLTU Kaltim Teluk", "type": "PLTU", "capacity_mw": 250.0, "province": "Kalimantan Timur", "system": "Mahakam", "status": "existing", "operator": "", "method": "combustion", "osm_id": "way/573633098", "osm_source": "coal", "review_flag": "", "source_id": "OSM-overpass"}}, {"type": "Feature", "geometry": {"type": "Point", "coordinates": [115.1052189, -3.9271515]}, "properties": {"id": "GEN-KLM-0012", "name": "PLTU Asam Asam", "type": "PLTU", "capacity_mw": 260.0, "province": "Kalimantan Selatan", "system": "Kalselteng", "status": "existing", "operator": "PLN", "method": "combustion", "osm_id": "way/611478867", "osm_source": "coal", "review_flag": "", "source_id": "OSM-overpass"}}, {"type": "Feature", "geometry": {"type": "Point", "coordinates": [114.3727892, -3.0123226]}, "properties": {"id": "GEN-KLM-0013", "name": "PLTD Kuala Kapuas", "type": "PLTD", "capacity_mw": 10.0, "province": "Kalimantan Selatan", "system": "Kalselteng", "status": "existing", "operator": "", "method": "combustion", "osm_id": "way/611547067", "osm_source": "diesel", "review_flag": "", "source_id": "OSM-overpass"}}, {"type": "Feature", "geometry": {"type": "Point", "coordinates": [114.5525672, -3.2768161]}, "properties": {"id": "GEN-KLM-0014", "name": "PLTD Seberang Barito", "type": "PLTD", "capacity_mw": 45.0, "province": "Kalimantan Selatan", "system": "Kalselteng", "status": "existing", "operator": "Perusahaan Listrik Negara", "method": "combustion", "osm_id": "way/611547068", "osm_source": "diesel;gas", "review_flag": "", "source_id": "OSM-overpass"}}, {"type": "Feature", "geometry": {"type": "Point", "coordinates": [115.4505238, -2.1966964]}, "properties": {"id": "GEN-KLM-0015", "name": "PLTD Maburai", "type": "PLTD", "capacity_mw": 5.0, "province": "Kalimantan Selatan", "system": "Kalselteng", "status": "existing", "operator": "PLN", "method": "combustion", "osm_id": "way/611647727", "osm_source": "diesel", "review_flag": "", "source_id": "OSM-overpass"}}, {"type": "Feature", "geometry": {"type": "Point", "coordinates": [117.2924034, -0.3161946]}, "properties": {"id": "GEN-KLM-0016", "name": "PLTG Sambera", "type": "PLTG", "capacity_mw": 40.0, "province": "Kalimantan Timur", "system": "Mahakam", "status": "existing", "operator": "", "method": "", "osm_id": "way/612348764", "osm_source": "gas", "review_flag": "", "source_id": "OSM-overpass"}}, {"type": "Feature", "geometry": {"type": "Point", "coordinates": [115.0064707, -3.5147851]}, "properties": {"id": "GEN-KLM-0017", "name": "PLTA Riam Kanan", "type": "PLTA", "capacity_mw": 30.0, "province": "Kalimantan Selatan", "system": "Kalselteng", "status": "existing", "operator": "PLN", "method": "water-storage", "osm_id": "way/613098761", "osm_source": "hydro", "review_flag": "", "source_id": "OSM-overpass"}}, {"type": "Feature", "geometry": {"type": "Point", "coordinates": [113.8736172, -2.1732838]}, "properties": {"id": "GEN-KLM-0018", "name": "PLTD Kahayan Baru", "type": "PLTD", "capacity_mw": 10.0, "province": "Kalimantan Tengah", "system": "Kalselteng", "status": "existing", "operator": "", "method": "combustion", "osm_id": "way/613865135", "osm_source": "diesel", "review_flag": "", "source_id": "OSM-overpass"}}, {"type": "Feature", "geometry": {"type": "Point", "coordinates": [117.4980245, 0.1754368]}, "properties": {"id": "GEN-KLM-0019", "name": "(unnamed)", "type": "Unknown", "capacity_mw": "", "province": "Kalimantan Timur", "system": "Mahakam", "status": "existing", "operator": "", "method": "", "osm_id": "way/695724354", "osm_source": "", "review_flag": "NO_NAME;NO_CAPACITY;NO_TYPE", "source_id": "OSM-overpass"}}, {"type": "Feature", "geometry": {"type": "Point", "coordinates": [108.843188, 0.8174175]}, "properties": {"id": "GEN-KLM-0020", "name": "PLTU Kalbar-1", "type": "PLTU", "capacity_mw": 200.0, "province": "Kalimantan Barat", "system": "Khatulistiwa", "status": "existing", "operator": "", "method": "combustion", "osm_id": "way/872005243", "osm_source": "coal", "review_flag": "", "source_id": "OSM-overpass"}}, {"type": "Feature", "geometry": {"type": "Point", "coordinates": [108.8737929, 0.8371708]}, "properties": {"id": "GEN-KLM-0021", "name": "PLTU Bengkayang", "type": "PLTU", "capacity_mw": 100.0, "province": "Kalimantan Barat", "system": "Khatulistiwa", "status": "existing", "operator": "", "method": "combustion", "osm_id": "way/872005244", "osm_source": "coal", "review_flag": "", "source_id": "OSM-overpass"}}, {"type": "Feature", "geometry": {"type": "Point", "coordinates": [109.2032589, 0.0586762]}, "properties": {"id": "GEN-KLM-0022", "name": "PLTU Parit Baru (FTP1)", "type": "PLTU", "capacity_mw": 100.0, "province": "Kalimantan Barat", "system": "Khatulistiwa", "status": "existing", "operator": "Perusahaan Listrik Negara", "method": "combustion", "osm_id": "way/919274063", "osm_source": "coal", "review_flag": "", "source_id": "OSM-overpass"}}, {"type": "Feature", "geometry": {"type": "Point", "coordinates": [117.3671633, 2.8134715]}, "properties": {"id": "GEN-KLM-0023", "name": "PLTMG Tanjung Selor", "type": "PLTMG", "capacity_mw": 15.0, "province": "Kalimantan Utara", "system": "Mahakam", "status": "existing", "operator": "", "method": "", "osm_id": "way/943966216", "osm_source": "gas", "review_flag": "", "source_id": "OSM-overpass"}}, {"type": "Feature", "geometry": {"type": "Point", "coordinates": [117.5113113, 2.1575228]}, "properties": {"id": "GEN-KLM-0024", "name": "PLTD Sambaliung", "type": "PLTD", "capacity_mw": 10.0, "province": "Kalimantan Utara", "system": "Mahakam", "status": "existing", "operator": "", "method": "", "osm_id": "way/943966217", "osm_source": "diesel", "review_flag": "", "source_id": "OSM-overpass"}}, {"type": "Feature", "geometry": {"type": "Point", "coordinates": [117.6357811, 0.5403338]}, "properties": {"id": "GEN-KLM-0025", "name": "PLTU Tanjung Bara", "type": "PLTU", "capacity_mw": 64.0, "province": "Kalimantan Timur", "system": "Mahakam", "status": "existing", "operator": "", "method": "", "osm_id": "way/944504857", "osm_source": "coal", "review_flag": "", "source_id": "OSM-overpass"}}, {"type": "Feature", "geometry": {"type": "Point", "coordinates": [117.493966, 0.0548112]}, "properties": {"id": "GEN-KLM-0026", "name": "PLTU Kaltim 2", "type": "PLTU", "capacity_mw": 200.0, "province": "Kalimantan Timur", "system": "Mahakam", "status": "existing", "operator": "", "method": "combustion", "osm_id": "way/944504860", "osm_source": "coal", "review_flag": "", "source_id": "OSM-overpass"}}, {"type": "Feature", "geometry": {"type": "Point", "coordinates": [117.1883726, -0.7802248]}, "properties": {"id": "GEN-KLM-0027", "name": "PLTU Muara Jawa", "type": "PLTU", "capacity_mw": 55.0, "province": "Kalimantan Timur", "system": "Mahakam", "status": "existing", "operator": "", "method": "", "osm_id": "way/945128872", "osm_source": "coal", "review_flag": "", "source_id": "OSM-overpass"}}, {"type": "Feature", "geometry": {"type": "Point", "coordinates": [117.1358469, -0.9871918]}, "properties": {"id": "GEN-KLM-0028", "name": "PLTGU Senipah", "type": "PLTGU", "capacity_mw": 117.0, "province": "Kalimantan Timur", "system": "Mahakam", "status": "existing", "operator": "", "method": "combustion", "osm_id": "way/945128875", "osm_source": "gas", "review_flag": "", "source_id": "OSM-overpass"}}, {"type": "Feature", "geometry": {"type": "Point", "coordinates": [116.6713701, -1.3411832]}, "properties": {"id": "GEN-KLM-0029", "name": "PLTD Girimukti", "type": "PLTD", "capacity_mw": 20.0, "province": "Kalimantan Timur", "system": "Mahakam", "status": "existing", "operator": "", "method": "", "osm_id": "way/945128881", "osm_source": "diesel", "review_flag": "", "source_id": "OSM-overpass"}}, {"type": "Feature", "geometry": {"type": "Point", "coordinates": [115.4412353, -2.1632372]}, "properties": {"id": "GEN-KLM-0030", "name": "PLTU Tabalong", "type": "PLTU", "capacity_mw": 200.0, "province": "Kalimantan Selatan", "system": "Kalselteng", "status": "existing", "operator": "", "method": "combustion", "osm_id": "way/945128883", "osm_source": "coal", "review_flag": "", "source_id": "OSM-overpass"}}, {"type": "Feature", "geometry": {"type": "Point", "coordinates": [115.137459, -0.6229549]}, "properties": {"id": "GEN-KLM-0031", "name": "PLTMG Bangkanai", "type": "PLTMG", "capacity_mw": 155.0, "province": "Kalimantan Timur", "system": "Mahakam", "status": "existing", "operator": "", "method": "combustion", "osm_id": "way/945128888", "osm_source": "gas", "review_flag": "", "source_id": "OSM-overpass"}}, {"type": "Feature", "geometry": {"type": "Point", "coordinates": [113.5674728, -1.3733024]}, "properties": {"id": "GEN-KLM-0032", "name": "Kalselteng-1 Power Plant", "type": "Unknown", "capacity_mw": "", "province": "Kalimantan Tengah", "system": "Kalselteng", "status": "existing", "operator": "", "method": "", "osm_id": "way/955122312", "osm_source": "", "review_flag": "NO_CAPACITY;NO_TYPE", "source_id": "OSM-overpass"}}, {"type": "Feature", "geometry": {"type": "Point", "coordinates": [115.3734585, -2.5917148]}, "properties": {"id": "GEN-KLM-0033", "name": "PLTD Banua Lima Unit Barabai", "type": "PLTD", "capacity_mw": 6.0, "province": "Kalimantan Selatan", "system": "Kalselteng", "status": "existing", "operator": "PLN", "method": "combustion", "osm_id": "way/1028155968", "osm_source": "diesel", "review_flag": "", "source_id": "OSM-overpass"}}, {"type": "Feature", "geometry": {"type": "Point", "coordinates": [115.2626125, -2.4050013]}, "properties": {"id": "GEN-KLM-0034", "name": "PLTD Banua Lima Unit Panangkalaan", "type": "PLTD", "capacity_mw": 8.7, "province": "Kalimantan Selatan", "system": "Kalselteng", "status": "existing", "operator": "PLN", "method": "combustion", "osm_id": "way/1028155969", "osm_source": "diesel", "review_flag": "", "source_id": "OSM-overpass"}}, {"type": "Feature", "geometry": {"type": "Point", "coordinates": [114.2787485, 0.7744364]}, "properties": {"id": "GEN-KLM-0035", "name": "(unnamed)", "type": "PLTS", "capacity_mw": "", "province": "Kalimantan Timur", "system": "Mahakam", "status": "existing", "operator": "", "method": "", "osm_id": "way/1042007577", "osm_source": "solar", "review_flag": "NO_NAME;NO_CAPACITY", "source_id": "OSM-overpass"}}, {"type": "Feature", "geometry": {"type": "Point", "coordinates": [114.2737324, 0.7701449]}, "properties": {"id": "GEN-KLM-0036", "name": "(unnamed)", "type": "PLTS", "capacity_mw": "", "province": "Kalimantan Timur", "system": "Mahakam", "status": "existing", "operator": "", "method": "", "osm_id": "way/1042007733", "osm_source": "solar", "review_flag": "NO_NAME;NO_CAPACITY", "source_id": "OSM-overpass"}}, {"type": "Feature", "geometry": {"type": "Point", "coordinates": [115.6975726, 3.6130338]}, "properties": {"id": "GEN-KLM-0037", "name": "(unnamed)", "type": "PLTS", "capacity_mw": "", "province": "Kalimantan Utara", "system": "Mahakam", "status": "existing", "operator": "", "method": "photovoltaic", "osm_id": "way/1043457651", "osm_source": "solar", "review_flag": "NO_NAME;NO_CAPACITY", "source_id": "OSM-overpass"}}, {"type": "Feature", "geometry": {"type": "Point", "coordinates": [117.0651993, -0.3644715]}, "properties": {"id": "GEN-KLM-0038", "name": "PLTU Kaltim-4", "type": "PLTU", "capacity_mw": 200.0, "province": "Kalimantan Timur", "system": "Mahakam", "status": "existing", "operator": "", "method": "combustion", "osm_id": "way/1148695448", "osm_source": "coal", "review_flag": "", "source_id": "OSM-overpass"}}, {"type": "Feature", "geometry": {"type": "Point", "coordinates": [114.9051424, 1.7825724]}, "properties": {"id": "GEN-KLM-0039", "name": "PLTS Long Nawang", "type": "PLTS", "capacity_mw": "", "province": "Kalimantan Utara", "system": "Mahakam", "status": "existing", "operator": "", "method": "", "osm_id": "way/1150889689", "osm_source": "solar", "review_flag": "NO_CAPACITY", "source_id": "OSM-overpass"}}, {"type": "Feature", "geometry": {"type": "Point", "coordinates": [114.8948056, 1.7949122]}, "properties": {"id": "GEN-KLM-0040", "name": "PLTD Long Nawang", "type": "PLTD", "capacity_mw": "", "province": "Kalimantan Utara", "system": "Mahakam", "status": "existing", "operator": "Perusahaan Listrik Negara", "method": "combustion", "osm_id": "way/1151107028", "osm_source": "oil", "review_flag": "NO_CAPACITY", "source_id": "OSM-overpass"}}, {"type": "Feature", "geometry": {"type": "Point", "coordinates": [114.2117965, -2.8245463]}, "properties": {"id": "GEN-KLM-0041", "name": "PLTU Kalteng-1 Pulang Pisau", "type": "PLTU", "capacity_mw": 120.0, "province": "Kalimantan Tengah", "system": "Kalselteng", "status": "existing", "operator": "", "method": "combustion", "osm_id": "way/1178166875", "osm_source": "coal", "review_flag": "", "source_id": "OSM-overpass"}}, {"type": "Feature", "geometry": {"type": "Point", "coordinates": [114.6897687, 0.8856043]}, "properties": {"id": "GEN-KLM-0042", "name": "(unnamed)", "type": "PLTS", "capacity_mw": "", "province": "Kalimantan Timur", "system": "Mahakam", "status": "existing", "operator": "", "method": "photovoltaic", "osm_id": "way/1188270208", "osm_source": "solar", "review_flag": "NO_NAME;NO_CAPACITY", "source_id": "OSM-overpass"}}, {"type": "Feature", "geometry": {"type": "Point", "coordinates": [117.0510154, -0.3842383]}, "properties": {"id": "GEN-KLM-0043", "name": "Kaltim power station", "type": "Unknown", "capacity_mw": "", "province": "Kalimantan Timur", "system": "Mahakam", "status": "existing", "operator": "", "method": "", "osm_id": "way/1190705190", "osm_source": "", "review_flag": "NO_CAPACITY;NO_TYPE", "source_id": "OSM-overpass"}}, {"type": "Feature", "geometry": {"type": "Point", "coordinates": [115.0908441, -1.9183304]}, "properties": {"id": "GEN-KLM-0044", "name": "EQUATORIAL BUMI PERSADA", "type": "PLTU", "capacity_mw": "", "province": "Kalimantan Selatan", "system": "Kalselteng", "status": "existing", "operator": "", "method": "combustion", "osm_id": "way/1211621343", "osm_source": "coal", "review_flag": "NO_CAPACITY", "source_id": "OSM-overpass"}}, {"type": "Feature", "geometry": {"type": "Point", "coordinates": [110.1572199, -2.3666338]}, "properties": {"id": "GEN-KLM-0045", "name": "Ketapang WHW Smelter Power Plant", "type": "PLTU", "capacity_mw": "", "province": "Kalimantan Barat", "system": "Khatulistiwa", "status": "existing", "operator": "PT Well Harvest Winning Alumina Refinery", "method": "combustion", "osm_id": "way/1226006242", "osm_source": "coal", "review_flag": "NO_CAPACITY", "source_id": "OSM-overpass"}}, {"type": "Feature", "geometry": {"type": "Point", "coordinates": [117.4768166, 0.1067593]}, "properties": {"id": "GEN-KLM-0046", "name": "(unnamed)", "type": "PLTS", "capacity_mw": "", "province": "Kalimantan Timur", "system": "Mahakam", "status": "existing", "operator": "", "method": "photovoltaic", "osm_id": "way/1231910573", "osm_source": "solar", "review_flag": "NO_NAME;NO_CAPACITY", "source_id": "OSM-overpass"}}, {"type": "Feature", "geometry": {"type": "Point", "coordinates": [117.4774345, 0.1078283]}, "properties": {"id": "GEN-KLM-0047", "name": "(unnamed)", "type": "PLTS", "capacity_mw": "", "province": "Kalimantan Timur", "system": "Mahakam", "status": "existing", "operator": "", "method": "photovoltaic", "osm_id": "way/1231910574", "osm_source": "solar", "review_flag": "NO_NAME;NO_CAPACITY", "source_id": "OSM-overpass"}}, {"type": "Feature", "geometry": {"type": "Point", "coordinates": [117.4765714, 0.1088105]}, "properties": {"id": "GEN-KLM-0048", "name": "(unnamed)", "type": "PLTS", "capacity_mw": "", "province": "Kalimantan Timur", "system": "Mahakam", "status": "existing", "operator": "", "method": "photovoltaic", "osm_id": "way/1231910575", "osm_source": "solar", "review_flag": "NO_NAME;NO_CAPACITY", "source_id": "OSM-overpass"}}, {"type": "Feature", "geometry": {"type": "Point", "coordinates": [117.4752228, 0.109365]}, "properties": {"id": "GEN-KLM-0049", "name": "(unnamed)", "type": "PLTS", "capacity_mw": "", "province": "Kalimantan Timur", "system": "Mahakam", "status": "existing", "operator": "", "method": "photovoltaic", "osm_id": "way/1231910576", "osm_source": "solar", "review_flag": "NO_NAME;NO_CAPACITY", "source_id": "OSM-overpass"}}, {"type": "Feature", "geometry": {"type": "Point", "coordinates": [109.2038611, 0.0589964]}, "properties": {"id": "GEN-KLM-0050", "name": "PLTG MPP Parit Baru", "type": "PLTG", "capacity_mw": 100.0, "province": "Kalimantan Barat", "system": "Khatulistiwa", "status": "existing", "operator": "Perusahaan Listrik Negara", "method": "combustion", "osm_id": "way/1236737903", "osm_source": "gas", "review_flag": "", "source_id": "OSM-overpass"}}, {"type": "Feature", "geometry": {"type": "Point", "coordinates": [117.618881, 2.2143447]}, "properties": {"id": "GEN-KLM-0051", "name": "PTLU Lati", "type": "PLTU", "capacity_mw": "", "province": "Kalimantan Utara", "system": "Mahakam", "status": "existing", "operator": "", "method": "combustion", "osm_id": "way/1280400266", "osm_source": "coal", "review_flag": "NO_CAPACITY", "source_id": "OSM-overpass"}}, {"type": "Feature", "geometry": {"type": "Point", "coordinates": [116.6382959, -0.9898017]}, "properties": {"id": "GEN-KLM-0052", "name": "PLTS IKN", "type": "PLTS", "capacity_mw": 50.0, "province": "Kalimantan Timur", "system": "Mahakam", "status": "existing", "operator": "Nusantara Sembcorp Solar Energi", "method": "photovoltaic", "osm_id": "way/1303917776", "osm_source": "solar", "review_flag": "", "source_id": "OSM-overpass"}}, {"type": "Feature", "geometry": {"type": "Point", "coordinates": [117.3853796, 2.8316482]}, "properties": {"id": "GEN-KLM-0053", "name": "PLTD Sei Baya", "type": "PLTD", "capacity_mw": "", "province": "Kalimantan Utara", "system": "Mahakam", "status": "existing", "operator": "PLN", "method": "combustion", "osm_id": "way/1312946738", "osm_source": "coal", "review_flag": "NO_CAPACITY", "source_id": "OSM-overpass"}}, {"type": "Feature", "geometry": {"type": "Point", "coordinates": [118.8818299, -2.6356846]}, "properties": {"id": "GEN-KLM-0054", "name": "PLTS Karampuang 1", "type": "PLTS", "capacity_mw": 0.2, "province": "Kalimantan Timur", "system": "Mahakam", "status": "existing", "operator": "", "method": "photovoltaic", "osm_id": "way/1322681373", "osm_source": "solar", "review_flag": "", "source_id": "OSM-overpass"}}, {"type": "Feature", "geometry": {"type": "Point", "coordinates": [118.8805013, -2.6275081]}, "properties": {"id": "GEN-KLM-0055", "name": "PLTS Karampuang 2", "type": "PLTS", "capacity_mw": 0.12, "province": "Kalimantan Timur", "system": "Mahakam", "status": "existing", "operator": "", "method": "photovoltaic", "osm_id": "way/1322681375", "osm_source": "solar", "review_flag": "", "source_id": "OSM-overpass"}}, {"type": "Feature", "geometry": {"type": "Point", "coordinates": [118.890817, -2.6241757]}, "properties": {"id": "GEN-KLM-0056", "name": "PLTS Karampuang 3", "type": "PLTS", "capacity_mw": 0.15, "province": "Kalimantan Timur", "system": "Mahakam", "status": "existing", "operator": "", "method": "photovoltaic", "osm_id": "way/1322681377", "osm_source": "solar", "review_flag": "", "source_id": "OSM-overpass"}}, {"type": "Feature", "geometry": {"type": "Point", "coordinates": [118.8869481, -2.6455713]}, "properties": {"id": "GEN-KLM-0057", "name": "PLTS Karampuang 4", "type": "PLTS", "capacity_mw": 0.13, "province": "Kalimantan Timur", "system": "Mahakam", "status": "existing", "operator": "", "method": "photovoltaic", "osm_id": "way/1322681379", "osm_source": "solar", "review_flag": "", "source_id": "OSM-overpass"}}, {"type": "Feature", "geometry": {"type": "Point", "coordinates": [115.8565947, -0.3186849]}, "properties": {"id": "GEN-KLM-0058", "name": "PLTS Bunyut", "type": "PLTS", "capacity_mw": 2.0, "province": "Kalimantan Timur", "system": "Mahakam", "status": "existing", "operator": "Indo Tambangraya Megah", "method": "photovoltaic", "osm_id": "way/1322972373", "osm_source": "solar", "review_flag": "", "source_id": "OSM-overpass"}}, {"type": "Feature", "geometry": {"type": "Point", "coordinates": [116.1434176, 3.0558239]}, "properties": {"id": "GEN-KLM-0059", "name": "(unnamed)", "type": "PLTS", "capacity_mw": "", "province": "Kalimantan Utara", "system": "Mahakam", "status": "existing", "operator": "", "method": "", "osm_id": "way/1361600216", "osm_source": "solar", "review_flag": "NO_NAME;NO_CAPACITY", "source_id": "OSM-overpass"}}, {"type": "Feature", "geometry": {"type": "Point", "coordinates": [116.5332271, 3.9888448]}, "properties": {"id": "GEN-KLM-0060", "name": "(unnamed)", "type": "PLTS", "capacity_mw": "", "province": "Kalimantan Utara", "system": "Mahakam", "status": "existing", "operator": "", "method": "", "osm_id": "way/1362008818", "osm_source": "solar", "review_flag": "NO_NAME;NO_CAPACITY", "source_id": "OSM-overpass"}}, {"type": "Feature", "geometry": {"type": "Point", "coordinates": [116.4990023, 4.2232843]}, "properties": {"id": "GEN-KLM-0061", "name": "(unnamed)", "type": "PLTS", "capacity_mw": "", "province": "Kalimantan Utara", "system": "Mahakam", "status": "existing", "operator": "", "method": "", "osm_id": "way/1362142681", "osm_source": "solar", "review_flag": "NO_NAME;NO_CAPACITY", "source_id": "OSM-overpass"}}, {"type": "Feature", "geometry": {"type": "Point", "coordinates": [109.598207, 2.0067549]}, "properties": {"id": "GEN-KLM-0062", "name": "PLTS Temajuk", "type": "PLTS", "capacity_mw": "", "province": "Kalimantan Barat", "system": "Khatulistiwa", "status": "existing", "operator": "PT PLN", "method": "photovoltaic", "osm_id": "way/1371398238", "osm_source": "solar", "review_flag": "NO_CAPACITY", "source_id": "OSM-overpass"}}, {"type": "Feature", "geometry": {"type": "Point", "coordinates": [118.2434624, 2.2862757]}, "properties": {"id": "GEN-KLM-0063", "name": "PLTS Derawan", "type": "PLTS", "capacity_mw": "", "province": "Kalimantan Timur", "system": "Mahakam", "status": "existing", "operator": "PT PLN", "method": "photovoltaic", "osm_id": "way/1371398249", "osm_source": "solar", "review_flag": "NO_CAPACITY", "source_id": "OSM-overpass"}}, {"type": "Feature", "geometry": {"type": "Point", "coordinates": [116.112217, -3.256105]}, "properties": {"id": "GEN-KLM-0064", "name": "PLTS Indocement", "type": "PLTS", "capacity_mw": 15.0, "province": "Kalimantan Selatan", "system": "Kalselteng", "status": "existing", "operator": "", "method": "photovoltaic", "osm_id": "way/1411100174", "osm_source": "solar", "review_flag": "", "source_id": "OSM-overpass"}}, {"type": "Feature", "geometry": {"type": "Point", "coordinates": [109.3806946, -0.072842]}, "properties": {"id": "GEN-KLM-0065", "name": "PLTD Sei Raya Kalbar", "type": "PLTD", "capacity_mw": 65.0, "province": "Kalimantan Barat", "system": "Khatulistiwa", "status": "existing", "operator": "Perusahaan Listrik Negara", "method": "combustion", "osm_id": "way/1434857505", "osm_source": "oil", "review_flag": "", "source_id": "OSM-overpass"}}, {"type": "Feature", "geometry": {"type": "Point", "coordinates": [115.7283033, 2.6907285]}, "properties": {"id": "GEN-KLM-0066", "name": "(unnamed)", "type": "PLTS", "capacity_mw": "", "province": "Kalimantan Utara", "system": "Mahakam", "status": "existing", "operator": "", "method": "photovoltaic", "osm_id": "way/1453797217", "osm_source": "solar", "review_flag": "NO_NAME;NO_CAPACITY", "source_id": "OSM-overpass"}}, {"type": "Feature", "geometry": {"type": "Point", "coordinates": [117.301879, 4.3011171]}, "properties": {"id": "GEN-KLM-0067", "name": "(unnamed)", "type": "PLTS", "capacity_mw": "", "province": "Kalimantan Utara", "system": "Mahakam", "status": "existing", "operator": "", "method": "photovoltaic", "osm_id": "way/1455366530", "osm_source": "solar", "review_flag": "NO_NAME;NO_CAPACITY", "source_id": "OSM-overpass"}}, {"type": "Feature", "geometry": {"type": "Point", "coordinates": [117.0205272, 3.9725752]}, "properties": {"id": "GEN-KLM-0068", "name": "(unnamed)", "type": "PLTS", "capacity_mw": "", "province": "Kalimantan Utara", "system": "Mahakam", "status": "existing", "operator": "", "method": "photovoltaic", "osm_id": "way/1456210720", "osm_source": "solar", "review_flag": "NO_NAME;NO_CAPACITY", "source_id": "OSM-overpass"}}, {"type": "Feature", "geometry": {"type": "Point", "coordinates": [116.1515622, 2.8339237]}, "properties": {"id": "GEN-KLM-0069", "name": "(unnamed)", "type": "PLTS", "capacity_mw": "", "province": "Kalimantan Utara", "system": "Mahakam", "status": "existing", "operator": "", "method": "", "osm_id": "way/1460653376", "osm_source": "solar", "review_flag": "NO_NAME;NO_CAPACITY", "source_id": "OSM-overpass"}}, {"type": "Feature", "geometry": {"type": "Point", "coordinates": [116.5295215, 1.982936]}, "properties": {"id": "GEN-KLM-0070", "name": "(unnamed)", "type": "PLTS", "capacity_mw": "", "province": "Kalimantan Utara", "system": "Mahakam", "status": "existing", "operator": "", "method": "photovoltaic", "osm_id": "way/1497548536", "osm_source": "solar", "review_flag": "NO_NAME;NO_CAPACITY", "source_id": "OSM-overpass"}}]}