{"type": "FeatureCollection", "features": [{"type": "Feature", "geometry": {"type": "Point", "coordinates": [128.333643, -3.5505619]}, "properties": {"id": "GEN-MLK-0001", "name": "PLTU Waai", "osm_name": "PLTU Waai", "type": "PLTU", "capacity_mw": "30.0", "province": "Maluku", "system": "Maluku", "status": "existing", "operator": "", "method": "", "osm_id": "way/174363561", "osm_source": "coal", "review_flag": "", "source_id": "OSM-overpass", "capacity_unit": "MW", "role": "Utility", "roleDescription": "Memasok listrik ke sistem kelistrikan publik.", "roleConfidence": "", "roleReason": ""}}, {"type": "Feature", "geometry": {"type": "Point", "coordinates": [128.2828028, 2.0049563]}, "properties": {"id": "GEN-MLK-0002", "name": "PLTS Morotai", "osm_name": "PLTS Morotai", "type": "PLTS", "capacity_mw": "0.6", "province": "Maluku Utara", "system": "Maluku", "status": "existing", "operator": "PT PLN", "method": "photovoltaic", "osm_id": "way/188467200", "osm_source": "solar", "review_flag": "", "source_id": "OSM-overpass", "capacity_unit": "MWp", "role": "Utility", "roleDescription": "Memasok listrik ke sistem kelistrikan publik.", "roleConfidence": "", "roleReason": ""}}, {"type": "Feature", "geometry": {"type": "Point", "coordinates": [127.3882774, 0.7392645]}, "properties": {"id": "GEN-MLK-0004", "name": "PLTU Tidore", "osm_name": "PLTU Tidore", "type": "PLTU", "capacity_mw": "14.0", "province": "Maluku Utara", "system": "Maluku", "status": "existing", "operator": "", "method": "", "osm_id": "way/391581020", "osm_source": "coal", "review_flag": "", "source_id": "OSM-overpass", "capacity_unit": "MW", "role": "Utility", "roleDescription": "Memasok listrik ke sistem kelistrikan publik.", "roleConfidence": "", "roleReason": ""}}, {"type": "Feature", "geometry": {"type": "Point", "coordinates": [128.9463252, -3.3062485]}, "properties": {"id": "GEN-MLK-0005", "name": "PLTMG Seram", "osm_name": "PLTMG Seram", "type": "PLTMG", "capacity_mw": "20.0", "province": "Maluku", "system": "Maluku", "status": "existing", "operator": "", "method": "combustion", "osm_id": "way/501327305", "osm_source": "gas", "review_flag": "", "source_id": "OSM-overpass", "capacity_unit": "MW", "role": "Utility", "roleDescription": "Memasok listrik ke sistem kelistrikan publik.", "roleConfidence": "", "roleReason": ""}}, {"type": "Feature", "geometry": {"type": "Point", "coordinates": [127.9064399, -3.6530298]}, "properties": {"id": "GEN-MLK-0006", "name": "PLTS Pulau Tiga", "osm_name": "PLTS Pulau Tiga", "type": "PLTS", "capacity_mw": "0.075", "province": "Maluku", "system": "Maluku", "status": "existing", "operator": "", "method": "photovoltaic", "osm_id": "way/522713233", "osm_source": "solar", "review_flag": "", "source_id": "OSM-overpass", "capacity_unit": "MWp", "role": "Community", "roleDescription": "Memasok listrik untuk komunitas lokal, desa terpencil, atau pulau kecil.", "roleConfidence": "High", "roleReason": "Sistem elektrifikasi pulau kecil"}}, {"type": "Feature", "geometry": {"type": "Point", "coordinates": [127.6552233, -3.231044]}, "properties": {"id": "GEN-MLK-0007", "name": "PLTS Tahalupu", "osm_name": "PLTS Tahalupu", "type": "PLTS", "capacity_mw": "0.1", "province": "Maluku", "system": "Maluku", "status": "existing", "operator": "", "method": "photovoltaic", "osm_id": "way/799249943", "osm_source": "solar", "review_flag": "", "source_id": "OSM-overpass", "capacity_unit": "MWp", "role": "Community", "roleDescription": "Memasok listrik untuk komunitas lokal, desa terpencil, atau pulau kecil.", "roleConfidence": "High", "roleReason": "Sistem elektrifikasi pulau kecil"}}, {"type": "Feature", "geometry": {"type": "Point", "coordinates": [127.3062418, 0.7667497]}, "properties": {"id": "GEN-MLK-0008", "name": "PLTMG Ternate", "osm_name": "PLTMG Ternate", "type": "PLTMG", "capacity_mw": "30.0", "province": "Maluku Utara", "system": "Maluku", "status": "existing", "operator": "", "method": "combustion", "osm_id": "way/951367598", "osm_source": "gas", "review_flag": "", "source_id": "OSM-overpass", "capacity_unit": "MW", "role": "Utility", "roleDescription": "Memasok listrik ke sistem kelistrikan publik.", "roleConfidence": "", "roleReason": ""}}, {"type": "Feature", "geometry": {"type": "Point", "coordinates": [127.3705052, 0.7608672]}, "properties": {"id": "GEN-MLK-0009", "name": "PLTD Kayu Merah", "osm_name": "PLTD Kayu Merah", "type": "PLTD", "capacity_mw": "25.0", "province": "Maluku Utara", "system": "Maluku", "status": "existing", "operator": "", "method": "", "osm_id": "way/951367599", "osm_source": "diesel", "review_flag": "", "source_id": "OSM-overpass", "capacity_unit": "MW", "role": "Utility", "roleDescription": "Memasok listrik ke sistem kelistrikan publik.", "roleConfidence": "", "roleReason": ""}}, {"type": "Feature", "geometry": {"type": "Point", "coordinates": [132.7721921, -5.5550791]}, "properties": {"id": "GEN-MLK-0010", "name": "PLTMG Dullah", "osm_name": "PLTMG Dullah", "type": "PLTMG", "capacity_mw": "20.0", "province": "Maluku", "system": "Maluku", "status": "existing", "operator": "", "method": "combustion", "osm_id": "way/1082807974", "osm_source": "gas", "review_flag": "NO_CAPACITY", "source_id": "OSM-overpass", "capacity_unit": "MW", "role": "Utility", "roleDescription": "Memasok listrik ke sistem kelistrikan publik.", "roleConfidence": "", "roleReason": ""}}, {"type": "Feature", "geometry": {"type": "Point", "coordinates": [128.0013922, 0.4765027]}, "properties": {"id": "GEN-MLK-0013", "name": "PLTU Weda Bay", "osm_name": "PLTU Weda Bay Power Plant\uff08\u97e6\u8fbe\u8d1d\u71c3\u7164\u53d1\u7535\u5382\uff09", "type": "PLTU", "capacity_mw": "4000.0", "province": "Maluku Utara", "system": "Maluku", "status": "existing", "operator": "", "method": "combustion", "osm_id": "way/1152758557", "osm_source": "coal", "review_flag": "CAPACITY_FLAG_4GW_verify_multiunit", "source_id": "OSM-overpass", "capacity_unit": "MW", "role": "Captive", "roleDescription": "Memasok listrik untuk kebutuhan industri atau pelanggan khusus.", "roleConfidence": "High", "roleReason": "Nama/operator menunjukkan fasilitas smelter"}}, {"type": "Feature", "geometry": {"type": "Point", "coordinates": [128.2999183, 2.0377257]}, "properties": {"id": "GEN-MLK-0014", "name": "PLTS Daruba", "osm_name": "", "type": "PLTS", "capacity_mw": "0.600", "province": "Maluku Utara", "system": "Maluku", "status": "existing", "operator": "", "method": "", "osm_id": "way/1204724030", "osm_source": "solar", "review_flag": "NO_NAME;NO_CAPACITY", "source_id": "OSM-overpass", "capacity_unit": "MWp", "role": "Utility", "roleDescription": "Memasok listrik ke sistem kelistrikan publik.", "roleConfidence": "", "roleReason": ""}}, {"type": "Feature", "geometry": {"type": "Point", "coordinates": [128.1798122, 2.2957053]}, "properties": {"id": "GEN-MLK-0015", "name": "PLTS Terpusat Desa Posi-Posi", "osm_name": "", "type": "PLTS", "capacity_mw": "0.0005", "province": "Maluku Utara", "system": "Maluku", "status": "existing", "operator": "", "method": "", "osm_id": "way/1205552684", "osm_source": "solar", "review_flag": "NO_NAME;NO_CAPACITY", "source_id": "OSM-overpass", "capacity_unit": "MWp", "role": "Community", "roleDescription": "Memasok listrik untuk komunitas lokal, desa terpencil, atau pulau kecil.", "roleConfidence": "High", "roleReason": "Sistem elektrifikasi desa"}}]}