{"type": "FeatureCollection", "features": [{"type": "Feature", "geometry": {"type": "Point", "coordinates": [123.5464335, -10.1884429]}, "properties": {"id": "GEN-NTT-0001", "name": "PLTD Tenau", "osm_name": "PLTD Tenau", "type": "PLTD", "capacity_mw": "6.4", "province": "Nusa Tenggara Timur", "system": "NTT", "status": "existing", "operator": "", "method": "combustion", "osm_id": "way/150155344", "osm_source": "diesel", "review_flag": "", "source_id": "OSM-overpass", "capacity_unit": "MW", "role": "Utility", "roleDescription": "Memasok listrik ke sistem kelistrikan publik.", "roleConfidence": "", "roleReason": "", "match_tier": "UNMATCHED_IPM", "match_score": "0.10", "match_reason": "tidak ada RUPTL row yang cocok", "name_source": "ipm_osm", "capacity_mw_source": "ipm_osm", "type_source": "ipm_osm", "role_source": "ipm_osm", "status_source": "ipm_osm", "coord_source": "ipm_osm", "capacity_mw_ipm": "6.4", "type_ipm": "PLTD", "role_ipm": "Utility", "status_norm": "OPERATIONAL", "action_norm": "", "is_placeholder": false}}, {"type": "Feature", "geometry": {"type": "Point", "coordinates": [122.1905953, -8.5967197]}, "properties": {"id": "GEN-NTT-0002", "name": "PLTD Wolomarang", "osm_name": "PLTD Wolomarang", "type": "PLTD", "capacity_mw": "3.0", "province": "Nusa Tenggara Timur", "system": "NTT", "status": "existing", "operator": "", "method": "combustion", "osm_id": "way/244246232", "osm_source": "diesel", "review_flag": "", "source_id": "OSM-overpass", "capacity_unit": "MW", "role": "Utility", "roleDescription": "Memasok listrik ke sistem kelistrikan publik.", "roleConfidence": "", "roleReason": "", "match_tier": "UNMATCHED_IPM", "match_score": "0.10", "match_reason": "tidak ada RUPTL row yang cocok", "name_source": "ipm_osm", "capacity_mw_source": "ipm_osm", "type_source": "ipm_osm", "role_source": "ipm_osm", "status_source": "ipm_osm", "coord_source": "ipm_osm", "capacity_mw_ipm": "3.0", "type_ipm": "PLTD", "role_ipm": "Utility", "status_norm": "OPERATIONAL", "action_norm": "", "is_placeholder": false}}, {"type": "Feature", "geometry": {"type": "Point", "coordinates": [120.2227955, -9.5391303]}, "properties": {"id": "GEN-NTT-0004", "name": "PLTS Hambapraing", "osm_name": "Pembangkit Listrik Tenaga Surya", "type": "PLTS", "capacity_mw": "1.0", "province": "Nusa Tenggara Timur", "system": "NTT", "status": "existing", "operator": "PT Buana Energi Surya Persada", "method": "", "osm_id": "way/515587640", "osm_source": "solar", "review_flag": "", "source_id": "OSM-overpass", "capacity_unit": "MWp", "role": "Utility", "roleDescription": "Memasok listrik ke sistem kelistrikan publik.", "roleConfidence": "", "roleReason": "", "match_tier": "UNMATCHED_IPM", "match_score": "0.10", "match_reason": "tidak ada RUPTL row yang cocok", "name_source": "ipm_osm", "capacity_mw_source": "ipm_osm", "type_source": "ipm_osm", "role_source": "ipm_osm", "operator_source": "ipm_osm", "status_source": "ipm_osm", "coord_source": "ipm_osm", "capacity_mw_ipm": "1.0", "type_ipm": "PLTS", "role_ipm": "Utility", "status_norm": "OPERATIONAL", "action_norm": "", "is_placeholder": false}}, {"type": "Feature", "geometry": {"type": "Point", "coordinates": [123.4913586, -10.2393253]}, "properties": {"id": "GEN-NTT-0007", "name": "PLTU Bolok", "osm_name": "PLTU Bolok", "type": "PLTU", "capacity_mw": "33.0", "province": "Nusa Tenggara Timur", "system": "NTT", "status": "existing", "operator": "", "method": "", "osm_id": "way/611789533", "osm_source": "coal", "review_flag": "", "source_id": "OSM-overpass", "capacity_unit": "MW", "role": "Utility", "roleDescription": "Memasok listrik ke sistem kelistrikan publik.", "roleConfidence": "", "roleReason": "", "match_tier": "UNMATCHED_IPM", "match_score": "0.10", "match_reason": "tidak ada RUPTL row yang cocok", "name_source": "ipm_osm", "capacity_mw_source": "ipm_osm", "type_source": "ipm_osm", "role_source": "ipm_osm", "status_source": "ipm_osm", "coord_source": "ipm_osm", "capacity_mw_ipm": "33.0", "type_ipm": "PLTU", "role_ipm": "Utility", "status_norm": "OPERATIONAL", "action_norm": "", "is_placeholder": false}}, {"type": "Feature", "geometry": {"type": "Point", "coordinates": [124.8180958, -9.005082]}, "properties": {"id": "GEN-NTT-0008", "name": "PLTU Atapupu", "osm_name": "PLTU Atapupu", "type": "PLTU", "capacity_mw": "24.0", "province": "Nusa Tenggara Timur", "system": "NTT", "status": "existing", "operator": "", "method": "", "osm_id": "way/614569627", "osm_source": "", "review_flag": "NO_CAPACITY", "source_id": "OSM-overpass", "capacity_unit": "MW", "role": "Utility", "roleDescription": "Memasok listrik ke sistem kelistrikan publik.", "roleConfidence": "", "roleReason": "", "match_tier": "UNMATCHED_IPM", "match_score": "0.10", "match_reason": "tidak ada RUPTL row yang cocok", "name_source": "ipm_osm", "capacity_mw_source": "ipm_osm", "type_source": "ipm_osm", "role_source": "ipm_osm", "status_source": "ipm_osm", "coord_source": "ipm_osm", "capacity_mw_ipm": "24.0", "type_ipm": "PLTU", "role_ipm": "Utility", "status_norm": "OPERATIONAL", "action_norm": "", "is_placeholder": false}}, {"type": "Feature", "geometry": {"type": "Point", "coordinates": [123.4593698, -10.353854]}, "properties": {"id": "GEN-NTT-0009", "name": "PLTMG Kupang", "osm_name": "PLTMG Kupang", "type": "PLTMG", "capacity_mw": "40.0", "province": "Nusa Tenggara Timur", "system": "NTT", "status": "existing", "operator": "", "method": "", "osm_id": "way/716898232", "osm_source": "gas", "review_flag": "", "source_id": "OSM-overpass", "capacity_unit": "MW", "role": "Utility", "roleDescription": "Memasok listrik ke sistem kelistrikan publik.", "roleConfidence": "", "roleReason": "", "match_tier": "PROBABLE_MATCH", "match_score": "0.80", "match_reason": "token set sama, jarak=0.0 km", "ruptl_id": "RUPTL-NTT-P-0026", "name_source": "ipm_osm", "capacity_mw_source": "ipm_osm", "type_source": "ipm_osm", "role_source": "ipm_osm", "status_source": "ipm_osm", "coord_source": "ipm_osm", "capacity_mw_ipm": "40.0", "capacity_mw_ruptl": "30.0", "type_ipm": "PLTMG", "type_ruptl": "PLTMG", "role_ipm": "Utility", "has_capacity_conflict": "false", "has_type_conflict": "false", "has_location_conflict": "false", "target_cod_year_ruptl": "2027", "source_page_ruptl": "1177", "status_norm": "", "action_norm": "", "is_placeholder": false}}, {"type": "Feature", "geometry": {"type": "Point", "coordinates": [123.7486233, -10.1469168]}, "properties": {"id": "GEN-NTT-0010", "name": "PLTS Oelpuah", "osm_name": "PLTS Oelpuah", "type": "PLTS", "capacity_mw": "5.0", "province": "Nusa Tenggara Timur", "system": "NTT", "status": "existing", "operator": "PT Lembaga Elektronik Nasional (LEN)", "method": "photovoltaic", "osm_id": "way/798987869", "osm_source": "solar", "review_flag": "", "source_id": "OSM-overpass", "capacity_unit": "MWp", "role": "Utility", "roleDescription": "Memasok listrik ke sistem kelistrikan publik.", "roleConfidence": "", "roleReason": "", "match_tier": "UNMATCHED_IPM", "match_score": "0.10", "match_reason": "tidak ada RUPTL row yang cocok", "name_source": "ipm_osm", "capacity_mw_source": "ipm_osm", "type_source": "ipm_osm", "role_source": "ipm_osm", "operator_source": "ipm_osm", "status_source": "ipm_osm", "coord_source": "ipm_osm", "capacity_mw_ipm": "5.0", "type_ipm": "PLTS", "role_ipm": "Utility", "status_norm": "OPERATIONAL", "action_norm": "", "is_placeholder": false}}, {"type": "Feature", "geometry": {"type": "Point", "coordinates": [120.5704061, -8.7601128]}, "properties": {"id": "GEN-NTT-0011", "name": "PLTMH Sita", "osm_name": "", "type": "PLTMH", "capacity_mw": "1.0", "province": "Nusa Tenggara Timur", "system": "NTT", "status": "existing", "operator": "", "method": "run-of-the-river", "osm_id": "way/845393015", "osm_source": "hydro", "review_flag": "NO_NAME;NO_CAPACITY", "source_id": "OSM-overpass", "capacity_unit": "MW", "role": "Community", "roleDescription": "Memasok listrik untuk komunitas lokal, desa terpencil, atau pulau kecil.", "roleConfidence": "High", "roleReason": "Sistem elektrifikasi desa", "match_tier": "UNMATCHED_IPM", "match_score": "0.10", "match_reason": "tidak ada RUPTL row yang cocok", "name_source": "ipm_osm", "capacity_mw_source": "ipm_osm", "type_source": "ipm_osm", "role_source": "ipm_osm", "status_source": "ipm_osm", "coord_source": "ipm_osm", "capacity_mw_ipm": "1.0", "type_ipm": "PLTMH", "role_ipm": "Community", "status_norm": "OPERATIONAL", "action_norm": "", "is_placeholder": false}}, {"type": "Feature", "geometry": {"type": "Point", "coordinates": [122.3282918, -8.6296498]}, "properties": {"id": "GEN-NTT-0012", "name": "PLTS Maumere", "osm_name": "PLTS Maumere", "type": "PLTS", "capacity_mw": "2.0", "province": "Nusa Tenggara Timur", "system": "NTT", "status": "existing", "operator": "", "method": "photovoltaic", "osm_id": "way/937059859", "osm_source": "solar", "review_flag": "", "source_id": "OSM-overpass", "capacity_unit": "MWp", "role": "Utility", "roleDescription": "Memasok listrik ke sistem kelistrikan publik.", "roleConfidence": "", "roleReason": "", "match_tier": "UNMATCHED_IPM", "match_score": "0.10", "match_reason": "tidak ada RUPTL row yang cocok", "name_source": "ipm_osm", "capacity_mw_source": "ipm_osm", "type_source": "ipm_osm", "role_source": "ipm_osm", "status_source": "ipm_osm", "coord_source": "ipm_osm", "capacity_mw_ipm": "2.0", "type_ipm": "PLTS", "role_ipm": "Utility", "status_norm": "OPERATIONAL", "action_norm": "", "is_placeholder": false}}, {"type": "Feature", "geometry": {"type": "Point", "coordinates": [122.3410147, -8.6198021]}, "properties": {"id": "GEN-NTT-0013", "name": "PLTMG Maumere", "osm_name": "PLTMG Maumere", "type": "PLTMG", "capacity_mw": "40.0", "province": "Nusa Tenggara Timur", "system": "NTT", "status": "existing", "operator": "", "method": "", "osm_id": "way/937059861", "osm_source": "gas", "review_flag": "", "source_id": "OSM-overpass", "capacity_unit": "MW", "role": "Utility", "roleDescription": "Memasok listrik ke sistem kelistrikan publik.", "roleConfidence": "", "roleReason": "", "match_tier": "UNMATCHED_IPM", "match_score": "0.10", "match_reason": "tidak ada RUPTL row yang cocok", "name_source": "ipm_osm", "capacity_mw_source": "ipm_osm", "type_source": "ipm_osm", "role_source": "ipm_osm", "status_source": "ipm_osm", "coord_source": "ipm_osm", "capacity_mw_ipm": "40.0", "type_ipm": "PLTMG", "role_ipm": "Utility", "status_norm": "OPERATIONAL", "action_norm": "", "is_placeholder": false}}, {"type": "Feature", "geometry": {"type": "Point", "coordinates": [121.6998428, -8.5106178]}, "properties": {"id": "GEN-NTT-0014", "name": "PLTU Ropa", "osm_name": "PLTU Ropa", "type": "PLTU", "capacity_mw": "14.0", "province": "Nusa Tenggara Timur", "system": "NTT", "status": "existing", "operator": "", "method": "", "osm_id": "way/937059863", "osm_source": "coal", "review_flag": "", "source_id": "OSM-overpass", "capacity_unit": "MW", "role": "Utility", "roleDescription": "Memasok listrik ke sistem kelistrikan publik.", "roleConfidence": "", "roleReason": "", "match_tier": "UNMATCHED_IPM", "match_score": "0.10", "match_reason": "tidak ada RUPTL row yang cocok", "name_source": "ipm_osm", "capacity_mw_source": "ipm_osm", "type_source": "ipm_osm", "role_source": "ipm_osm", "status_source": "ipm_osm", "coord_source": "ipm_osm", "capacity_mw_ipm": "14.0", "type_ipm": "PLTU", "role_ipm": "Utility", "status_norm": "OPERATIONAL", "action_norm": "", "is_placeholder": false}}, {"type": "Feature", "geometry": {"type": "Point", "coordinates": [119.9435178, -8.4610735]}, "properties": {"id": "GEN-NTT-0015", "name": "PLTMG Flores", "osm_name": "PLTMG Flores", "type": "PLTMG", "capacity_mw": "20.0", "province": "Nusa Tenggara Timur", "system": "NTT", "status": "existing", "operator": "", "method": "", "osm_id": "way/937059866", "osm_source": "gas", "review_flag": "", "source_id": "OSM-overpass", "capacity_unit": "MW", "role": "Utility", "roleDescription": "Memasok listrik ke sistem kelistrikan publik.", "roleConfidence": "", "roleReason": "", "match_tier": "PROBABLE_MATCH", "match_score": "0.80", "match_reason": "token set sama, jarak=0.0 km", "ruptl_id": "RUPTL-NTT-P-0078", "name_source": "ipm_osm", "capacity_mw_source": "ipm_osm", "type_source": "ipm_osm", "role_source": "ipm_osm", "status_source": "ipm_osm", "coord_source": "ipm_osm", "capacity_mw_ipm": "20.0", "capacity_mw_ruptl": "40.0", "type_ipm": "PLTMG", "type_ruptl": "PLTP", "role_ipm": "Utility", "has_capacity_conflict": "true", "has_type_conflict": "true", "has_location_conflict": "false", "target_cod_year_ruptl": "2032", "source_page_ruptl": "1178", "status_norm": "", "action_norm": "", "is_placeholder": false}}, {"type": "Feature", "geometry": {"type": "Point", "coordinates": [120.4355139, -8.7260519]}, "properties": {"id": "GEN-NTT-0016", "name": "PLTP Ulumbu", "osm_name": "PLTG Ulumbu", "type": "PLTP", "capacity_mw": "10.0", "province": "Nusa Tenggara Timur", "system": "NTT", "status": "existing", "operator": "", "method": "", "osm_id": "way/937059867", "osm_source": "geothermal", "review_flag": "", "source_id": "OSM-overpass", "capacity_unit": "MW", "role": "Utility", "roleDescription": "Memasok listrik ke sistem kelistrikan publik.", "roleConfidence": "", "roleReason": "", "match_tier": "UNMATCHED_IPM", "match_score": "0.10", "match_reason": "tidak ada RUPTL row yang cocok", "name_source": "ipm_osm", "capacity_mw_source": "ipm_osm", "type_source": "ipm_osm", "role_source": "ipm_osm", "status_source": "ipm_osm", "coord_source": "ipm_osm", "capacity_mw_ipm": "10.0", "type_ipm": "PLTP", "role_ipm": "Utility", "status_norm": "OPERATIONAL", "action_norm": "", "is_placeholder": false}}, {"type": "Feature", "geometry": {"type": "Point", "coordinates": [123.4589058, -10.3501327]}, "properties": {"id": "GEN-NTT-0017", "name": "PLTU Timor-1", "osm_name": "PLTU Timor-1", "type": "PLTU", "capacity_mw": "100.0", "province": "Nusa Tenggara Timur", "system": "NTT", "status": "existing", "operator": "", "method": "combustion", "osm_id": "way/1198315805", "osm_source": "coal", "review_flag": "", "source_id": "OSM-overpass", "capacity_unit": "MW", "role": "Utility", "roleDescription": "Memasok listrik ke sistem kelistrikan publik.", "roleConfidence": "", "roleReason": "", "match_tier": "PROBABLE_MATCH", "match_score": "0.80", "match_reason": "token set sama, jarak=0.0 km", "ruptl_id": "RUPTL-NTT-P-0075", "name_source": "ipm_osm", "capacity_mw_source": "ipm_osm", "type_source": "ipm_osm", "role_source": "ipm_osm", "status_source": "ipm_osm", "coord_source": "ipm_osm", "capacity_mw_ipm": "100.0", "capacity_mw_ruptl": "1.4", "type_ipm": "PLTU", "type_ruptl": "PLTM", "role_ipm": "Utility", "has_capacity_conflict": "true", "has_type_conflict": "true", "has_location_conflict": "false", "target_cod_year_ruptl": "2029", "source_page_ruptl": "1178", "status_norm": "", "action_norm": "", "is_placeholder": false}}, {"type": "Feature", "geometry": {"type": "Point", "coordinates": [121.76608, -8.7929784]}, "properties": {"id": "GEN-NTT-0018", "name": "PLTP Sokoria", "osm_name": "PLTP Sokoria", "type": "PLTP", "capacity_mw": "8.0", "province": "Nusa Tenggara Timur", "system": "NTT", "status": "existing", "operator": "", "method": "", "osm_id": "way/1313835498", "osm_source": "geothermal", "review_flag": "", "source_id": "OSM-overpass", "capacity_unit": "MW", "role": "Utility", "roleDescription": "Memasok listrik ke sistem kelistrikan publik.", "roleConfidence": "", "roleReason": "", "match_tier": "UNMATCHED_IPM", "match_score": "0.10", "match_reason": "tidak ada RUPTL row yang cocok", "name_source": "ipm_osm", "capacity_mw_source": "ipm_osm", "type_source": "ipm_osm", "role_source": "ipm_osm", "status_source": "ipm_osm", "coord_source": "ipm_osm", "capacity_mw_ipm": "8.0", "type_ipm": "PLTP", "role_ipm": "Utility", "status_norm": "OPERATIONAL", "action_norm": "", "is_placeholder": false}}, {"type": "Feature", "geometry": {"type": "Point", "coordinates": [122.8307471, -10.8839841]}, "properties": {"id": "GEN-NTT-0019", "name": "PLTS Nembrala", "osm_name": "PLTS Nembrala", "type": "PLTS", "capacity_mw": "0.1", "province": "Nusa Tenggara Timur", "system": "NTT", "status": "existing", "operator": "", "method": "photovoltaic", "osm_id": "way/1322035311", "osm_source": "solar", "review_flag": "", "source_id": "OSM-overpass", "capacity_unit": "MWp", "role": "Community", "roleDescription": "Memasok listrik untuk komunitas lokal, desa terpencil, atau pulau kecil.", "roleConfidence": "High", "roleReason": "Sistem elektrifikasi pulau kecil", "match_tier": "UNMATCHED_IPM", "match_score": "0.10", "match_reason": "tidak ada RUPTL row yang cocok", "name_source": "ipm_osm", "capacity_mw_source": "ipm_osm", "type_source": "ipm_osm", "role_source": "ipm_osm", "status_source": "ipm_osm", "coord_source": "ipm_osm", "capacity_mw_ipm": "0.1", "type_ipm": "PLTS", "role_ipm": "Community", "status_norm": "OPERATIONAL", "action_norm": "", "is_placeholder": false}}, {"type": "Feature", "geometry": {"type": "Point", "coordinates": [120.4800836, -10.0089602]}, "properties": {"id": "GEN-NTT-0020", "name": "PLTS Praimbana", "osm_name": "PLTS Praimbana", "type": "PLTS", "capacity_mw": "0.13", "province": "Nusa Tenggara Timur", "system": "NTT", "status": "existing", "operator": "", "method": "photovoltaic", "osm_id": "way/1322035319", "osm_source": "solar", "review_flag": "", "source_id": "OSM-overpass", "capacity_unit": "MWp", "role": "Community", "roleDescription": "Memasok listrik untuk komunitas lokal, desa terpencil, atau pulau kecil.", "roleConfidence": "High", "roleReason": "Sistem elektrifikasi desa", "match_tier": "UNMATCHED_IPM", "match_score": "0.10", "match_reason": "tidak ada RUPTL row yang cocok", "name_source": "ipm_osm", "capacity_mw_source": "ipm_osm", "type_source": "ipm_osm", "role_source": "ipm_osm", "status_source": "ipm_osm", "coord_source": "ipm_osm", "capacity_mw_ipm": "0.13", "type_ipm": "PLTS", "role_ipm": "Community", "status_norm": "OPERATIONAL", "action_norm": "", "is_placeholder": false}}, {"type": "Feature", "geometry": {"type": "Point", "coordinates": [122.9381078, -8.5302927]}, "properties": {"id": "GEN-NTT-0021", "name": "PLTS Solor Barat", "osm_name": "PLTS Solor Barat", "type": "PLTS", "capacity_mw": "0.275", "province": "Nusa Tenggara Timur", "system": "NTT", "status": "existing", "operator": "PT PLN", "method": "photovoltaic", "osm_id": "way/1322035330", "osm_source": "solar", "review_flag": "", "source_id": "OSM-overpass", "capacity_unit": "MWp", "role": "Utility", "roleDescription": "Memasok listrik ke sistem kelistrikan publik.", "roleConfidence": "", "roleReason": "", "match_tier": "UNMATCHED_IPM", "match_score": "0.10", "match_reason": "tidak ada RUPTL row yang cocok", "name_source": "ipm_osm", "capacity_mw_source": "ipm_osm", "type_source": "ipm_osm", "role_source": "ipm_osm", "operator_source": "ipm_osm", "status_source": "ipm_osm", "coord_source": "ipm_osm", "capacity_mw_ipm": "0.275", "type_ipm": "PLTS", "role_ipm": "Utility", "status_norm": "OPERATIONAL", "action_norm": "", "is_placeholder": false}}, {"type": "Feature", "geometry": {"type": "Point", "coordinates": [121.7060922, -8.3069116]}, "properties": {"id": "GEN-NTT-0022", "name": "PLTS Palue", "osm_name": "PLTS Palue", "type": "PLTS", "capacity_mw": "0.76", "province": "Nusa Tenggara Timur", "system": "NTT", "status": "existing", "operator": "", "method": "photovoltaic", "osm_id": "way/1322035334", "osm_source": "solar", "review_flag": "", "source_id": "OSM-overpass", "capacity_unit": "MWp", "role": "Utility", "roleDescription": "Memasok listrik ke sistem kelistrikan publik.", "roleConfidence": "", "roleReason": "", "match_tier": "UNMATCHED_IPM", "match_score": "0.10", "match_reason": "tidak ada RUPTL row yang cocok", "name_source": "ipm_osm", "capacity_mw_source": "ipm_osm", "type_source": "ipm_osm", "role_source": "ipm_osm", "status_source": "ipm_osm", "coord_source": "ipm_osm", "capacity_mw_ipm": "0.76", "type_ipm": "PLTS", "role_ipm": "Utility", "status_norm": "OPERATIONAL", "action_norm": "", "is_placeholder": false}}, {"type": "Feature", "geometry": {"type": "Point", "coordinates": [119.857453, -8.3938237]}, "properties": {"id": "GEN-NTT-0023", "name": "PLTS Seraya Marranu", "osm_name": "PLTS Seraya Marranu", "type": "PLTS", "capacity_mw": "0.19", "province": "Nusa Tenggara Timur", "system": "NTT", "status": "existing", "operator": "", "method": "photovoltaic", "osm_id": "way/1322035336", "osm_source": "solar", "review_flag": "", "source_id": "OSM-overpass", "capacity_unit": "MWp", "role": "Community", "roleDescription": "Memasok listrik untuk komunitas lokal, desa terpencil, atau pulau kecil.", "roleConfidence": "High", "roleReason": "Sistem elektrifikasi pulau kecil", "match_tier": "UNMATCHED_IPM", "match_score": "0.10", "match_reason": "tidak ada RUPTL row yang cocok", "name_source": "ipm_osm", "capacity_mw_source": "ipm_osm", "type_source": "ipm_osm", "role_source": "ipm_osm", "status_source": "ipm_osm", "coord_source": "ipm_osm", "capacity_mw_ipm": "0.19", "type_ipm": "PLTS", "role_ipm": "Community", "status_norm": "OPERATIONAL", "action_norm": "", "is_placeholder": false}}, {"type": "Feature", "geometry": {"type": "Point", "coordinates": [120.2529124, -8.3496123]}, "properties": {"id": "GEN-NTT-0024", "name": "PLTS Mbakung", "osm_name": "PLTS Mbakung", "type": "PLTS", "capacity_mw": "0.26", "province": "Nusa Tenggara Timur", "system": "NTT", "status": "existing", "operator": "", "method": "photovoltaic", "osm_id": "way/1322035338", "osm_source": "solar", "review_flag": "", "source_id": "OSM-overpass", "capacity_unit": "MWp", "role": "Utility", "roleDescription": "Memasok listrik ke sistem kelistrikan publik.", "roleConfidence": "", "roleReason": "", "match_tier": "UNMATCHED_IPM", "match_score": "0.10", "match_reason": "tidak ada RUPTL row yang cocok", "name_source": "ipm_osm", "capacity_mw_source": "ipm_osm", "type_source": "ipm_osm", "role_source": "ipm_osm", "status_source": "ipm_osm", "coord_source": "ipm_osm", "capacity_mw_ipm": "0.26", "type_ipm": "PLTS", "role_ipm": "Utility", "status_norm": "OPERATIONAL", "action_norm": "", "is_placeholder": false}}, {"type": "Feature", "geometry": {"type": "Point", "coordinates": [119.9620628, -8.8188254]}, "properties": {"id": "GEN-NTT-0025", "name": "PLTS Nangabere", "osm_name": "PLTS Nangabere", "type": "PLTS", "capacity_mw": "0.27", "province": "Nusa Tenggara Timur", "system": "NTT", "status": "existing", "operator": "", "method": "photovoltaic", "osm_id": "way/1322035340", "osm_source": "solar", "review_flag": "", "source_id": "OSM-overpass", "capacity_unit": "MWp", "role": "Utility", "roleDescription": "Memasok listrik ke sistem kelistrikan publik.", "roleConfidence": "", "roleReason": "", "match_tier": "UNMATCHED_IPM", "match_score": "0.10", "match_reason": "tidak ada RUPTL row yang cocok", "name_source": "ipm_osm", "capacity_mw_source": "ipm_osm", "type_source": "ipm_osm", "role_source": "ipm_osm", "status_source": "ipm_osm", "coord_source": "ipm_osm", "capacity_mw_ipm": "0.27", "type_ipm": "PLTS", "role_ipm": "Utility", "status_norm": "OPERATIONAL", "action_norm": "", "is_placeholder": false}}, {"type": "Feature", "geometry": {"type": "Point", "coordinates": [120.8043655, -8.5194977]}, "properties": {"id": "GEN-NTT-0026", "name": "PLTS Golo Munde", "osm_name": "PLTS Golo Munde", "type": "PLTS", "capacity_mw": "0.2", "province": "Nusa Tenggara Timur", "system": "NTT", "status": "existing", "operator": "", "method": "photovoltaic", "osm_id": "way/1322035341", "osm_source": "solar", "review_flag": "", "source_id": "OSM-overpass", "capacity_unit": "MWp", "role": "Utility", "roleDescription": "Memasok listrik ke sistem kelistrikan publik.", "roleConfidence": "", "roleReason": "", "match_tier": "UNMATCHED_IPM", "match_score": "0.10", "match_reason": "tidak ada RUPTL row yang cocok", "name_source": "ipm_osm", "capacity_mw_source": "ipm_osm", "type_source": "ipm_osm", "role_source": "ipm_osm", "status_source": "ipm_osm", "coord_source": "ipm_osm", "capacity_mw_ipm": "0.2", "type_ipm": "PLTS", "role_ipm": "Utility", "status_norm": "OPERATIONAL", "action_norm": "", "is_placeholder": false}}, {"type": "Feature", "geometry": {"type": "Point", "coordinates": [120.3015548, -8.8784434]}, "properties": {"id": "GEN-NTT-0027", "name": "PLTS Nuca Molas", "osm_name": "PLTS Nuca Molas", "type": "PLTS", "capacity_mw": "0.38", "province": "Nusa Tenggara Timur", "system": "NTT", "status": "existing", "operator": "", "method": "photovoltaic", "osm_id": "way/1322035344", "osm_source": "solar", "review_flag": "", "source_id": "OSM-overpass", "capacity_unit": "MWp", "role": "Utility", "roleDescription": "Memasok listrik ke sistem kelistrikan publik.", "roleConfidence": "", "roleReason": "", "match_tier": "UNMATCHED_IPM", "match_score": "0.10", "match_reason": "tidak ada RUPTL row yang cocok", "name_source": "ipm_osm", "capacity_mw_source": "ipm_osm", "type_source": "ipm_osm", "role_source": "ipm_osm", "status_source": "ipm_osm", "coord_source": "ipm_osm", "capacity_mw_ipm": "0.38", "type_ipm": "PLTS", "role_ipm": "Utility", "status_norm": "OPERATIONAL", "action_norm": "", "is_placeholder": false}}, {"type": "Feature", "geometry": {"type": "Point", "coordinates": [120.2754246, -8.4502505]}, "properties": {"id": "GEN-NTT-0028", "name": "PLTS Wontong", "osm_name": "PLTS Wontong", "type": "PLTS", "capacity_mw": "0.32", "province": "Nusa Tenggara Timur", "system": "NTT", "status": "existing", "operator": "", "method": "photovoltaic", "osm_id": "way/1322035352", "osm_source": "solar", "review_flag": "", "source_id": "OSM-overpass", "capacity_unit": "MWp", "role": "Utility", "roleDescription": "Memasok listrik ke sistem kelistrikan publik.", "roleConfidence": "", "roleReason": "", "match_tier": "UNMATCHED_IPM", "match_score": "0.10", "match_reason": "tidak ada RUPTL row yang cocok", "name_source": "ipm_osm", "capacity_mw_source": "ipm_osm", "type_source": "ipm_osm", "role_source": "ipm_osm", "status_source": "ipm_osm", "coord_source": "ipm_osm", "capacity_mw_ipm": "0.32", "type_ipm": "PLTS", "role_ipm": "Utility", "status_norm": "OPERATIONAL", "action_norm": "", "is_placeholder": false}}, {"type": "Feature", "geometry": {"type": "Point", "coordinates": [119.7452233, -8.5258627]}, "properties": {"id": "GEN-NTT-0029", "name": "PLTS Mesa", "osm_name": "PLTS Mesa", "type": "PLTS", "capacity_mw": "0.53", "province": "Nusa Tenggara Timur", "system": "NTT", "status": "existing", "operator": "", "method": "photovoltaic", "osm_id": "way/1322035355", "osm_source": "solar", "review_flag": "", "source_id": "OSM-overpass", "capacity_unit": "MWp", "role": "Utility", "roleDescription": "Memasok listrik ke sistem kelistrikan publik.", "roleConfidence": "", "roleReason": "", "match_tier": "UNMATCHED_IPM", "match_score": "0.10", "match_reason": "tidak ada RUPTL row yang cocok", "name_source": "ipm_osm", "capacity_mw_source": "ipm_osm", "type_source": "ipm_osm", "role_source": "ipm_osm", "status_source": "ipm_osm", "coord_source": "ipm_osm", "capacity_mw_ipm": "0.53", "type_ipm": "PLTS", "role_ipm": "Utility", "status_norm": "OPERATIONAL", "action_norm": "", "is_placeholder": false}}, {"type": "Feature", "geometry": {"type": "Point", "coordinates": [119.7126574, -8.5719699]}, "properties": {"id": "GEN-NTT-0030", "name": "PLTS Papagarang", "osm_name": "PLTS Papagarang", "type": "PLTS", "capacity_mw": "0.38", "province": "Nusa Tenggara Timur", "system": "NTT", "status": "existing", "operator": "", "method": "photovoltaic", "osm_id": "way/1322035356", "osm_source": "solar", "review_flag": "", "source_id": "OSM-overpass", "capacity_unit": "MWp", "role": "Utility", "roleDescription": "Memasok listrik ke sistem kelistrikan publik.", "roleConfidence": "", "roleReason": "", "match_tier": "UNMATCHED_IPM", "match_score": "0.10", "match_reason": "tidak ada RUPTL row yang cocok", "name_source": "ipm_osm", "capacity_mw_source": "ipm_osm", "type_source": "ipm_osm", "role_source": "ipm_osm", "status_source": "ipm_osm", "coord_source": "ipm_osm", "capacity_mw_ipm": "0.38", "type_ipm": "PLTS", "role_ipm": "Utility", "status_norm": "OPERATIONAL", "action_norm": "", "is_placeholder": false}}, {"type": "Feature", "geometry": {"type": "Point", "coordinates": [120.1489754, -8.3476364]}, "properties": {"id": "GEN-NTT-0031", "name": "PLTS Longos", "osm_name": "PLTS Longos", "type": "PLTS", "capacity_mw": "0.15", "province": "Nusa Tenggara Timur", "system": "NTT", "status": "existing", "operator": "", "method": "photovoltaic", "osm_id": "way/1322035357", "osm_source": "solar", "review_flag": "", "source_id": "OSM-overpass", "capacity_unit": "MWp", "role": "Community", "roleDescription": "Memasok listrik untuk komunitas lokal, desa terpencil, atau pulau kecil.", "roleConfidence": "High", "roleReason": "Sistem elektrifikasi pulau kecil", "match_tier": "UNMATCHED_IPM", "match_score": "0.10", "match_reason": "tidak ada RUPTL row yang cocok", "name_source": "ipm_osm", "capacity_mw_source": "ipm_osm", "type_source": "ipm_osm", "role_source": "ipm_osm", "status_source": "ipm_osm", "coord_source": "ipm_osm", "capacity_mw_ipm": "0.15", "type_ipm": "PLTS", "role_ipm": "Community", "status_norm": "OPERATIONAL", "action_norm": "", "is_placeholder": false}}, {"type": "Feature", "geometry": {"type": "Point", "coordinates": [124.2797486, -8.4714722]}, "properties": {"id": "GEN-NTT-0032", "name": "PLTS Treweng", "osm_name": "PLTS Treweng", "type": "PLTS", "capacity_mw": "0.11", "province": "Nusa Tenggara Timur", "system": "NTT", "status": "existing", "operator": "PT PLN", "method": "photovoltaic", "osm_id": "way/1371199601", "osm_source": "solar", "review_flag": "", "source_id": "OSM-overpass", "capacity_unit": "MWp", "role": "Community", "roleDescription": "Memasok listrik untuk komunitas lokal, desa terpencil, atau pulau kecil.", "roleConfidence": "High", "roleReason": "Sistem elektrifikasi pulau kecil", "match_tier": "UNMATCHED_IPM", "match_score": "0.10", "match_reason": "tidak ada RUPTL row yang cocok", "name_source": "ipm_osm", "capacity_mw_source": "ipm_osm", "type_source": "ipm_osm", "role_source": "ipm_osm", "operator_source": "ipm_osm", "status_source": "ipm_osm", "coord_source": "ipm_osm", "capacity_mw_ipm": "0.11", "type_ipm": "PLTS", "role_ipm": "Community", "status_norm": "OPERATIONAL", "action_norm": "", "is_placeholder": false}}, {"type": "Feature", "geometry": {"type": "Point", "coordinates": [124.4952014, -8.4058365]}, "properties": {"id": "GEN-NTT-0033", "name": "PLTS Tribur", "osm_name": "PLTS Tribur", "type": "PLTS", "capacity_mw": "0.25", "province": "Nusa Tenggara Timur", "system": "NTT", "status": "existing", "operator": "PT PLN", "method": "photovoltaic", "osm_id": "way/1371199620", "osm_source": "solar", "review_flag": "", "source_id": "OSM-overpass", "capacity_unit": "MWp", "role": "Utility", "roleDescription": "Memasok listrik ke sistem kelistrikan publik.", "roleConfidence": "", "roleReason": "", "match_tier": "UNMATCHED_IPM", "match_score": "0.10", "match_reason": "tidak ada RUPTL row yang cocok", "name_source": "ipm_osm", "capacity_mw_source": "ipm_osm", "type_source": "ipm_osm", "role_source": "ipm_osm", "operator_source": "ipm_osm", "status_source": "ipm_osm", "coord_source": "ipm_osm", "capacity_mw_ipm": "0.25", "type_ipm": "PLTS", "role_ipm": "Utility", "status_norm": "OPERATIONAL", "action_norm": "", "is_placeholder": false}}, {"type": "Feature", "geometry": {"type": "Point", "coordinates": [124.3749957, -8.2097636]}, "properties": {"id": "GEN-NTT-0034", "name": "PLTS Ternate", "osm_name": "PLTS Ternate", "type": "PLTS", "capacity_mw": "0.28", "province": "Nusa Tenggara Timur", "system": "NTT", "status": "existing", "operator": "PT PLN", "method": "photovoltaic", "osm_id": "way/1371199637", "osm_source": "solar", "review_flag": "", "source_id": "OSM-overpass", "capacity_unit": "MWp", "role": "Utility", "roleDescription": "Memasok listrik ke sistem kelistrikan publik.", "roleConfidence": "", "roleReason": "", "match_tier": "UNMATCHED_IPM", "match_score": "0.10", "match_reason": "tidak ada RUPTL row yang cocok", "name_source": "ipm_osm", "capacity_mw_source": "ipm_osm", "type_source": "ipm_osm", "role_source": "ipm_osm", "operator_source": "ipm_osm", "status_source": "ipm_osm", "coord_source": "ipm_osm", "capacity_mw_ipm": "0.28", "type_ipm": "PLTS", "role_ipm": "Utility", "status_norm": "OPERATIONAL", "action_norm": "", "is_placeholder": false}}, {"type": "Feature", "geometry": {"type": "Point", "coordinates": [124.2405934, -8.37253]}, "properties": {"id": "GEN-NTT-0035", "name": "PLTS Nule", "osm_name": "PLTS Nule", "type": "PLTS", "capacity_mw": "0.25", "province": "Nusa Tenggara Timur", "system": "NTT", "status": "existing", "operator": "PT PLN", "method": "photovoltaic", "osm_id": "way/1371199648", "osm_source": "solar", "review_flag": "", "source_id": "OSM-overpass", "capacity_unit": "MWp", "role": "Utility", "roleDescription": "Memasok listrik ke sistem kelistrikan publik.", "roleConfidence": "", "roleReason": "", "match_tier": "UNMATCHED_IPM", "match_score": "0.10", "match_reason": "tidak ada RUPTL row yang cocok", "name_source": "ipm_osm", "capacity_mw_source": "ipm_osm", "type_source": "ipm_osm", "role_source": "ipm_osm", "operator_source": "ipm_osm", "status_source": "ipm_osm", "coord_source": "ipm_osm", "capacity_mw_ipm": "0.25", "type_ipm": "PLTS", "role_ipm": "Utility", "status_norm": "OPERATIONAL", "action_norm": "", "is_placeholder": false}}, {"type": "Feature", "geometry": {"type": "Point", "coordinates": [121.5944621, -10.6179725]}, "properties": {"id": "GEN-NTT-0036", "name": "PLTS Raijua", "osm_name": "PLTS Raijua", "type": "PLTS", "capacity_mw": "0.15", "province": "Nusa Tenggara Timur", "system": "NTT", "status": "existing", "operator": "PT PLN", "method": "photovoltaic", "osm_id": "way/1371199703", "osm_source": "solar", "review_flag": "", "source_id": "OSM-overpass", "capacity_unit": "MWp", "role": "Community", "roleDescription": "Memasok listrik untuk komunitas lokal, desa terpencil, atau pulau kecil.", "roleConfidence": "High", "roleReason": "Sistem elektrifikasi pulau kecil", "match_tier": "UNMATCHED_IPM", "match_score": "0.10", "match_reason": "tidak ada RUPTL row yang cocok", "name_source": "ipm_osm", "capacity_mw_source": "ipm_osm", "type_source": "ipm_osm", "role_source": "ipm_osm", "operator_source": "ipm_osm", "status_source": "ipm_osm", "coord_source": "ipm_osm", "capacity_mw_ipm": "0.15", "type_ipm": "PLTS", "role_ipm": "Community", "status_norm": "OPERATIONAL", "action_norm": "", "is_placeholder": false}}, {"type": "Feature", "geometry": {"type": "Point", "coordinates": [124.3214553, -8.2980884]}, "properties": {"id": "GEN-NTT-0037", "name": "PLTS Pura", "osm_name": "PLTS Pura", "type": "PLTS", "capacity_mw": "0.175", "province": "Nusa Tenggara Timur", "system": "NTT", "status": "existing", "operator": "PT PLN", "method": "photovoltaic", "osm_id": "way/1371199721", "osm_source": "solar", "review_flag": "", "source_id": "OSM-overpass", "capacity_unit": "MWp", "role": "Community", "roleDescription": "Memasok listrik untuk komunitas lokal, desa terpencil, atau pulau kecil.", "roleConfidence": "High", "roleReason": "Sistem elektrifikasi pulau kecil", "match_tier": "UNMATCHED_IPM", "match_score": "0.10", "match_reason": "tidak ada RUPTL row yang cocok", "name_source": "ipm_osm", "capacity_mw_source": "ipm_osm", "type_source": "ipm_osm", "role_source": "ipm_osm", "operator_source": "ipm_osm", "status_source": "ipm_osm", "coord_source": "ipm_osm", "capacity_mw_ipm": "0.175", "type_ipm": "PLTS", "role_ipm": "Community", "status_norm": "OPERATIONAL", "action_norm": "", "is_placeholder": false}}, {"type": "Feature", "geometry": {"type": "Point", "coordinates": [124.8674083, -9.0847345]}, "properties": {"id": "GEN-NTT-0038", "name": "PLTS Kabuna", "osm_name": "", "type": "PLTS", "capacity_mw": "0.00286", "province": "Nusa Tenggara Timur", "system": "NTT", "status": "existing", "operator": "", "method": "photovoltaic", "osm_id": "way/1373003292", "osm_source": "solar", "review_flag": "", "source_id": "OSM-overpass", "capacity_unit": "MWp", "role": "Community", "roleDescription": "Memasok listrik untuk komunitas lokal, desa terpencil, atau pulau kecil.", "roleConfidence": "High", "roleReason": "Sistem elektrifikasi desa", "match_tier": "UNMATCHED_IPM", "match_score": "0.10", "match_reason": "tidak ada RUPTL row yang cocok", "name_source": "ipm_osm", "capacity_mw_source": "ipm_osm", "type_source": "ipm_osm", "role_source": "ipm_osm", "status_source": "ipm_osm", "coord_source": "ipm_osm", "capacity_mw_ipm": "0.00286", "type_ipm": "PLTS", "role_ipm": "Community", "status_norm": "OPERATIONAL", "action_norm": "", "is_placeholder": false}}, {"type": "Feature", "geometry": {"type": "Point", "coordinates": [122.3932506, -8.4880505]}, "properties": {"id": "GEN-NTT-0039", "name": "PLTS Koja Besar", "osm_name": "PLTS Koja besar", "type": "PLTS", "capacity_mw": "0.150", "province": "Nusa Tenggara Timur", "system": "NTT", "status": "existing", "operator": "", "method": "photovoltaic", "osm_id": "way/1381155744", "osm_source": "solar", "review_flag": "NO_CAPACITY", "source_id": "OSM-overpass", "capacity_unit": "MWp", "role": "Community", "roleDescription": "Memasok listrik untuk komunitas lokal, desa terpencil, atau pulau kecil.", "roleConfidence": "High", "roleReason": "Sistem elektrifikasi pulau kecil", "match_tier": "UNMATCHED_IPM", "match_score": "0.10", "match_reason": "tidak ada RUPTL row yang cocok", "name_source": "ipm_osm", "capacity_mw_source": "ipm_osm", "type_source": "ipm_osm", "role_source": "ipm_osm", "status_source": "ipm_osm", "coord_source": "ipm_osm", "capacity_mw_ipm": "0.150", "type_ipm": "PLTS", "role_ipm": "Community", "status_norm": "OPERATIONAL", "action_norm": "", "is_placeholder": false}}, {"type": "Feature", "geometry": {"type": "Point", "coordinates": [122.4435984, -8.4531407]}, "properties": {"id": "GEN-NTT-0040", "name": "PLTS Parumaan", "osm_name": "PLTS Parumaan", "type": "PLTS", "capacity_mw": "0.420", "province": "Nusa Tenggara Timur", "system": "NTT", "status": "existing", "operator": "", "method": "photovoltaic", "osm_id": "way/1381160881", "osm_source": "solar", "review_flag": "NO_CAPACITY", "source_id": "OSM-overpass", "capacity_unit": "MWp", "role": "Utility", "roleDescription": "Memasok listrik ke sistem kelistrikan publik.", "roleConfidence": "", "roleReason": "", "match_tier": "UNMATCHED_IPM", "match_score": "0.10", "match_reason": "tidak ada RUPTL row yang cocok", "name_source": "ipm_osm", "capacity_mw_source": "ipm_osm", "type_source": "ipm_osm", "role_source": "ipm_osm", "status_source": "ipm_osm", "coord_source": "ipm_osm", "capacity_mw_ipm": "0.420", "type_ipm": "PLTS", "role_ipm": "Utility", "status_norm": "OPERATIONAL", "action_norm": "", "is_placeholder": false}}, {"type": "Feature", "geometry": {"type": "Point", "coordinates": [124.3740605, -8.1821066]}, "properties": {"id": "GEN-NTT-0041", "name": "PLTS Desa Pulau Buaya", "osm_name": "PLTS DESA PULAU BUAYA", "type": "PLTS", "capacity_mw": "0.250", "province": "Nusa Tenggara Timur", "system": "NTT", "status": "existing", "operator": "", "method": "photovoltaic", "osm_id": "way/1469884017", "osm_source": "solar", "review_flag": "NO_CAPACITY", "source_id": "OSM-overpass", "capacity_unit": "MWp", "role": "Community", "roleDescription": "Memasok listrik untuk komunitas lokal, desa terpencil, atau pulau kecil.", "roleConfidence": "High", "roleReason": "Sistem elektrifikasi desa", "match_tier": "UNMATCHED_IPM", "match_score": "0.10", "match_reason": "tidak ada RUPTL row yang cocok", "name_source": "ipm_osm", "capacity_mw_source": "ipm_osm", "type_source": "ipm_osm", "role_source": "ipm_osm", "status_source": "ipm_osm", "coord_source": "ipm_osm", "capacity_mw_ipm": "0.250", "type_ipm": "PLTS", "role_ipm": "Community", "status_norm": "OPERATIONAL", "action_norm": "", "is_placeholder": false}}, {"type": "Feature", "geometry": {"type": "Point", "coordinates": [120.6347, -8.5638]}, "properties": {"id": "GEN-NTT-0042", "name": "PLTMH Wae Nampe", "osm_name": "", "type": "PLTMH", "capacity_mw": "0.05", "province": "Nusa Tenggara Timur", "system": "NTT", "status": "existing", "operator": "", "method": "", "osm_id": "", "osm_source": "", "review_flag": "MANUAL_ADD_v1.0", "source_id": "manual_revision_v1.0", "capacity_unit": "MW", "role": "Community", "roleDescription": "Memasok listrik untuk komunitas lokal, desa terpencil, atau pulau kecil.", "roleConfidence": "High", "roleReason": "Sistem elektrifikasi desa", "match_tier": "UNMATCHED_IPM", "match_score": "0.10", "match_reason": "tidak ada RUPTL row yang cocok", "name_source": "ipm_osm", "capacity_mw_source": "ipm_osm", "type_source": "ipm_osm", "role_source": "ipm_osm", "status_source": "ipm_osm", "coord_source": "ipm_osm", "capacity_mw_ipm": "0.05", "type_ipm": "PLTMH", "role_ipm": "Community", "status_norm": "OPERATIONAL", "action_norm": "", "is_placeholder": false}}, {"type": "Feature", "geometry": {"type": "Point", "coordinates": [124.740098, -8.285133]}, "properties": {"id": "RUPTL:RUPTL-NTT-P-0001", "name": "Alor", "type": "PLTMG", "capacity_mw": 7.0, "province": "Nusa Tenggara Timur", "system": "", "status": "Construction", "role": "", "operator": "", "match_tier": "UNMATCHED_RUPTL", "match_score": "0.10", "match_reason": "tidak ada IPM row yang cocok dalam thresholds", "ruptl_id": "RUPTL-NTT-P-0001", "coord_source": "ruptl_geocoded", "capacity_mw_ipm": "", "capacity_mw_ruptl": "7.0", "type_ipm": "", "type_ruptl": "PLTMG", "role_ipm": "", "role_ruptl": "", "name_source": "ruptl", "capacity_mw_source": "ruptl", "type_source": "ruptl", "role_source": "ruptl", "operator_source": "ruptl", "status_source": "ruptl", "has_capacity_conflict": "false", "has_type_conflict": "false", "has_role_conflict": "false", "has_location_conflict": "false", "ipm_id": "", "coord_confidence": "medium", "is_placeholder": false, "source_page": "1176", "source_table": "Tabel C12.11", "target_cod_year": "2025", "developer": "PLN", "action_norm": "NEW", "status_norm": "CONSTRUCTION", "target_cod_year_ruptl": ""}}, {"type": "Feature", "geometry": {"type": "Point", "coordinates": [124.740098, -8.285133]}, "properties": {"id": "RUPTL:RUPTL-NTT-P-0002", "name": "Alor 2", "type": "PLTMG", "capacity_mw": 10.0, "province": "Nusa Tenggara Timur", "system": "", "status": "Planned", "role": "", "operator": "", "match_tier": "UNMATCHED_RUPTL", "match_score": "0.10", "match_reason": "tidak ada IPM row yang cocok dalam thresholds", "ruptl_id": "RUPTL-NTT-P-0002", "coord_source": "ruptl_geocoded", "capacity_mw_ipm": "", "capacity_mw_ruptl": "10.0", "type_ipm": "", "type_ruptl": "PLTMG", "role_ipm": "", "role_ruptl": "", "name_source": "ruptl", "capacity_mw_source": "ruptl", "type_source": "ruptl", "role_source": "ruptl", "operator_source": "ruptl", "status_source": "ruptl", "has_capacity_conflict": "false", "has_type_conflict": "false", "has_role_conflict": "false", "has_location_conflict": "false", "ipm_id": "", "coord_confidence": "medium", "is_placeholder": false, "source_page": "1176", "source_table": "Tabel C12.11", "target_cod_year": "2030", "developer": "PLN SH", "action_norm": "NEW", "status_norm": "PLANNED", "target_cod_year_ruptl": ""}}, {"type": "Feature", "geometry": {"type": "Point", "coordinates": [120.263691, -9.652179]}, "properties": {"id": "RUPTL:RUPTL-NTT-P-0007", "name": "Waingapu", "type": "PLTMG", "capacity_mw": 10.0, "province": "Nusa Tenggara Timur", "system": "", "status": "Construction", "role": "", "operator": "", "match_tier": "UNMATCHED_RUPTL", "match_score": "0.10", "match_reason": "tidak ada IPM row yang cocok dalam thresholds", "ruptl_id": "RUPTL-NTT-P-0007", "coord_source": "ruptl_geocoded", "capacity_mw_ipm": "", "capacity_mw_ruptl": "10.0", "type_ipm": "", "type_ruptl": "PLTMG", "role_ipm": "", "role_ruptl": "", "name_source": "ruptl", "capacity_mw_source": "ruptl", "type_source": "ruptl", "role_source": "ruptl", "operator_source": "ruptl", "status_source": "ruptl", "has_capacity_conflict": "false", "has_type_conflict": "false", "has_role_conflict": "false", "has_location_conflict": "false", "ipm_id": "", "coord_confidence": "medium", "is_placeholder": false, "source_page": "1176", "source_table": "Tabel C12.11", "target_cod_year": "2025", "developer": "PLN", "action_norm": "NEW", "status_norm": "CONSTRUCTION", "target_cod_year_ruptl": ""}}, {"type": "Feature", "geometry": {"type": "Point", "coordinates": [124.740098, -8.285133]}, "properties": {"id": "RUPTL:RUPTL-NTT-P-0008", "name": "Alor (Kalabahi)", "type": "PLTS", "capacity_mw": 1.2, "province": "Nusa Tenggara Timur", "system": "", "status": "Planned", "role": "", "operator": "", "match_tier": "UNMATCHED_RUPTL", "match_score": "0.10", "match_reason": "tidak ada IPM row yang cocok dalam thresholds", "ruptl_id": "RUPTL-NTT-P-0008", "coord_source": "ruptl_geocoded", "capacity_mw_ipm": "", "capacity_mw_ruptl": "1.2", "type_ipm": "", "type_ruptl": "PLTS", "role_ipm": "", "role_ruptl": "", "name_source": "ruptl", "capacity_mw_source": "ruptl", "type_source": "ruptl", "role_source": "ruptl", "operator_source": "ruptl", "status_source": "ruptl", "has_capacity_conflict": "false", "has_type_conflict": "false", "has_role_conflict": "false", "has_location_conflict": "false", "ipm_id": "", "coord_confidence": "medium", "is_placeholder": false, "source_page": "1176", "source_table": "Tabel C12.11", "target_cod_year": "2026", "developer": "PLN", "action_norm": "NEW", "status_norm": "PLANNED", "target_cod_year_ruptl": ""}}, {"type": "Feature", "geometry": {"type": "Point", "coordinates": [120.3535, -8.693548]}, "properties": {"id": "RUPTL:RUPTL-NTT-P-0011", "name": "Lembata", "type": "PLTS", "capacity_mw": 3.0, "province": "Nusa Tenggara Timur", "system": "", "status": "Planned", "role": "", "operator": "", "match_tier": "UNMATCHED_RUPTL", "match_score": "0.10", "match_reason": "tidak ada IPM row yang cocok dalam thresholds", "ruptl_id": "RUPTL-NTT-P-0011", "coord_source": "ruptl_geocoded", "capacity_mw_ipm": "", "capacity_mw_ruptl": "3.0", "type_ipm": "", "type_ruptl": "PLTS", "role_ipm": "", "role_ruptl": "", "name_source": "ruptl", "capacity_mw_source": "ruptl", "type_source": "ruptl", "role_source": "ruptl", "operator_source": "ruptl", "status_source": "ruptl", "has_capacity_conflict": "false", "has_type_conflict": "false", "has_role_conflict": "false", "has_location_conflict": "false", "ipm_id": "", "coord_confidence": "medium", "is_placeholder": false, "source_page": "1176", "source_table": "Tabel C12.11", "target_cod_year": "2026", "developer": "PLN SH", "action_norm": "NEW", "status_norm": "PLANNED", "target_cod_year_ruptl": ""}}, {"type": "Feature", "geometry": {"type": "Point", "coordinates": [120.263691, -9.652179]}, "properties": {"id": "RUPTL:RUPTL-NTT-P-0018", "name": "Waingapu 2", "type": "PLTMG", "capacity_mw": 10.0, "province": "Nusa Tenggara Timur", "system": "", "status": "Committed", "role": "", "operator": "", "match_tier": "UNMATCHED_RUPTL", "match_score": "0.10", "match_reason": "tidak ada IPM row yang cocok dalam thresholds", "ruptl_id": "RUPTL-NTT-P-0018", "coord_source": "ruptl_geocoded", "capacity_mw_ipm": "", "capacity_mw_ruptl": "10.0", "type_ipm": "", "type_ruptl": "PLTMG", "role_ipm": "", "role_ruptl": "", "name_source": "ruptl", "capacity_mw_source": "ruptl", "type_source": "ruptl", "role_source": "ruptl", "operator_source": "ruptl", "status_source": "ruptl", "has_capacity_conflict": "false", "has_type_conflict": "false", "has_role_conflict": "false", "has_location_conflict": "false", "ipm_id": "", "coord_confidence": "medium", "is_placeholder": false, "source_page": "1177", "target_cod_year": "2026", "developer": "PLN SH", "action_norm": "NEW", "status_norm": "COMMITTED", "target_cod_year_ruptl": ""}}, {"type": "Feature", "geometry": {"type": "Point", "coordinates": [120.3535, -8.693548]}, "properties": {"id": "RUPTL:RUPTL-NTT-P-0019", "name": "Lembata", "type": "PLTS", "capacity_mw": 3.0, "province": "Nusa Tenggara Timur", "system": "", "status": "Planned", "role": "", "operator": "", "match_tier": "UNMATCHED_RUPTL", "match_score": "0.10", "match_reason": "tidak ada IPM row yang cocok dalam thresholds", "ruptl_id": "RUPTL-NTT-P-0019", "coord_source": "ruptl_geocoded", "capacity_mw_ipm": "", "capacity_mw_ruptl": "3.0", "type_ipm": "", "type_ruptl": "PLTS", "role_ipm": "", "role_ruptl": "", "name_source": "ruptl", "capacity_mw_source": "ruptl", "type_source": "ruptl", "role_source": "ruptl", "operator_source": "ruptl", "status_source": "ruptl", "has_capacity_conflict": "false", "has_type_conflict": "false", "has_role_conflict": "false", "has_location_conflict": "false", "ipm_id": "", "coord_confidence": "medium", "is_placeholder": false, "source_page": "1177", "target_cod_year": "2026", "developer": "PLN SH", "action_norm": "NEW", "status_norm": "PLANNED", "target_cod_year_ruptl": ""}}, {"type": "Feature", "geometry": {"type": "Point", "coordinates": [120.42315, -8.59832]}, "properties": {"id": "RUPTL:RUPTL-NTT-P-0023", "name": "Wae Lega - Ruteng", "type": "PLTM", "capacity_mw": 1.75, "province": "Nusa Tenggara Timur", "system": "", "status": "Construction", "role": "", "operator": "", "match_tier": "UNMATCHED_RUPTL", "match_score": "0.10", "match_reason": "tidak ada IPM row yang cocok dalam thresholds", "ruptl_id": "RUPTL-NTT-P-0023", "coord_source": "ruptl_geocoded", "capacity_mw_ipm": "", "capacity_mw_ruptl": "1.75", "type_ipm": "", "type_ruptl": "PLTM", "role_ipm": "", "role_ruptl": "", "name_source": "ruptl", "capacity_mw_source": "ruptl", "type_source": "ruptl", "role_source": "ruptl", "operator_source": "ruptl", "status_source": "ruptl", "has_capacity_conflict": "false", "has_type_conflict": "false", "has_role_conflict": "false", "has_location_conflict": "false", "ipm_id": "", "coord_confidence": "medium", "is_placeholder": false, "source_page": "1177", "target_cod_year": "2025", "developer": "IPP", "action_norm": "NEW", "status_norm": "CONSTRUCTION", "target_cod_year_ruptl": ""}}, {"type": "Feature", "geometry": {"type": "Point", "coordinates": [121.76608, -8.792978]}, "properties": {"id": "RUPTL:RUPTL-NTT-P-0027", "name": "Sokoria (FTP2)", "type": "PLTP", "capacity_mw": 11.0, "province": "Nusa Tenggara Timur", "system": "", "status": "Construction", "role": "", "operator": "", "match_tier": "UNMATCHED_RUPTL", "match_score": "0.10", "match_reason": "tidak ada IPM row yang cocok dalam thresholds", "ruptl_id": "RUPTL-NTT-P-0027", "coord_source": "ruptl_geocoded", "capacity_mw_ipm": "", "capacity_mw_ruptl": "11.0", "type_ipm": "", "type_ruptl": "PLTP", "role_ipm": "", "role_ruptl": "", "name_source": "ruptl", "capacity_mw_source": "ruptl", "type_source": "ruptl", "role_source": "ruptl", "operator_source": "ruptl", "status_source": "ruptl", "has_capacity_conflict": "false", "has_type_conflict": "false", "has_role_conflict": "false", "has_location_conflict": "false", "ipm_id": "", "coord_confidence": "high", "is_placeholder": false, "source_page": "1177", "target_cod_year": "2028", "developer": "IPP", "action_norm": "NEW", "status_norm": "CONSTRUCTION", "target_cod_year_ruptl": ""}}, {"type": "Feature", "geometry": {"type": "Point", "coordinates": [124.740098, -8.285133]}, "properties": {"id": "RUPTL:RUPTL-NTT-P-0033", "name": "Alor", "type": "PLTU", "capacity_mw": 3.0, "province": "Nusa Tenggara Timur", "system": "", "status": "Construction", "role": "", "operator": "", "match_tier": "UNMATCHED_RUPTL", "match_score": "0.10", "match_reason": "tidak ada IPM row yang cocok dalam thresholds", "ruptl_id": "RUPTL-NTT-P-0033", "coord_source": "ruptl_geocoded", "capacity_mw_ipm": "", "capacity_mw_ruptl": "3.0", "type_ipm": "", "type_ruptl": "PLTU", "role_ipm": "", "role_ruptl": "", "name_source": "ruptl", "capacity_mw_source": "ruptl", "type_source": "ruptl", "role_source": "ruptl", "operator_source": "ruptl", "status_source": "ruptl", "has_capacity_conflict": "false", "has_type_conflict": "false", "has_role_conflict": "false", "has_location_conflict": "false", "ipm_id": "", "coord_confidence": "medium", "is_placeholder": false, "source_page": "1177", "target_cod_year": "2032", "developer": "PLN", "action_norm": "NEW", "status_norm": "CONSTRUCTION", "target_cod_year_ruptl": ""}}, {"type": "Feature", "geometry": {"type": "Point", "coordinates": [124.740098, -8.285133]}, "properties": {"id": "RUPTL:RUPTL-NTT-P-0034", "name": "Alor", "type": "PLTU", "capacity_mw": 3.0, "province": "Nusa Tenggara Timur", "system": "", "status": "Construction", "role": "", "operator": "", "match_tier": "UNMATCHED_RUPTL", "match_score": "0.10", "match_reason": "tidak ada IPM row yang cocok dalam thresholds", "ruptl_id": "RUPTL-NTT-P-0034", "coord_source": "ruptl_geocoded", "capacity_mw_ipm": "", "capacity_mw_ruptl": "3.0", "type_ipm": "", "type_ruptl": "PLTU", "role_ipm": "", "role_ruptl": "", "name_source": "ruptl", "capacity_mw_source": "ruptl", "type_source": "ruptl", "role_source": "ruptl", "operator_source": "ruptl", "status_source": "ruptl", "has_capacity_conflict": "false", "has_type_conflict": "false", "has_role_conflict": "false", "has_location_conflict": "false", "ipm_id": "", "coord_confidence": "medium", "is_placeholder": false, "source_page": "1177", "target_cod_year": "2032", "developer": "PLN", "action_norm": "NEW", "status_norm": "CONSTRUCTION", "target_cod_year_ruptl": ""}}, {"type": "Feature", "geometry": {"type": "Point", "coordinates": [121.038274, -8.799778]}, "properties": {"id": "RUPTL:RUPTL-NTT-P-0036", "name": "Mataloko (FTP2)", "type": "PLTP", "capacity_mw": 10.0, "province": "Nusa Tenggara Timur", "system": "", "status": "Planned", "role": "", "operator": "", "match_tier": "UNMATCHED_RUPTL", "match_score": "0.10", "match_reason": "tidak ada IPM row yang cocok dalam thresholds", "ruptl_id": "RUPTL-NTT-P-0036", "coord_source": "ruptl_geocoded", "capacity_mw_ipm": "", "capacity_mw_ruptl": "10.0", "type_ipm": "", "type_ruptl": "PLTP", "role_ipm": "", "role_ruptl": "", "name_source": "ruptl", "capacity_mw_source": "ruptl", "type_source": "ruptl", "role_source": "ruptl", "operator_source": "ruptl", "status_source": "ruptl", "has_capacity_conflict": "false", "has_type_conflict": "false", "has_role_conflict": "false", "has_location_conflict": "false", "ipm_id": "", "coord_confidence": "medium", "is_placeholder": false, "source_page": "1177", "target_cod_year": "2031", "developer": "PLN SH", "action_norm": "NEW", "status_norm": "PLANNED", "target_cod_year_ruptl": ""}}, {"type": "Feature", "geometry": {"type": "Point", "coordinates": [121.76608, -8.792978]}, "properties": {"id": "RUPTL:RUPTL-NTT-P-0038", "name": "Sokoria (FTP2)", "type": "PLTP", "capacity_mw": 11.0, "province": "Nusa Tenggara Timur", "system": "", "status": "Construction", "role": "", "operator": "", "match_tier": "UNMATCHED_RUPTL", "match_score": "0.10", "match_reason": "tidak ada IPM row yang cocok dalam thresholds", "ruptl_id": "RUPTL-NTT-P-0038", "coord_source": "ruptl_geocoded", "capacity_mw_ipm": "", "capacity_mw_ruptl": "11.0", "type_ipm": "", "type_ruptl": "PLTP", "role_ipm": "", "role_ruptl": "", "name_source": "ruptl", "capacity_mw_source": "ruptl", "type_source": "ruptl", "role_source": "ruptl", "operator_source": "ruptl", "status_source": "ruptl", "has_capacity_conflict": "false", "has_type_conflict": "false", "has_role_conflict": "false", "has_location_conflict": "false", "ipm_id": "", "coord_confidence": "high", "is_placeholder": false, "source_page": "1177", "target_cod_year": "2029", "developer": "IPP", "action_norm": "NEW", "status_norm": "CONSTRUCTION", "target_cod_year_ruptl": ""}}, {"type": "Feature", "geometry": {"type": "Point", "coordinates": [120.435514, -8.726052]}, "properties": {"id": "RUPTL:RUPTL-NTT-P-0040", "name": "Ulumbu 5", "type": "PLTP", "capacity_mw": 20.0, "province": "Nusa Tenggara Timur", "system": "", "status": "Planned", "role": "", "operator": "", "match_tier": "UNMATCHED_RUPTL", "match_score": "0.10", "match_reason": "tidak ada IPM row yang cocok dalam thresholds", "ruptl_id": "RUPTL-NTT-P-0040", "coord_source": "ruptl_geocoded", "capacity_mw_ipm": "", "capacity_mw_ruptl": "20.0", "type_ipm": "", "type_ruptl": "PLTP", "role_ipm": "", "role_ruptl": "", "name_source": "ruptl", "capacity_mw_source": "ruptl", "type_source": "ruptl", "role_source": "ruptl", "operator_source": "ruptl", "status_source": "ruptl", "has_capacity_conflict": "false", "has_type_conflict": "false", "has_role_conflict": "false", "has_location_conflict": "false", "ipm_id": "", "coord_confidence": "high", "is_placeholder": false, "source_page": "1177", "target_cod_year": "2030", "developer": "PLN SH", "action_norm": "NEW", "status_norm": "PLANNED", "target_cod_year_ruptl": ""}}, {"type": "Feature", "geometry": {"type": "Point", "coordinates": [121.038274, -8.799778]}, "properties": {"id": "RUPTL:RUPTL-NTT-P-0041", "name": "Mataloko (FTP2)", "type": "PLTP", "capacity_mw": 10.0, "province": "Nusa Tenggara Timur", "system": "", "status": "Planned", "role": "", "operator": "", "match_tier": "UNMATCHED_RUPTL", "match_score": "0.10", "match_reason": "tidak ada IPM row yang cocok dalam thresholds", "ruptl_id": "RUPTL-NTT-P-0041", "coord_source": "ruptl_geocoded", "capacity_mw_ipm": "", "capacity_mw_ruptl": "10.0", "type_ipm": "", "type_ruptl": "PLTP", "role_ipm": "", "role_ruptl": "", "name_source": "ruptl", "capacity_mw_source": "ruptl", "type_source": "ruptl", "role_source": "ruptl", "operator_source": "ruptl", "status_source": "ruptl", "has_capacity_conflict": "false", "has_type_conflict": "false", "has_role_conflict": "false", "has_location_conflict": "false", "ipm_id": "", "coord_confidence": "medium", "is_placeholder": false, "source_page": "1177", "target_cod_year": "2031", "developer": "PLN SH", "action_norm": "NEW", "status_norm": "PLANNED", "target_cod_year_ruptl": ""}}, {"type": "Feature", "geometry": {"type": "Point", "coordinates": [124.865583, -9.087262]}, "properties": {"id": "RUPTL:RUPTL-NTT-P-0044", "name": "Atambua", "type": "PLTU", "capacity_mw": 10.0, "province": "Nusa Tenggara Timur", "system": "", "status": "Construction", "role": "", "operator": "", "match_tier": "UNMATCHED_RUPTL", "match_score": "0.10", "match_reason": "tidak ada IPM row yang cocok dalam thresholds", "ruptl_id": "RUPTL-NTT-P-0044", "coord_source": "ruptl_geocoded", "capacity_mw_ipm": "", "capacity_mw_ruptl": "10.0", "type_ipm": "", "type_ruptl": "PLTU", "role_ipm": "", "role_ruptl": "", "name_source": "ruptl", "capacity_mw_source": "ruptl", "type_source": "ruptl", "role_source": "ruptl", "operator_source": "ruptl", "status_source": "ruptl", "has_capacity_conflict": "false", "has_type_conflict": "false", "has_role_conflict": "false", "has_location_conflict": "false", "ipm_id": "", "coord_confidence": "medium", "is_placeholder": false, "source_page": "1177", "target_cod_year": "2030", "developer": "PLN", "action_norm": "NEW", "status_norm": "CONSTRUCTION", "target_cod_year_ruptl": ""}}, {"type": "Feature", "geometry": {"type": "Point", "coordinates": [120.435514, -8.726052]}, "properties": {"id": "RUPTL:RUPTL-NTT-P-0045", "name": "Ulumbu 6", "type": "PLTP", "capacity_mw": 20.0, "province": "Nusa Tenggara Timur", "system": "", "status": "Planned", "role": "", "operator": "", "match_tier": "UNMATCHED_RUPTL", "match_score": "0.10", "match_reason": "tidak ada IPM row yang cocok dalam thresholds", "ruptl_id": "RUPTL-NTT-P-0045", "coord_source": "ruptl_geocoded", "capacity_mw_ipm": "", "capacity_mw_ruptl": "20.0", "type_ipm": "", "type_ruptl": "PLTP", "role_ipm": "", "role_ruptl": "", "name_source": "ruptl", "capacity_mw_source": "ruptl", "type_source": "ruptl", "role_source": "ruptl", "operator_source": "ruptl", "status_source": "ruptl", "has_capacity_conflict": "false", "has_type_conflict": "false", "has_role_conflict": "false", "has_location_conflict": "false", "ipm_id": "", "coord_confidence": "high", "is_placeholder": false, "source_page": "1177", "target_cod_year": "2032", "developer": "PLN SH", "action_norm": "NEW", "status_norm": "PLANNED", "target_cod_year_ruptl": ""}}, {"type": "Feature", "geometry": {"type": "Point", "coordinates": [124.127978, -8.499553]}, "properties": {"id": "RUPTL:RUPTL-NTT-P-0055", "name": "Gunung Sirung*", "type": "PLTP", "capacity_mw": 5.0, "province": "Nusa Tenggara Timur", "system": "", "status": "Planned", "role": "", "operator": "", "match_tier": "UNMATCHED_RUPTL", "match_score": "0.10", "match_reason": "tidak ada IPM row yang cocok dalam thresholds", "ruptl_id": "RUPTL-NTT-P-0055", "coord_source": "ruptl_geocoded", "capacity_mw_ipm": "", "capacity_mw_ruptl": "5.0", "type_ipm": "", "type_ruptl": "PLTP", "role_ipm": "", "role_ruptl": "", "name_source": "ruptl", "capacity_mw_source": "ruptl", "type_source": "ruptl", "role_source": "ruptl", "operator_source": "ruptl", "status_source": "ruptl", "has_capacity_conflict": "false", "has_type_conflict": "false", "has_role_conflict": "false", "has_location_conflict": "false", "ipm_id": "", "coord_confidence": "medium", "is_placeholder": false, "source_page": "1178", "target_cod_year": "2033", "developer": "PLN SH", "action_norm": "NEW", "status_norm": "PLANNED", "target_cod_year_ruptl": ""}}, {"type": "Feature", "geometry": {"type": "Point", "coordinates": [119.944263, -8.461285]}, "properties": {"id": "RUPTL:RUPTL-NTT-P-0059", "name": "Rangko 2", "type": "PLTMG", "capacity_mw": 30.0, "province": "Nusa Tenggara Timur", "system": "", "status": "Planned", "role": "", "operator": "", "match_tier": "UNMATCHED_RUPTL", "match_score": "0.10", "match_reason": "tidak ada IPM row yang cocok dalam thresholds", "ruptl_id": "RUPTL-NTT-P-0059", "coord_source": "ruptl_geocoded", "capacity_mw_ipm": "", "capacity_mw_ruptl": "30.0", "type_ipm": "", "type_ruptl": "PLTMG", "role_ipm": "", "role_ruptl": "", "name_source": "ruptl", "capacity_mw_source": "ruptl", "type_source": "ruptl", "role_source": "ruptl", "operator_source": "ruptl", "status_source": "ruptl", "has_capacity_conflict": "false", "has_type_conflict": "false", "has_role_conflict": "false", "has_location_conflict": "false", "ipm_id": "", "coord_confidence": "medium", "is_placeholder": false, "source_page": "1178", "target_cod_year": "2027", "developer": "PLN SH", "action_norm": "NEW", "status_norm": "PLANNED", "target_cod_year_ruptl": ""}}]}