{"type": "FeatureCollection", "features": [{"type": "Feature", "geometry": {"type": "Point", "coordinates": [119.763657, -5.6292833]}, "properties": {"id": "GEN-SLW-0001", "name": "PLTB Tolo", "type": "PLTB", "capacity_mw": 72.0, "province": "Sulawesi Selatan", "system": "Sulselrabar", "status": "existing", "operator": "Perusahaan Listrik Negara", "method": "wind_turbine", "osm_id": "relation/10694862", "osm_source": "wind", "review_flag": "", "source_id": "OSM-overpass"}}, {"type": "Feature", "geometry": {"type": "Point", "coordinates": [119.6290666, -3.4646598]}, "properties": {"id": "GEN-SLW-0002", "name": "Pembangkit Listrik Tenaga Air Bakaru", "type": "PLTA", "capacity_mw": 130.0, "province": "Sulawesi Selatan", "system": "Sulselrabar", "status": "existing", "operator": "", "method": "", "osm_id": "relation/13245083", "osm_source": "hydro", "review_flag": "", "source_id": "OSM-overpass"}}, {"type": "Feature", "geometry": {"type": "Point", "coordinates": [120.6516728, -1.6453984]}, "properties": {"id": "GEN-SLW-0003", "name": "PLTA Poso-2", "type": "PLTA", "capacity_mw": 395.0, "province": "Sulawesi Tengah", "system": "Sulteng", "status": "existing", "operator": "Poso Energy", "method": "run-of-the-river", "osm_id": "relation/19123845", "osm_source": "hydro", "review_flag": "", "source_id": "OSM-overpass"}}, {"type": "Feature", "geometry": {"type": "Point", "coordinates": [124.8221456, 1.2545538]}, "properties": {"id": "GEN-SLW-0004", "name": "PLTP Lahendong I & II", "type": "PLTP", "capacity_mw": 40.0, "province": "Sulawesi Utara", "system": "Sulutgo", "status": "existing", "operator": "", "method": "", "osm_id": "way/101264872", "osm_source": "geothermal", "review_flag": "", "source_id": "OSM-overpass"}}, {"type": "Feature", "geometry": {"type": "Point", "coordinates": [119.4719989, -5.1473815]}, "properties": {"id": "GEN-SLW-0005", "name": "PLTU Tello", "type": "PLTU", "capacity_mw": 120.0, "province": "Sulawesi Selatan", "system": "Sulselrabar", "status": "existing", "operator": "", "method": "combustion", "osm_id": "way/109924603", "osm_source": "coal", "review_flag": "", "source_id": "OSM-overpass"}}, {"type": "Feature", "geometry": {"type": "Point", "coordinates": [122.5984835, -5.4578141]}, "properties": {"id": "GEN-SLW-0006", "name": "PLTD Bau-bau", "type": "PLTD", "capacity_mw": "", "province": "Sulawesi Tenggara", "system": "Sulselrabar", "status": "existing", "operator": "PLN", "method": "", "osm_id": "way/165616503", "osm_source": "", "review_flag": "NO_CAPACITY", "source_id": "OSM-overpass"}}, {"type": "Feature", "geometry": {"type": "Point", "coordinates": [119.5830648, -5.2808747]}, "properties": {"id": "GEN-SLW-0007", "name": "Bili Bili Bendungan", "type": "PLTA", "capacity_mw": 19.25, "province": "Sulawesi Selatan", "system": "Sulselrabar", "status": "existing", "operator": "", "method": "", "osm_id": "way/181495712", "osm_source": "hydro", "review_flag": "", "source_id": "OSM-overpass"}}, {"type": "Feature", "geometry": {"type": "Point", "coordinates": [119.6234754, -4.0103858]}, "properties": {"id": "GEN-SLW-0008", "name": "PLN Parepare", "type": "Unknown", "capacity_mw": "", "province": "Sulawesi Selatan", "system": "Sulselrabar", "status": "existing", "operator": "Perusahaan Listrik Negara", "method": "", "osm_id": "way/221102796", "osm_source": "", "review_flag": "NO_CAPACITY;NO_TYPE", "source_id": "OSM-overpass"}}, {"type": "Feature", "geometry": {"type": "Point", "coordinates": [119.5011209, -4.8162214]}, "properties": {"id": "GEN-SLW-0009", "name": "PLTU PT Semen Tonasa Indonesia", "type": "PLTU", "capacity_mw": "", "province": "Sulawesi Selatan", "system": "Sulselrabar", "status": "existing", "operator": "", "method": "combustion", "osm_id": "way/244815714", "osm_source": "coal", "review_flag": "NO_CAPACITY", "source_id": "OSM-overpass"}}, {"type": "Feature", "geometry": {"type": "Point", "coordinates": [119.6515739, -3.4798128]}, "properties": {"id": "GEN-SLW-0010", "name": "(unnamed)", "type": "PLTA", "capacity_mw": 126.0, "province": "Sulawesi Selatan", "system": "Sulselrabar", "status": "existing", "operator": "", "method": "", "osm_id": "way/257613250", "osm_source": "hydro", "review_flag": "NO_NAME", "source_id": "OSM-overpass"}}, {"type": "Feature", "geometry": {"type": "Point", "coordinates": [119.6246386, -3.9706446]}, "properties": {"id": "GEN-SLW-0011", "name": "(unnamed)", "type": "Unknown", "capacity_mw": "", "province": "Sulawesi Selatan", "system": "Sulselrabar", "status": "existing", "operator": "", "method": "", "osm_id": "way/257725639", "osm_source": "", "review_flag": "NO_NAME;NO_CAPACITY;NO_TYPE", "source_id": "OSM-overpass"}}, {"type": "Feature", "geometry": {"type": "Point", "coordinates": [119.6245589, -3.9703677]}, "properties": {"id": "GEN-SLW-0012", "name": "(unnamed)", "type": "Unknown", "capacity_mw": "", "province": "Sulawesi Selatan", "system": "Sulselrabar", "status": "existing", "operator": "", "method": "", "osm_id": "way/257725642", "osm_source": "", "review_flag": "NO_NAME;NO_CAPACITY;NO_TYPE", "source_id": "OSM-overpass"}}, {"type": "Feature", "geometry": {"type": "Point", "coordinates": [119.6249861, -3.970314]}, "properties": {"id": "GEN-SLW-0013", "name": "(unnamed)", "type": "Unknown", "capacity_mw": "", "province": "Sulawesi Selatan", "system": "Sulselrabar", "status": "existing", "operator": "", "method": "", "osm_id": "way/257725648", "osm_source": "", "review_flag": "NO_NAME;NO_CAPACITY;NO_TYPE", "source_id": "OSM-overpass"}}, {"type": "Feature", "geometry": {"type": "Point", "coordinates": [118.9698514, -3.5402107]}, "properties": {"id": "GEN-SLW-0014", "name": "PLTU Majene", "type": "PLTU", "capacity_mw": "", "province": "Sulawesi Selatan", "system": "Sulselrabar", "status": "existing", "operator": "", "method": "", "osm_id": "way/291881492", "osm_source": "", "review_flag": "NO_CAPACITY", "source_id": "OSM-overpass"}}, {"type": "Feature", "geometry": {"type": "Point", "coordinates": [121.3084577, -2.7116553]}, "properties": {"id": "GEN-SLW-0015", "name": "(unnamed)", "type": "Unknown", "capacity_mw": "", "province": "Sulawesi Selatan", "system": "Sulselrabar", "status": "existing", "operator": "", "method": "", "osm_id": "way/305656358", "osm_source": "", "review_flag": "NO_NAME;NO_CAPACITY;NO_TYPE", "source_id": "OSM-overpass"}}, {"type": "Feature", "geometry": {"type": "Point", "coordinates": [122.6261601, -5.3956369]}, "properties": {"id": "GEN-SLW-0016", "name": "(unnamed)", "type": "Unknown", "capacity_mw": "", "province": "Sulawesi Tenggara", "system": "Sulselrabar", "status": "existing", "operator": "", "method": "", "osm_id": "way/306631715", "osm_source": "", "review_flag": "NO_NAME;NO_CAPACITY;NO_TYPE", "source_id": "OSM-overpass"}}, {"type": "Feature", "geometry": {"type": "Point", "coordinates": [122.642418, -5.3247856]}, "properties": {"id": "GEN-SLW-0017", "name": "(unnamed)", "type": "Unknown", "capacity_mw": "", "province": "Sulawesi Tenggara", "system": "Sulselrabar", "status": "existing", "operator": "", "method": "", "osm_id": "way/306631716", "osm_source": "", "review_flag": "NO_NAME;NO_CAPACITY;NO_TYPE", "source_id": "OSM-overpass"}}, {"type": "Feature", "geometry": {"type": "Point", "coordinates": [120.0725884, -4.1761207]}, "properties": {"id": "GEN-SLW-0018", "name": "PLTGU Sengkang", "type": "PLTGU", "capacity_mw": 180.0, "province": "Sulawesi Selatan", "system": "Sulselrabar", "status": "existing", "operator": "", "method": "combustion", "osm_id": "way/367586568", "osm_source": "gas", "review_flag": "", "source_id": "OSM-overpass"}}, {"type": "Feature", "geometry": {"type": "Point", "coordinates": [122.8861349, 0.6569413]}, "properties": {"id": "GEN-SLW-0019", "name": "(unnamed)", "type": "Unknown", "capacity_mw": "", "province": "Gorontalo", "system": "Sulutgo", "status": "existing", "operator": "", "method": "", "osm_id": "way/399421491", "osm_source": "", "review_flag": "NO_NAME;NO_CAPACITY;NO_TYPE", "source_id": "OSM-overpass"}}, {"type": "Feature", "geometry": {"type": "Point", "coordinates": [119.6297586, -4.2940266]}, "properties": {"id": "GEN-SLW-0020", "name": "PLTU Barru", "type": "PLTU", "capacity_mw": 100.0, "province": "Sulawesi Selatan", "system": "Sulselrabar", "status": "existing", "operator": "Indonesia Power", "method": "combustion", "osm_id": "way/399714487", "osm_source": "coal", "review_flag": "", "source_id": "OSM-overpass"}}, {"type": "Feature", "geometry": {"type": "Point", "coordinates": [124.836059, 1.2719574]}, "properties": {"id": "GEN-SLW-0021", "name": "PLTP Lahendong III & IV", "type": "PLTP", "capacity_mw": 40.0, "province": "Sulawesi Utara", "system": "Sulutgo", "status": "existing", "operator": "", "method": "", "osm_id": "way/424006224", "osm_source": "geothermal", "review_flag": "", "source_id": "OSM-overpass"}}, {"type": "Feature", "geometry": {"type": "Point", "coordinates": [120.4308049, -3.6815781]}, "properties": {"id": "GEN-SLW-0022", "name": "KAWASAN", "type": "Unknown", "capacity_mw": "", "province": "Sulawesi Selatan", "system": "Sulselrabar", "status": "existing", "operator": "", "method": "", "osm_id": "way/475470080", "osm_source": "", "review_flag": "NO_CAPACITY;NO_TYPE", "source_id": "OSM-overpass"}}, {"type": "Feature", "geometry": {"type": "Point", "coordinates": [124.777528, 1.5988466]}, "properties": {"id": "GEN-SLW-0023", "name": "PLTS Bunaken", "type": "PLTS", "capacity_mw": "", "province": "Sulawesi Utara", "system": "Sulutgo", "status": "existing", "operator": "PT.PLN", "method": "photovoltaic", "osm_id": "way/519748910", "osm_source": "solar", "review_flag": "NO_CAPACITY", "source_id": "OSM-overpass"}}, {"type": "Feature", "geometry": {"type": "Point", "coordinates": [124.7028212, 1.6193773]}, "properties": {"id": "GEN-SLW-0024", "name": "solar power plant", "type": "PLTS", "capacity_mw": "", "province": "Sulawesi Utara", "system": "Sulutgo", "status": "existing", "operator": "", "method": "photovoltaic", "osm_id": "way/523434345", "osm_source": "solar", "review_flag": "NO_CAPACITY", "source_id": "OSM-overpass"}}, {"type": "Feature", "geometry": {"type": "Point", "coordinates": [119.9351449, -3.520907]}, "properties": {"id": "GEN-SLW-0025", "name": "PLTMH Bungin 1", "type": "PLTMH", "capacity_mw": "", "province": "Sulawesi Selatan", "system": "Sulselrabar", "status": "existing", "operator": "", "method": "", "osm_id": "way/533599433", "osm_source": "hydro", "review_flag": "NO_CAPACITY", "source_id": "OSM-overpass"}}, {"type": "Feature", "geometry": {"type": "Point", "coordinates": [125.0900732, 1.4132501]}, "properties": {"id": "GEN-SLW-0026", "name": "Listrik", "type": "Unknown", "capacity_mw": "", "province": "Sulawesi Utara", "system": "Sulutgo", "status": "existing", "operator": "", "method": "", "osm_id": "way/593568043", "osm_source": "", "review_flag": "NO_CAPACITY;NO_TYPE", "source_id": "OSM-overpass"}}, {"type": "Feature", "geometry": {"type": "Point", "coordinates": [120.5401551, 0.5369478]}, "properties": {"id": "GEN-SLW-0027", "name": "(unnamed)", "type": "PLTA", "capacity_mw": "", "province": "Sulawesi Tengah", "system": "Sulteng", "status": "existing", "operator": "", "method": "", "osm_id": "way/602391607", "osm_source": "hydro", "review_flag": "NO_NAME;NO_CAPACITY", "source_id": "OSM-overpass"}}, {"type": "Feature", "geometry": {"type": "Point", "coordinates": [119.7099494, -3.9780347]}, "properties": {"id": "GEN-SLW-0028", "name": "PLTB Sidrap", "type": "PLTB", "capacity_mw": 75.0, "province": "Sulawesi Selatan", "system": "Sulselrabar", "status": "existing", "operator": "PLN", "method": "wind_turbine", "osm_id": "way/604841861", "osm_source": "wind", "review_flag": "", "source_id": "OSM-overpass"}}, {"type": "Feature", "geometry": {"type": "Point", "coordinates": [123.898004, -5.7270549]}, "properties": {"id": "GEN-SLW-0029", "name": "PLTS Tomia", "type": "PLTS", "capacity_mw": "", "province": "Sulawesi Tenggara", "system": "Sulselrabar", "status": "existing", "operator": "", "method": "", "osm_id": "way/700049077", "osm_source": "", "review_flag": "NO_CAPACITY", "source_id": "OSM-overpass"}}, {"type": "Feature", "geometry": {"type": "Point", "coordinates": [123.904285, -5.7239741]}, "properties": {"id": "GEN-SLW-0030", "name": "PLN Tomia", "type": "Unknown", "capacity_mw": "", "province": "Sulawesi Tenggara", "system": "Sulselrabar", "status": "existing", "operator": "", "method": "", "osm_id": "way/700049329", "osm_source": "", "review_flag": "NO_CAPACITY;NO_TYPE", "source_id": "OSM-overpass"}}, {"type": "Feature", "geometry": {"type": "Point", "coordinates": [125.1888268, 1.4459126]}, "properties": {"id": "GEN-SLW-0031", "name": "PLTD Bitung", "type": "PLTD", "capacity_mw": 17.0, "province": "Sulawesi Utara", "system": "Sulutgo", "status": "existing", "operator": "", "method": "", "osm_id": "way/704229858", "osm_source": "diesel", "review_flag": "", "source_id": "OSM-overpass"}}, {"type": "Feature", "geometry": {"type": "Point", "coordinates": [124.7958047, 1.1740035]}, "properties": {"id": "GEN-SLW-0032", "name": "PLTP Lahendong V & VI", "type": "PLTP", "capacity_mw": 40.0, "province": "Sulawesi Utara", "system": "Sulutgo", "status": "existing", "operator": "Pertamina", "method": "", "osm_id": "way/730262328", "osm_source": "geothermal", "review_flag": "", "source_id": "OSM-overpass"}}, {"type": "Feature", "geometry": {"type": "Point", "coordinates": [120.4583156, -6.0480979]}, "properties": {"id": "GEN-SLW-0033", "name": "PLTD Selayar", "type": "PLTD", "capacity_mw": 13.19, "province": "Sulawesi Selatan", "system": "Sulselrabar", "status": "existing", "operator": "", "method": "combustion", "osm_id": "way/796875771", "osm_source": "diesel", "review_flag": "", "source_id": "OSM-overpass"}}, {"type": "Feature", "geometry": {"type": "Point", "coordinates": [122.0425541, -5.3062963]}, "properties": {"id": "GEN-SLW-0034", "name": "PLTS Terpusat Kabaena Timur Desa Tapahuka", "type": "PLTS", "capacity_mw": 0.2, "province": "Sulawesi Tenggara", "system": "Sulselrabar", "status": "existing", "operator": "", "method": "photovoltaic", "osm_id": "way/797018876", "osm_source": "solar", "review_flag": "", "source_id": "OSM-overpass"}}, {"type": "Feature", "geometry": {"type": "Point", "coordinates": [120.511037, -5.8629638]}, "properties": {"id": "GEN-SLW-0035", "name": "(unnamed)", "type": "PLTS", "capacity_mw": "", "province": "Sulawesi Selatan", "system": "Sulselrabar", "status": "existing", "operator": "", "method": "photovoltaic", "osm_id": "way/834536854", "osm_source": "solar", "review_flag": "NO_NAME;NO_CAPACITY", "source_id": "OSM-overpass"}}, {"type": "Feature", "geometry": {"type": "Point", "coordinates": [119.4396704, -5.1104814]}, "properties": {"id": "GEN-SLW-0036", "name": "PLTD Tallo Lama", "type": "PLTD", "capacity_mw": "", "province": "Sulawesi Selatan", "system": "Sulselrabar", "status": "existing", "operator": "", "method": "", "osm_id": "way/847485082", "osm_source": "", "review_flag": "NO_CAPACITY", "source_id": "OSM-overpass"}}, {"type": "Feature", "geometry": {"type": "Point", "coordinates": [119.5501444, -5.6181198]}, "properties": {"id": "GEN-SLW-0037", "name": "PLTU Jeneponto", "type": "PLTU", "capacity_mw": 250.0, "province": "Sulawesi Selatan", "system": "Sulselrabar", "status": "existing", "operator": "", "method": "combustion", "osm_id": "way/905955777", "osm_source": "coal", "review_flag": "", "source_id": "OSM-overpass"}}, {"type": "Feature", "geometry": {"type": "Point", "coordinates": [119.5500928, -5.6253685]}, "properties": {"id": "GEN-SLW-0038", "name": "PLTU Takalar (Punagaya-2)", "type": "PLTU", "capacity_mw": 200.0, "province": "Sulawesi Selatan", "system": "Sulselrabar", "status": "existing", "operator": "", "method": "combustion", "osm_id": "way/941566464", "osm_source": "coal", "review_flag": "", "source_id": "OSM-overpass"}}, {"type": "Feature", "geometry": {"type": "Point", "coordinates": [122.7965578, 0.8507011]}, "properties": {"id": "GEN-SLW-0039", "name": "PLTU Anggrek", "type": "PLTU", "capacity_mw": 50.0, "province": "Gorontalo", "system": "Sulutgo", "status": "existing", "operator": "", "method": "combustion", "osm_id": "way/942620063", "osm_source": "coal", "review_flag": "", "source_id": "OSM-overpass"}}, {"type": "Feature", "geometry": {"type": "Point", "coordinates": [123.1353852, 0.4346558]}, "properties": {"id": "GEN-SLW-0040", "name": "PLTU Sulbagut 3", "type": "PLTU", "capacity_mw": 100.0, "province": "Gorontalo", "system": "Sulutgo", "status": "existing", "operator": "", "method": "", "osm_id": "way/942620064", "osm_source": "coal", "review_flag": "", "source_id": "OSM-overpass"}}, {"type": "Feature", "geometry": {"type": "Point", "coordinates": [122.0060992, 0.4662618]}, "properties": {"id": "GEN-SLW-0041", "name": "PLTG Gorontalo", "type": "PLTG", "capacity_mw": 100.0, "province": "Gorontalo", "system": "Sulutgo", "status": "existing", "operator": "", "method": "", "osm_id": "way/942620065", "osm_source": "gas", "review_flag": "", "source_id": "OSM-overpass"}}, {"type": "Feature", "geometry": {"type": "Point", "coordinates": [122.5374029, -3.8950056]}, "properties": {"id": "GEN-SLW-0042", "name": "PLTU Nii Tanasa (20 MW) & PLTMG Kendari (58 MW)", "type": "PLTU", "capacity_mw": "", "province": "Sulawesi Tenggara", "system": "Sulselrabar", "status": "existing", "operator": "", "method": "combustion", "osm_id": "way/943189957", "osm_source": "coal;oil", "review_flag": "NO_CAPACITY", "source_id": "OSM-overpass"}}, {"type": "Feature", "geometry": {"type": "Point", "coordinates": [122.654079, -4.050323]}, "properties": {"id": "GEN-SLW-0043", "name": "PLTU Kendari 3 DSSA", "type": "PLTU", "capacity_mw": 100.0, "province": "Sulawesi Tenggara", "system": "Sulselrabar", "status": "existing", "operator": "", "method": "", "osm_id": "way/943189958", "osm_source": "coal", "review_flag": "", "source_id": "OSM-overpass"}}, {"type": "Feature", "geometry": {"type": "Point", "coordinates": [124.4793945, 1.1833413]}, "properties": {"id": "GEN-SLW-0044", "name": "PLTU Amurang", "type": "PLTU", "capacity_mw": 60.0, "province": "Sulawesi Utara", "system": "Sulutgo", "status": "existing", "operator": "", "method": "", "osm_id": "way/943309157", "osm_source": "coal", "review_flag": "", "source_id": "OSM-overpass"}}, {"type": "Feature", "geometry": {"type": "Point", "coordinates": [124.6035024, 1.2202036]}, "properties": {"id": "GEN-SLW-0045", "name": "PLTD Lopana", "type": "PLTD", "capacity_mw": 10.0, "province": "Sulawesi Utara", "system": "Sulutgo", "status": "existing", "operator": "", "method": "", "osm_id": "way/943309158", "osm_source": "diesel", "review_flag": "", "source_id": "OSM-overpass"}}, {"type": "Feature", "geometry": {"type": "Point", "coordinates": [124.9379477, 1.3646916]}, "properties": {"id": "GEN-SLW-0046", "name": "PLTA Tanggari II", "type": "PLTA", "capacity_mw": 19.0, "province": "Sulawesi Utara", "system": "Sulutgo", "status": "existing", "operator": "", "method": "", "osm_id": "way/943309161", "osm_source": "hydro", "review_flag": "", "source_id": "OSM-overpass"}}, {"type": "Feature", "geometry": {"type": "Point", "coordinates": [124.9234503, 1.3488147]}, "properties": {"id": "GEN-SLW-0047", "name": "PLTA Tanggari I", "type": "PLTA", "capacity_mw": 18.0, "province": "Sulawesi Utara", "system": "Sulutgo", "status": "existing", "operator": "", "method": "", "osm_id": "way/943309162", "osm_source": "hydro", "review_flag": "", "source_id": "OSM-overpass"}}, {"type": "Feature", "geometry": {"type": "Point", "coordinates": [125.0944729, 1.6554339]}, "properties": {"id": "GEN-SLW-0048", "name": "PLTS Likupang", "type": "PLTS", "capacity_mw": 15.0, "province": "Sulawesi Utara", "system": "Sulutgo", "status": "existing", "operator": "", "method": "photovoltaic", "osm_id": "way/943309164", "osm_source": "solar", "review_flag": "", "source_id": "OSM-overpass"}}, {"type": "Feature", "geometry": {"type": "Point", "coordinates": [125.0852412, 1.3735403]}, "properties": {"id": "GEN-SLW-0049", "name": "PLTU Sulut 3", "type": "PLTU", "capacity_mw": 100.0, "province": "Sulawesi Utara", "system": "Sulutgo", "status": "existing", "operator": "", "method": "", "osm_id": "way/943309171", "osm_source": "coal", "review_flag": "", "source_id": "OSM-overpass"}}, {"type": "Feature", "geometry": {"type": "Point", "coordinates": [119.1458523, -2.4708695]}, "properties": {"id": "GEN-SLW-0050", "name": "PLTU Mamuju", "type": "PLTU", "capacity_mw": 50.0, "province": "Sulawesi Barat", "system": "Sulselrabar", "status": "existing", "operator": "", "method": "combustion", "osm_id": "way/1003491141", "osm_source": "coal", "review_flag": "", "source_id": "OSM-overpass"}}, {"type": "Feature", "geometry": {"type": "Point", "coordinates": [119.8558081, -0.7333093]}, "properties": {"id": "GEN-SLW-0051", "name": "PLTU Palu", "type": "PLTU", "capacity_mw": 30.0, "province": "Sulawesi Tengah", "system": "Sulteng", "status": "existing", "operator": "", "method": "combustion", "osm_id": "way/1003539536", "osm_source": "coal", "review_flag": "", "source_id": "OSM-overpass"}}, {"type": "Feature", "geometry": {"type": "Point", "coordinates": [119.7490775, -3.188974]}, "properties": {"id": "GEN-SLW-0052", "name": "PLTA Malea", "type": "PLTA", "capacity_mw": 90.0, "province": "Sulawesi Selatan", "system": "Sulselrabar", "status": "existing", "operator": "", "method": "", "osm_id": "way/1004332811", "osm_source": "hydro", "review_flag": "", "source_id": "OSM-overpass"}}, {"type": "Feature", "geometry": {"type": "Point", "coordinates": [119.6247411, -3.9706287]}, "properties": {"id": "GEN-SLW-0053", "name": "PLTD Suppa", "type": "PLTD", "capacity_mw": 62.2, "province": "Sulawesi Selatan", "system": "Sulselrabar", "status": "existing", "operator": "", "method": "combustion", "osm_id": "way/1004332815", "osm_source": "diesel", "review_flag": "", "source_id": "OSM-overpass"}}, {"type": "Feature", "geometry": {"type": "Point", "coordinates": [121.2822398, -2.5911956]}, "properties": {"id": "GEN-SLW-0054", "name": "(unnamed)", "type": "Unknown", "capacity_mw": "", "province": "Sulawesi Selatan", "system": "Sulselrabar", "status": "existing", "operator": "PLN", "method": "", "osm_id": "way/1054024013", "osm_source": "", "review_flag": "NO_NAME;NO_CAPACITY;NO_TYPE", "source_id": "OSM-overpass"}}, {"type": "Feature", "geometry": {"type": "Point", "coordinates": [121.5933145, -4.1800836]}, "properties": {"id": "GEN-SLW-0055", "name": "PLTU Antam Pomalaa", "type": "PLTU", "capacity_mw": 60.0, "province": "Sulawesi Tenggara", "system": "Sulselrabar", "status": "existing", "operator": "", "method": "combustion", "osm_id": "way/1081219367", "osm_source": "coal", "review_flag": "", "source_id": "OSM-overpass"}}, {"type": "Feature", "geometry": {"type": "Point", "coordinates": [124.4446638, 0.4628204]}, "properties": {"id": "GEN-SLW-0056", "name": "(unnamed)", "type": "PLTS", "capacity_mw": "", "province": "Sulawesi Utara", "system": "Sulutgo", "status": "existing", "operator": "", "method": "photovoltaic", "osm_id": "way/1082004496", "osm_source": "solar", "review_flag": "NO_NAME;NO_CAPACITY", "source_id": "OSM-overpass"}}, {"type": "Feature", "geometry": {"type": "Point", "coordinates": [124.4785981, 1.1876303]}, "properties": {"id": "GEN-SLW-0057", "name": "Karpowership (Indonesia) Zeynep Sultan power station", "type": "PLTG", "capacity_mw": "", "province": "Sulawesi Utara", "system": "Sulutgo", "status": "existing", "operator": "", "method": "combustion", "osm_id": "way/1103596061", "osm_source": "gas", "review_flag": "NO_CAPACITY", "source_id": "OSM-overpass"}}, {"type": "Feature", "geometry": {"type": "Point", "coordinates": [122.1557261, -2.8286624]}, "properties": {"id": "GEN-SLW-0058", "name": "Morowali Industrial Park Sulawesi Mining Power Station", "type": "Unknown", "capacity_mw": "", "province": "Sulawesi Tengah", "system": "Sulteng", "status": "existing", "operator": "", "method": "", "osm_id": "way/1118436421", "osm_source": "", "review_flag": "NO_CAPACITY;NO_TYPE", "source_id": "OSM-overpass"}}, {"type": "Feature", "geometry": {"type": "Point", "coordinates": [122.6274121, -5.3961013]}, "properties": {"id": "GEN-SLW-0059", "name": "PLTMG Baubau", "type": "PLTMG", "capacity_mw": 30.0, "province": "Sulawesi Tenggara", "system": "Sulselrabar", "status": "existing", "operator": "", "method": "combustion", "osm_id": "way/1121250705", "osm_source": "gas", "review_flag": "", "source_id": "OSM-overpass"}}, {"type": "Feature", "geometry": {"type": "Point", "coordinates": [122.6413318, -5.323365]}, "properties": {"id": "GEN-SLW-0060", "name": "PLTU Baruta", "type": "PLTU", "capacity_mw": 14.0, "province": "Sulawesi Tenggara", "system": "Sulselrabar", "status": "existing", "operator": "", "method": "combustion", "osm_id": "way/1121250706", "osm_source": "coal", "review_flag": "", "source_id": "OSM-overpass"}}, {"type": "Feature", "geometry": {"type": "Point", "coordinates": [122.4656052, -3.8281962]}, "properties": {"id": "GEN-SLW-0061", "name": "Delong Nickel Phase II Power Station", "type": "PLTU", "capacity_mw": "", "province": "Sulawesi Tenggara", "system": "Sulselrabar", "status": "existing", "operator": "", "method": "combustion", "osm_id": "way/1168320730", "osm_source": "coal", "review_flag": "NO_CAPACITY", "source_id": "OSM-overpass"}}, {"type": "Feature", "geometry": {"type": "Point", "coordinates": [121.2586011, -2.6681266]}, "properties": {"id": "GEN-SLW-0062", "name": "PLTA Larona", "type": "PLTA", "capacity_mw": 165.0, "province": "Sulawesi Selatan", "system": "Sulselrabar", "status": "existing", "operator": "PT Vale Indonesia", "method": "", "osm_id": "way/1193463283", "osm_source": "hydro", "review_flag": "", "source_id": "OSM-overpass"}}, {"type": "Feature", "geometry": {"type": "Point", "coordinates": [121.2170237, -2.6421815]}, "properties": {"id": "GEN-SLW-0063", "name": "PLTA Balambano", "type": "PLTA", "capacity_mw": 110.0, "province": "Sulawesi Selatan", "system": "Sulselrabar", "status": "existing", "operator": "PT Vale Indonesia", "method": "", "osm_id": "way/1193463288", "osm_source": "hydro", "review_flag": "", "source_id": "OSM-overpass"}}, {"type": "Feature", "geometry": {"type": "Point", "coordinates": [121.1813279, -2.6666648]}, "properties": {"id": "GEN-SLW-0064", "name": "PLTA Karebbe", "type": "PLTA", "capacity_mw": 90.0, "province": "Sulawesi Selatan", "system": "Sulselrabar", "status": "existing", "operator": "PT Vale Indonesia", "method": "", "osm_id": "way/1193463296", "osm_source": "hydro", "review_flag": "", "source_id": "OSM-overpass"}}, {"type": "Feature", "geometry": {"type": "Point", "coordinates": [120.6601486, -1.6599838]}, "properties": {"id": "GEN-SLW-0065", "name": "PLTA Poso-1", "type": "PLTA", "capacity_mw": 120.0, "province": "Sulawesi Tengah", "system": "Sulteng", "status": "existing", "operator": "Poso Energy", "method": "run-of-the-river", "osm_id": "way/1193553153", "osm_source": "hydro", "review_flag": "", "source_id": "OSM-overpass"}}, {"type": "Feature", "geometry": {"type": "Point", "coordinates": [123.4688246, 0.8864055]}, "properties": {"id": "GEN-SLW-0066", "name": "PLTU Sulut-1", "type": "PLTU", "capacity_mw": 100.0, "province": "Gorontalo", "system": "Sulutgo", "status": "existing", "operator": "", "method": "combustion", "osm_id": "way/1224977651", "osm_source": "coal", "review_flag": "", "source_id": "OSM-overpass"}}, {"type": "Feature", "geometry": {"type": "Point", "coordinates": [123.0480209, 0.5748397]}, "properties": {"id": "GEN-SLW-0067", "name": "PLTD Telaga", "type": "PLTD", "capacity_mw": "", "province": "Gorontalo", "system": "Sulutgo", "status": "existing", "operator": "", "method": "", "osm_id": "way/1250980902", "osm_source": "", "review_flag": "NO_CAPACITY", "source_id": "OSM-overpass"}}, {"type": "Feature", "geometry": {"type": "Point", "coordinates": [124.9227638, 1.3297387]}, "properties": {"id": "GEN-SLW-0068", "name": "PLTA Tonsealama", "type": "PLTA", "capacity_mw": 14.38, "province": "Sulawesi Utara", "system": "Sulutgo", "status": "existing", "operator": "", "method": "", "osm_id": "way/1255718819", "osm_source": "hydro", "review_flag": "", "source_id": "OSM-overpass"}}, {"type": "Feature", "geometry": {"type": "Point", "coordinates": [122.9996421, 0.9545683]}, "properties": {"id": "GEN-SLW-0069", "name": "PLTU Sulbagut-1", "type": "PLTU", "capacity_mw": 100.0, "province": "Gorontalo", "system": "Sulutgo", "status": "existing", "operator": "", "method": "combustion", "osm_id": "way/1271028773", "osm_source": "coal", "review_flag": "", "source_id": "OSM-overpass"}}, {"type": "Feature", "geometry": {"type": "Point", "coordinates": [122.1691965, -2.8739151]}, "properties": {"id": "GEN-SLW-0070", "name": "Sulawesi Labota Power Plant", "type": "PLTU", "capacity_mw": "", "province": "Sulawesi Tengah", "system": "Sulteng", "status": "existing", "operator": "", "method": "combustion", "osm_id": "way/1291862453", "osm_source": "coal", "review_flag": "NO_CAPACITY", "source_id": "OSM-overpass"}}, {"type": "Feature", "geometry": {"type": "Point", "coordinates": [122.5577105, 0.9536174]}, "properties": {"id": "GEN-SLW-0071", "name": "PLTS Gorontalo", "type": "PLTS", "capacity_mw": 2.0, "province": "Gorontalo", "system": "Sulutgo", "status": "existing", "operator": "", "method": "", "osm_id": "way/1312425747", "osm_source": "solar", "review_flag": "", "source_id": "OSM-overpass"}}, {"type": "Feature", "geometry": {"type": "Point", "coordinates": [118.8818299, -2.6356846]}, "properties": {"id": "GEN-SLW-0072", "name": "PLTS Karampuang 1", "type": "PLTS", "capacity_mw": 0.2, "province": "Sulawesi Barat", "system": "Sulselrabar", "status": "existing", "operator": "", "method": "photovoltaic", "osm_id": "way/1322681373", "osm_source": "solar", "review_flag": "", "source_id": "OSM-overpass"}}, {"type": "Feature", "geometry": {"type": "Point", "coordinates": [118.8805013, -2.6275081]}, "properties": {"id": "GEN-SLW-0073", "name": "PLTS Karampuang 2", "type": "PLTS", "capacity_mw": 0.12, "province": "Sulawesi Barat", "system": "Sulselrabar", "status": "existing", "operator": "", "method": "photovoltaic", "osm_id": "way/1322681375", "osm_source": "solar", "review_flag": "", "source_id": "OSM-overpass"}}, {"type": "Feature", "geometry": {"type": "Point", "coordinates": [118.890817, -2.6241757]}, "properties": {"id": "GEN-SLW-0074", "name": "PLTS Karampuang 3", "type": "PLTS", "capacity_mw": 0.15, "province": "Sulawesi Barat", "system": "Sulselrabar", "status": "existing", "operator": "", "method": "photovoltaic", "osm_id": "way/1322681377", "osm_source": "solar", "review_flag": "", "source_id": "OSM-overpass"}}, {"type": "Feature", "geometry": {"type": "Point", "coordinates": [118.8869481, -2.6455713]}, "properties": {"id": "GEN-SLW-0075", "name": "PLTS Karampuang 4", "type": "PLTS", "capacity_mw": 0.13, "province": "Sulawesi Barat", "system": "Sulselrabar", "status": "existing", "operator": "", "method": "photovoltaic", "osm_id": "way/1322681379", "osm_source": "solar", "review_flag": "", "source_id": "OSM-overpass"}}, {"type": "Feature", "geometry": {"type": "Point", "coordinates": [123.9487823, -5.7576757]}, "properties": {"id": "GEN-SLW-0076", "name": "PLTS Kahianga", "type": "PLTS", "capacity_mw": 0.31, "province": "Sulawesi Tenggara", "system": "Sulselrabar", "status": "existing", "operator": "", "method": "photovoltaic", "osm_id": "way/1322685346", "osm_source": "solar", "review_flag": "", "source_id": "OSM-overpass"}}, {"type": "Feature", "geometry": {"type": "Point", "coordinates": [123.9032575, -5.7643018]}, "properties": {"id": "GEN-SLW-0077", "name": "PLTS Lamanggau", "type": "PLTS", "capacity_mw": 0.22, "province": "Sulawesi Tenggara", "system": "Sulselrabar", "status": "existing", "operator": "", "method": "photovoltaic", "osm_id": "way/1322685350", "osm_source": "solar", "review_flag": "", "source_id": "OSM-overpass"}}, {"type": "Feature", "geometry": {"type": "Point", "coordinates": [123.9739894, -5.7747162]}, "properties": {"id": "GEN-SLW-0078", "name": "PLTS Dete", "type": "PLTS", "capacity_mw": 0.11, "province": "Sulawesi Tenggara", "system": "Sulselrabar", "status": "existing", "operator": "", "method": "photovoltaic", "osm_id": "way/1322685353", "osm_source": "solar", "review_flag": "", "source_id": "OSM-overpass"}}, {"type": "Feature", "geometry": {"type": "Point", "coordinates": [123.9976769, -5.7603693]}, "properties": {"id": "GEN-SLW-0079", "name": "PLTS Kulati", "type": "PLTS", "capacity_mw": 0.14, "province": "Sulawesi Tenggara", "system": "Sulselrabar", "status": "existing", "operator": "", "method": "photovoltaic", "osm_id": "way/1322685356", "osm_source": "solar", "review_flag": "", "source_id": "OSM-overpass"}}, {"type": "Feature", "geometry": {"type": "Point", "coordinates": [122.8409226, 0.6220207]}, "properties": {"id": "GEN-SLW-0080", "name": "PLTS Isimu", "type": "PLTS", "capacity_mw": 14.5, "province": "Gorontalo", "system": "Sulutgo", "status": "existing", "operator": "", "method": "photovoltaic", "osm_id": "way/1322727205", "osm_source": "solar", "review_flag": "", "source_id": "OSM-overpass"}}, {"type": "Feature", "geometry": {"type": "Point", "coordinates": [120.4585339, -6.0463458]}, "properties": {"id": "GEN-SLW-0081", "name": "PLTS Selayar", "type": "PLTS", "capacity_mw": 1.4, "province": "Sulawesi Selatan", "system": "Sulselrabar", "status": "existing", "operator": "PT PLN", "method": "photovoltaic", "osm_id": "way/1323856434", "osm_source": "solar", "review_flag": "", "source_id": "OSM-overpass"}}, {"type": "Feature", "geometry": {"type": "Point", "coordinates": [120.3913064, -5.1179451]}, "properties": {"id": "GEN-SLW-0082", "name": "PLTS Burungloe", "type": "PLTS", "capacity_mw": 0.1, "province": "Sulawesi Selatan", "system": "Sulselrabar", "status": "existing", "operator": "", "method": "photovoltaic", "osm_id": "way/1323856435", "osm_source": "solar", "review_flag": "", "source_id": "OSM-overpass"}}, {"type": "Feature", "geometry": {"type": "Point", "coordinates": [122.031064, -2.7312858]}, "properties": {"id": "GEN-SLW-0083", "name": "Wanxiang Nickel Indonesia power station", "type": "PLTU", "capacity_mw": "", "province": "Sulawesi Tengah", "system": "Sulteng", "status": "existing", "operator": "", "method": "combustion", "osm_id": "way/1325505504", "osm_source": "coal", "review_flag": "NO_CAPACITY", "source_id": "OSM-overpass"}}, {"type": "Feature", "geometry": {"type": "Point", "coordinates": [124.7093274, 1.6447404]}, "properties": {"id": "GEN-SLW-0084", "name": "PLTD Manadotua", "type": "PLTD", "capacity_mw": 0.25, "province": "Sulawesi Utara", "system": "Sulutgo", "status": "existing", "operator": "PT.PLN", "method": "reciprocating_engine", "osm_id": "way/1329301174", "osm_source": "diesel", "review_flag": "", "source_id": "OSM-overpass"}}, {"type": "Feature", "geometry": {"type": "Point", "coordinates": [119.0977202, -6.8547829]}, "properties": {"id": "GEN-SLW-0085", "name": "(unnamed)", "type": "PLTS", "capacity_mw": "", "province": "Sulawesi Selatan", "system": "Sulselrabar", "status": "existing", "operator": "", "method": "photovoltaic", "osm_id": "way/1331175823", "osm_source": "solar", "review_flag": "NO_NAME;NO_CAPACITY", "source_id": "OSM-overpass"}}, {"type": "Feature", "geometry": {"type": "Point", "coordinates": [121.0836455, -7.3643056]}, "properties": {"id": "GEN-SLW-0086", "name": "PLTS Terpusat Pasimarannu", "type": "PLTS", "capacity_mw": "", "province": "Sulawesi Selatan", "system": "Sulselrabar", "status": "existing", "operator": "", "method": "photovoltaic", "osm_id": "way/1334459348", "osm_source": "solar", "review_flag": "NO_CAPACITY", "source_id": "OSM-overpass"}}, {"type": "Feature", "geometry": {"type": "Point", "coordinates": [121.1352955, -7.3769495]}, "properties": {"id": "GEN-SLW-0087", "name": "PLTS Bonea", "type": "PLTS", "capacity_mw": "", "province": "Sulawesi Selatan", "system": "Sulselrabar", "status": "existing", "operator": "", "method": "photovoltaic", "osm_id": "way/1334459373", "osm_source": "solar", "review_flag": "NO_CAPACITY", "source_id": "OSM-overpass"}}, {"type": "Feature", "geometry": {"type": "Point", "coordinates": [121.1246559, -7.3679782]}, "properties": {"id": "GEN-SLW-0088", "name": "PLTS Batu Bingkung", "type": "PLTS", "capacity_mw": "", "province": "Sulawesi Selatan", "system": "Sulselrabar", "status": "existing", "operator": "", "method": "photovoltaic", "osm_id": "way/1334459400", "osm_source": "solar", "review_flag": "NO_CAPACITY", "source_id": "OSM-overpass"}}, {"type": "Feature", "geometry": {"type": "Point", "coordinates": [121.1520298, -7.3607119]}, "properties": {"id": "GEN-SLW-0089", "name": "PLTS Sambali", "type": "PLTS", "capacity_mw": "", "province": "Sulawesi Selatan", "system": "Sulselrabar", "status": "existing", "operator": "", "method": "photovoltaic", "osm_id": "way/1334459403", "osm_source": "solar", "review_flag": "NO_CAPACITY", "source_id": "OSM-overpass"}}, {"type": "Feature", "geometry": {"type": "Point", "coordinates": [120.4864805, -5.7540743]}, "properties": {"id": "GEN-SLW-0090", "name": "PLTS Menara Indah", "type": "PLTS", "capacity_mw": "", "province": "Sulawesi Selatan", "system": "Sulselrabar", "status": "existing", "operator": "", "method": "photovoltaic", "osm_id": "way/1334639659", "osm_source": "solar", "review_flag": "NO_CAPACITY", "source_id": "OSM-overpass"}}, {"type": "Feature", "geometry": {"type": "Point", "coordinates": [120.7870314, -6.9582135]}, "properties": {"id": "GEN-SLW-0091", "name": "(unnamed)", "type": "PLTS", "capacity_mw": "", "province": "Sulawesi Selatan", "system": "Sulselrabar", "status": "existing", "operator": "", "method": "", "osm_id": "way/1335862924", "osm_source": "solar", "review_flag": "NO_NAME;NO_CAPACITY", "source_id": "OSM-overpass"}}, {"type": "Feature", "geometry": {"type": "Point", "coordinates": [121.0979689, -7.0633375]}, "properties": {"id": "GEN-SLW-0092", "name": "PLTS Pasitallu Tangnga", "type": "PLTS", "capacity_mw": "", "province": "Sulawesi Selatan", "system": "Sulselrabar", "status": "existing", "operator": "", "method": "", "osm_id": "way/1336362230", "osm_source": "solar", "review_flag": "NO_CAPACITY", "source_id": "OSM-overpass"}}, {"type": "Feature", "geometry": {"type": "Point", "coordinates": [120.9902588, -6.5022263]}, "properties": {"id": "GEN-SLW-0093", "name": "PLTS Latondu", "type": "PLTS", "capacity_mw": "", "province": "Sulawesi Selatan", "system": "Sulselrabar", "status": "existing", "operator": "", "method": "", "osm_id": "way/1336362251", "osm_source": "solar", "review_flag": "NO_CAPACITY", "source_id": "OSM-overpass"}}, {"type": "Feature", "geometry": {"type": "Point", "coordinates": [120.0382491, -5.1719208]}, "properties": {"id": "GEN-SLW-0094", "name": "(unnamed)", "type": "PLTA", "capacity_mw": "", "province": "Sulawesi Selatan", "system": "Sulselrabar", "status": "existing", "operator": "", "method": "", "osm_id": "way/1360656288", "osm_source": "hydro", "review_flag": "NO_NAME;NO_CAPACITY", "source_id": "OSM-overpass"}}, {"type": "Feature", "geometry": {"type": "Point", "coordinates": [122.7247557, -6.2057332]}, "properties": {"id": "GEN-SLW-0095", "name": "(unnamed)", "type": "PLTS", "capacity_mw": "", "province": "Sulawesi Tenggara", "system": "Sulselrabar", "status": "existing", "operator": "", "method": "", "osm_id": "way/1365649482", "osm_source": "solar", "review_flag": "NO_NAME;NO_CAPACITY", "source_id": "OSM-overpass"}}, {"type": "Feature", "geometry": {"type": "Point", "coordinates": [125.1696776, 2.7398911]}, "properties": {"id": "GEN-SLW-0096", "name": "PLTS Makalehi", "type": "PLTS", "capacity_mw": "", "province": "Sulawesi Utara", "system": "Sulutgo", "status": "existing", "operator": "PT PLN", "method": "photovoltaic", "osm_id": "way/1371205002", "osm_source": "solar", "review_flag": "NO_CAPACITY", "source_id": "OSM-overpass"}}, {"type": "Feature", "geometry": {"type": "Point", "coordinates": [119.2649187, -5.1486883]}, "properties": {"id": "GEN-SLW-0097", "name": "(unnamed)", "type": "PLTS", "capacity_mw": "", "province": "Sulawesi Selatan", "system": "Sulselrabar", "status": "existing", "operator": "", "method": "photovoltaic", "osm_id": "way/1383897662", "osm_source": "solar", "review_flag": "NO_NAME;NO_CAPACITY", "source_id": "OSM-overpass"}}, {"type": "Feature", "geometry": {"type": "Point", "coordinates": [121.7716482, -2.2591674]}, "properties": {"id": "GEN-SLW-0098", "name": "PLTU Ambunu", "type": "PLTU", "capacity_mw": 350.0, "province": "Sulawesi Tengah", "system": "Sulteng", "status": "existing", "operator": "Indonesia Huabao Industrial Park", "method": "combustion", "osm_id": "way/1416911382", "osm_source": "coal", "review_flag": "", "source_id": "OSM-overpass"}}, {"type": "Feature", "geometry": {"type": "Point", "coordinates": [120.7962051, -6.7875933]}, "properties": {"id": "GEN-SLW-0099", "name": "PLTS Kayuadi", "type": "PLTS", "capacity_mw": "", "province": "Sulawesi Selatan", "system": "Sulselrabar", "status": "existing", "operator": "", "method": "photovoltaic", "osm_id": "way/1444676313", "osm_source": "solar", "review_flag": "NO_CAPACITY", "source_id": "OSM-overpass"}}, {"type": "Feature", "geometry": {"type": "Point", "coordinates": [119.4451942, -5.1645]}, "properties": {"id": "GEN-SLW-0100", "name": "(unnamed)", "type": "Unknown", "capacity_mw": "", "province": "Sulawesi Selatan", "system": "Sulselrabar", "status": "existing", "operator": "Perusahaan Listrik Negara", "method": "", "osm_id": "way/1454217130", "osm_source": "", "review_flag": "NO_NAME;NO_CAPACITY;NO_TYPE", "source_id": "OSM-overpass"}}, {"type": "Feature", "geometry": {"type": "Point", "coordinates": [119.4476742, -5.1655327]}, "properties": {"id": "GEN-SLW-0101", "name": "(unnamed)", "type": "Unknown", "capacity_mw": "", "province": "Sulawesi Selatan", "system": "Sulselrabar", "status": "existing", "operator": "Perusahaan Listrik Negara", "method": "", "osm_id": "way/1454217132", "osm_source": "", "review_flag": "NO_NAME;NO_CAPACITY;NO_TYPE", "source_id": "OSM-overpass"}}]}