{"type": "FeatureCollection", "features": [{"type": "Feature", "geometry": {"type": "Point", "coordinates": [131.2603534, -0.8790946]}, "properties": {"id": "GEN-PAP-0001", "name": "PLTD Kota Sorong", "osm_name": "PLTD Kota Sorong", "type": "PLTD", "capacity_mw": "", "province": "Papua Barat", "system": "Papua", "status": "existing", "operator": "", "method": "", "osm_id": "relation/7625982", "osm_source": "", "review_flag": "NO_CAPACITY", "source_id": "OSM-overpass"}}, {"type": "Feature", "geometry": {"type": "Point", "coordinates": [140.790386, -2.6144744]}, "properties": {"id": "GEN-PAP-0002", "name": "PLTU Holtekamp", "osm_name": "PLTU Holtekamp", "type": "PLTU", "capacity_mw": 24.0, "province": "Papua", "system": "Papua", "status": "existing", "operator": "Indonesia Power", "method": "combustion", "osm_id": "way/377005221", "osm_source": "coal", "review_flag": "", "source_id": "OSM-overpass"}}, {"type": "Feature", "geometry": {"type": "Point", "coordinates": [138.9268303, -4.111108]}, "properties": {"id": "GEN-PAP-0003", "name": "(unnamed)", "osm_name": "", "type": "Unknown", "capacity_mw": "", "province": "Papua", "system": "Papua", "status": "existing", "operator": "", "method": "", "osm_id": "way/607542063", "osm_source": "", "review_flag": "NO_NAME;NO_CAPACITY;NO_TYPE", "source_id": "OSM-overpass"}}, {"type": "Feature", "geometry": {"type": "Point", "coordinates": [136.8377098, -4.8275311]}, "properties": {"id": "GEN-PAP-0004", "name": "PLTU Amamapare", "osm_name": "PLTU Amamapare", "type": "PLTU", "capacity_mw": 255.0, "province": "Papua", "system": "Papua", "status": "existing", "operator": "PT Puncak Jaya Power", "method": "combustion", "osm_id": "way/614077557", "osm_source": "coal", "review_flag": "", "source_id": "OSM-overpass"}}, {"type": "Feature", "geometry": {"type": "Point", "coordinates": [132.2998361, -2.9238711]}, "properties": {"id": "GEN-PAP-0005", "name": "PLTD Fakfak", "osm_name": "PLTD Fakfak", "type": "PLTD", "capacity_mw": "", "province": "Papua Barat", "system": "Papua", "status": "existing", "operator": "", "method": "", "osm_id": "way/629897977", "osm_source": "", "review_flag": "NO_CAPACITY", "source_id": "OSM-overpass"}}, {"type": "Feature", "geometry": {"type": "Point", "coordinates": [140.7913037, -2.6163241]}, "properties": {"id": "GEN-PAP-0006", "name": "PLTMG Jayapura", "osm_name": "PLTMG Jayapura", "type": "PLTMG", "capacity_mw": 40.0, "province": "Papua", "system": "Papua", "status": "existing", "operator": "", "method": "combustion", "osm_id": "way/894329107", "osm_source": "gas", "review_flag": "", "source_id": "OSM-overpass"}}, {"type": "Feature", "geometry": {"type": "Point", "coordinates": [131.2469853, -1.0205161]}, "properties": {"id": "GEN-PAP-0007", "name": "PLTMG Sorong", "osm_name": "PLTMG Sorong", "type": "PLTMG", "capacity_mw": 50.0, "province": "Papua Barat", "system": "Papua", "status": "existing", "operator": "", "method": "", "osm_id": "way/940979321", "osm_source": "gas", "review_flag": "", "source_id": "OSM-overpass"}}, {"type": "Feature", "geometry": {"type": "Point", "coordinates": [136.7675772, -4.7534102]}, "properties": {"id": "GEN-PAP-0008", "name": "PLTMG Timika", "osm_name": "PLTMG Timika", "type": "PLTMG", "capacity_mw": 10.0, "province": "Papua", "system": "Papua", "status": "existing", "operator": "", "method": "combustion", "osm_id": "way/1121717386", "osm_source": "gas", "review_flag": "", "source_id": "OSM-overpass"}}, {"type": "Feature", "geometry": {"type": "Point", "coordinates": [134.0059452, -3.4746024]}, "properties": {"id": "GEN-PAP-0009", "name": "PLTS Werua", "osm_name": "PLTS Werua", "type": "PLTS", "capacity_mw": "", "province": "Papua Barat", "system": "Papua", "status": "existing", "operator": "", "method": "", "osm_id": "way/1164608628", "osm_source": "solar", "review_flag": "NO_CAPACITY", "source_id": "OSM-overpass"}}, {"type": "Feature", "geometry": {"type": "Point", "coordinates": [133.979851, -3.4938104]}, "properties": {"id": "GEN-PAP-0010", "name": "PLTS Sara", "osm_name": "PLTS Sara", "type": "PLTS", "capacity_mw": "", "province": "Papua Barat", "system": "Papua", "status": "existing", "operator": "", "method": "", "osm_id": "way/1164613430", "osm_source": "solar", "review_flag": "NO_CAPACITY", "source_id": "OSM-overpass"}}, {"type": "Feature", "geometry": {"type": "Point", "coordinates": [140.7891872, -2.6169122]}, "properties": {"id": "GEN-PAP-0011", "name": "PLTMG MPP Jayapura", "osm_name": "PLTMG MPP Jayapura", "type": "PLTMG", "capacity_mw": 50.0, "province": "Papua", "system": "Papua", "status": "existing", "operator": "", "method": "combustion", "osm_id": "way/1191857160", "osm_source": "gas", "review_flag": "", "source_id": "OSM-overpass"}}, {"type": "Feature", "geometry": {"type": "Point", "coordinates": [140.0199124, -2.6355849]}, "properties": {"id": "GEN-PAP-0012", "name": "PLTA Orya Genyem", "osm_name": "PLTA Orya Genyem", "type": "PLTA", "capacity_mw": 20.0, "province": "Papua", "system": "Papua", "status": "existing", "operator": "", "method": "", "osm_id": "way/1191857172", "osm_source": "hydro", "review_flag": "", "source_id": "OSM-overpass"}}, {"type": "Feature", "geometry": {"type": "Point", "coordinates": [134.0659233, -0.8716802]}, "properties": {"id": "GEN-PAP-0013", "name": "PLTD Sanggeng", "osm_name": "PLTD Sanggeng", "type": "PLTD", "capacity_mw": 7.5, "province": "Papua Barat", "system": "Papua", "status": "existing", "operator": "", "method": "combustion", "osm_id": "way/1313567917", "osm_source": "diesel", "review_flag": "", "source_id": "OSM-overpass"}}, {"type": "Feature", "geometry": {"type": "Point", "coordinates": [134.0267712, -0.9239977]}, "properties": {"id": "GEN-PAP-0014", "name": "PLTS Arfai", "osm_name": "PLTS Arfai", "type": "PLTS", "capacity_mw": 1.0, "province": "Papua Barat", "system": "Papua", "status": "existing", "operator": "", "method": "photovoltaic", "osm_id": "way/1313567921", "osm_source": "solar", "review_flag": "", "source_id": "OSM-overpass"}}, {"type": "Feature", "geometry": {"type": "Point", "coordinates": [134.0483711, -0.8436382]}, "properties": {"id": "GEN-PAP-0015", "name": "PLTS Reremi", "osm_name": "PLTS Reremi", "type": "PLTS", "capacity_mw": 1.0, "province": "Papua Barat", "system": "Papua", "status": "existing", "operator": "", "method": "photovoltaic", "osm_id": "way/1313567929", "osm_source": "solar", "review_flag": "", "source_id": "OSM-overpass"}}, {"type": "Feature", "geometry": {"type": "Point", "coordinates": [134.015478, -0.9348179]}, "properties": {"id": "GEN-PAP-0016", "name": "PLTMG MPP Manokwari", "osm_name": "PLTMG MPP Manokwari", "type": "PLTMG", "capacity_mw": 20.0, "province": "Papua Barat", "system": "Papua", "status": "existing", "operator": "", "method": "combustion", "osm_id": "way/1313567930", "osm_source": "gas", "review_flag": "", "source_id": "OSM-overpass"}}]}