{"type": "FeatureCollection", "features": [{"type": "Feature", "geometry": {"type": "Point", "coordinates": [128.333643, -3.5505619]}, "properties": {"id": "GEN-MLK-0001", "name": "PLTU Waai", "osm_name": "PLTU Waai", "type": "PLTU", "capacity_mw": "30.0", "province": "Maluku", "system": "Maluku", "status": "existing", "operator": "", "method": "", "osm_id": "way/174363561", "osm_source": "coal", "review_flag": "", "source_id": "OSM-overpass", "capacity_unit": "MW", "role": "Utility", "roleDescription": "Memasok listrik ke sistem kelistrikan publik.", "roleConfidence": "", "roleReason": "", "match_tier": "UNMATCHED_IPM", "match_score": "0.10", "match_reason": "tidak ada RUPTL row yang cocok", "name_source": "ipm_osm", "capacity_mw_source": "ipm_osm", "type_source": "ipm_osm", "role_source": "ipm_osm", "status_source": "ipm_osm", "coord_source": "ipm_osm", "capacity_mw_ipm": "30.0", "type_ipm": "PLTU", "role_ipm": "Utility", "status_norm": "OPERATIONAL", "action_norm": "", "is_placeholder": false}}, {"type": "Feature", "geometry": {"type": "Point", "coordinates": [128.2828028, 2.0049563]}, "properties": {"id": "GEN-MLK-0002", "name": "PLTS Morotai", "osm_name": "PLTS Morotai", "type": "PLTS", "capacity_mw": "0.6", "province": "Maluku Utara", "system": "Maluku", "status": "existing", "operator": "PT PLN", "method": "photovoltaic", "osm_id": "way/188467200", "osm_source": "solar", "review_flag": "", "source_id": "OSM-overpass", "capacity_unit": "MWp", "role": "Utility", "roleDescription": "Memasok listrik ke sistem kelistrikan publik.", "roleConfidence": "", "roleReason": "", "match_tier": "PROBABLE_MATCH", "match_score": "0.80", "match_reason": "token set sama, jarak=0.0 km", "ruptl_id": "RUPTL-MALUKU-P-0067", "name_source": "ipm_osm", "capacity_mw_source": "ipm_osm", "type_source": "ipm_osm", "role_source": "ipm_osm", "operator_source": "ipm_osm", "status_source": "ipm_osm", "coord_source": "ipm_osm", "capacity_mw_ipm": "0.6", "capacity_mw_ruptl": "20.0", "type_ipm": "PLTS", "type_ruptl": "PLTMG", "role_ipm": "Utility", "has_capacity_conflict": "true", "has_type_conflict": "true", "has_location_conflict": "false", "target_cod_year_ruptl": "2032", "source_page_ruptl": "1097", "status_norm": "", "action_norm": "", "is_placeholder": false}}, {"type": "Feature", "geometry": {"type": "Point", "coordinates": [127.3882774, 0.7392645]}, "properties": {"id": "GEN-MLK-0004", "name": "PLTU Tidore", "osm_name": "PLTU Tidore", "type": "PLTU", "capacity_mw": "14.0", "province": "Maluku Utara", "system": "Maluku", "status": "existing", "operator": "", "method": "", "osm_id": "way/391581020", "osm_source": "coal", "review_flag": "", "source_id": "OSM-overpass", "capacity_unit": "MW", "role": "Utility", "roleDescription": "Memasok listrik ke sistem kelistrikan publik.", "roleConfidence": "", "roleReason": "", "match_tier": "PROBABLE_MATCH", "match_score": "0.80", "match_reason": "nama-stem sama ('tidore'), jarak 0.0 km", "ruptl_id": "RUPTL-MALUKU-P-0071", "name_source": "ipm_osm", "capacity_mw_source": "ipm_osm", "type_source": "ipm_osm", "role_source": "ipm_osm", "status_source": "ipm_osm", "coord_source": "ipm_osm", "capacity_mw_ipm": "14.0", "capacity_mw_ruptl": "20.0", "type_ipm": "PLTU", "type_ruptl": "PLTMG", "role_ipm": "Utility", "has_capacity_conflict": "true", "has_type_conflict": "true", "has_location_conflict": "false", "target_cod_year_ruptl": "2027", "source_page_ruptl": "1097", "status_norm": "", "action_norm": "", "is_placeholder": false}}, {"type": "Feature", "geometry": {"type": "Point", "coordinates": [128.9463252, -3.3062485]}, "properties": {"id": "GEN-MLK-0005", "name": "PLTMG Seram", "osm_name": "PLTMG Seram", "type": "PLTMG", "capacity_mw": "20.0", "province": "Maluku", "system": "Maluku", "status": "existing", "operator": "", "method": "combustion", "osm_id": "way/501327305", "osm_source": "gas", "review_flag": "", "source_id": "OSM-overpass", "capacity_unit": "MW", "role": "Utility", "roleDescription": "Memasok listrik ke sistem kelistrikan publik.", "roleConfidence": "", "roleReason": "", "match_tier": "PROBABLE_MATCH", "match_score": "0.80", "match_reason": "token set sama, jarak=0.0 km", "ruptl_id": "RUPTL-MALUKU-P-0034", "name_source": "ipm_osm", "capacity_mw_source": "ipm_osm", "type_source": "ipm_osm", "role_source": "ipm_osm", "status_source": "ipm_osm", "coord_source": "ipm_osm", "capacity_mw_ipm": "20.0", "capacity_mw_ruptl": "25.0", "type_ipm": "PLTMG", "type_ruptl": "PLTP", "role_ipm": "Utility", "has_capacity_conflict": "false", "has_type_conflict": "true", "has_location_conflict": "false", "target_cod_year_ruptl": "2029", "source_page_ruptl": "1077", "status_norm": "", "action_norm": "", "is_placeholder": false}}, {"type": "Feature", "geometry": {"type": "Point", "coordinates": [127.9064399, -3.6530298]}, "properties": {"id": "GEN-MLK-0006", "name": "PLTS Pulau Tiga", "osm_name": "PLTS Pulau Tiga", "type": "PLTS", "capacity_mw": "0.075", "province": "Maluku", "system": "Maluku", "status": "existing", "operator": "", "method": "photovoltaic", "osm_id": "way/522713233", "osm_source": "solar", "review_flag": "", "source_id": "OSM-overpass", "capacity_unit": "MWp", "role": "Community", "roleDescription": "Memasok listrik untuk komunitas lokal, desa terpencil, atau pulau kecil.", "roleConfidence": "High", "roleReason": "Sistem elektrifikasi pulau kecil", "match_tier": "UNMATCHED_IPM", "match_score": "0.10", "match_reason": "tidak ada RUPTL row yang cocok", "name_source": "ipm_osm", "capacity_mw_source": "ipm_osm", "type_source": "ipm_osm", "role_source": "ipm_osm", "status_source": "ipm_osm", "coord_source": "ipm_osm", "capacity_mw_ipm": "0.075", "type_ipm": "PLTS", "role_ipm": "Community", "status_norm": "OPERATIONAL", "action_norm": "", "is_placeholder": false}}, {"type": "Feature", "geometry": {"type": "Point", "coordinates": [127.6552233, -3.231044]}, "properties": {"id": "GEN-MLK-0007", "name": "PLTS Tahalupu", "osm_name": "PLTS Tahalupu", "type": "PLTS", "capacity_mw": "0.1", "province": "Maluku", "system": "Maluku", "status": "existing", "operator": "", "method": "photovoltaic", "osm_id": "way/799249943", "osm_source": "solar", "review_flag": "", "source_id": "OSM-overpass", "capacity_unit": "MWp", "role": "Community", "roleDescription": "Memasok listrik untuk komunitas lokal, desa terpencil, atau pulau kecil.", "roleConfidence": "High", "roleReason": "Sistem elektrifikasi pulau kecil", "match_tier": "UNMATCHED_IPM", "match_score": "0.10", "match_reason": "tidak ada RUPTL row yang cocok", "name_source": "ipm_osm", "capacity_mw_source": "ipm_osm", "type_source": "ipm_osm", "role_source": "ipm_osm", "status_source": "ipm_osm", "coord_source": "ipm_osm", "capacity_mw_ipm": "0.1", "type_ipm": "PLTS", "role_ipm": "Community", "status_norm": "OPERATIONAL", "action_norm": "", "is_placeholder": false}}, {"type": "Feature", "geometry": {"type": "Point", "coordinates": [127.3062418, 0.7667497]}, "properties": {"id": "GEN-MLK-0008", "name": "PLTMG Ternate", "osm_name": "PLTMG Ternate", "type": "PLTMG", "capacity_mw": "30.0", "province": "Maluku Utara", "system": "Maluku", "status": "existing", "operator": "", "method": "combustion", "osm_id": "way/951367598", "osm_source": "gas", "review_flag": "", "source_id": "OSM-overpass", "capacity_unit": "MW", "role": "Utility", "roleDescription": "Memasok listrik ke sistem kelistrikan publik.", "roleConfidence": "", "roleReason": "", "match_tier": "PROBABLE_MATCH", "match_score": "0.80", "match_reason": "token set sama, jarak=0.0 km", "ruptl_id": "RUPTL-MALUKU-P-0072", "name_source": "ipm_osm", "capacity_mw_source": "ipm_osm", "type_source": "ipm_osm", "role_source": "ipm_osm", "status_source": "ipm_osm", "coord_source": "ipm_osm", "capacity_mw_ipm": "30.0", "capacity_mw_ruptl": "20.0", "type_ipm": "PLTMG", "type_ruptl": "PLTMG", "role_ipm": "Utility", "has_capacity_conflict": "true", "has_type_conflict": "false", "has_location_conflict": "false", "target_cod_year_ruptl": "2032", "source_page_ruptl": "1097", "status_norm": "", "action_norm": "", "is_placeholder": false}}, {"type": "Feature", "geometry": {"type": "Point", "coordinates": [127.3705052, 0.7608672]}, "properties": {"id": "GEN-MLK-0009", "name": "PLTD Kayu Merah", "osm_name": "PLTD Kayu Merah", "type": "PLTD", "capacity_mw": "25.0", "province": "Maluku Utara", "system": "Maluku", "status": "existing", "operator": "", "method": "", "osm_id": "way/951367599", "osm_source": "diesel", "review_flag": "", "source_id": "OSM-overpass", "capacity_unit": "MW", "role": "Utility", "roleDescription": "Memasok listrik ke sistem kelistrikan publik.", "roleConfidence": "", "roleReason": "", "match_tier": "UNMATCHED_IPM", "match_score": "0.10", "match_reason": "tidak ada RUPTL row yang cocok", "name_source": "ipm_osm", "capacity_mw_source": "ipm_osm", "type_source": "ipm_osm", "role_source": "ipm_osm", "status_source": "ipm_osm", "coord_source": "ipm_osm", "capacity_mw_ipm": "25.0", "type_ipm": "PLTD", "role_ipm": "Utility", "status_norm": "OPERATIONAL", "action_norm": "", "is_placeholder": false}}, {"type": "Feature", "geometry": {"type": "Point", "coordinates": [132.7721921, -5.5550791]}, "properties": {"id": "GEN-MLK-0010", "name": "PLTMG Dullah", "osm_name": "PLTMG Dullah", "type": "PLTMG", "capacity_mw": "20.0", "province": "Maluku", "system": "Maluku", "status": "existing", "operator": "", "method": "combustion", "osm_id": "way/1082807974", "osm_source": "gas", "review_flag": "NO_CAPACITY", "source_id": "OSM-overpass", "capacity_unit": "MW", "role": "Utility", "roleDescription": "Memasok listrik ke sistem kelistrikan publik.", "roleConfidence": "", "roleReason": "", "match_tier": "UNMATCHED_IPM", "match_score": "0.10", "match_reason": "tidak ada RUPTL row yang cocok", "name_source": "ipm_osm", "capacity_mw_source": "ipm_osm", "type_source": "ipm_osm", "role_source": "ipm_osm", "status_source": "ipm_osm", "coord_source": "ipm_osm", "capacity_mw_ipm": "20.0", "type_ipm": "PLTMG", "role_ipm": "Utility", "status_norm": "OPERATIONAL", "action_norm": "", "is_placeholder": false}}, {"type": "Feature", "geometry": {"type": "Point", "coordinates": [128.0013922, 0.4765027]}, "properties": {"id": "GEN-MLK-0013", "name": "PLTU Weda Bay", "osm_name": "PLTU Weda Bay Power Plant（韦达贝燃煤发电厂）", "type": "PLTU", "capacity_mw": "4000.0", "province": "Maluku Utara", "system": "Maluku", "status": "existing", "operator": "", "method": "combustion", "osm_id": "way/1152758557", "osm_source": "coal", "review_flag": "CAPACITY_FLAG_4GW_verify_multiunit", "source_id": "OSM-overpass", "capacity_unit": "MW", "role": "Captive", "roleDescription": "Memasok listrik untuk kebutuhan industri atau pelanggan khusus.", "roleConfidence": "High", "roleReason": "Nama/operator menunjukkan fasilitas smelter", "match_tier": "UNMATCHED_IPM", "match_score": "0.10", "match_reason": "tidak ada RUPTL row yang cocok", "name_source": "ipm_osm", "capacity_mw_source": "ipm_osm", "type_source": "ipm_osm", "role_source": "ipm_osm", "status_source": "ipm_osm", "coord_source": "ipm_osm", "capacity_mw_ipm": "4000.0", "type_ipm": "PLTU", "role_ipm": "Captive", "status_norm": "OPERATIONAL", "action_norm": "", "is_placeholder": false}}, {"type": "Feature", "geometry": {"type": "Point", "coordinates": [128.2999183, 2.0377257]}, "properties": {"id": "GEN-MLK-0014", "name": "PLTS Daruba", "osm_name": "", "type": "PLTS", "capacity_mw": "0.600", "province": "Maluku Utara", "system": "Maluku", "status": "existing", "operator": "", "method": "", "osm_id": "way/1204724030", "osm_source": "solar", "review_flag": "NO_NAME;NO_CAPACITY", "source_id": "OSM-overpass", "capacity_unit": "MWp", "role": "Utility", "roleDescription": "Memasok listrik ke sistem kelistrikan publik.", "roleConfidence": "", "roleReason": "", "match_tier": "UNMATCHED_IPM", "match_score": "0.10", "match_reason": "tidak ada RUPTL row yang cocok", "name_source": "ipm_osm", "capacity_mw_source": "ipm_osm", "type_source": "ipm_osm", "role_source": "ipm_osm", "status_source": "ipm_osm", "coord_source": "ipm_osm", "capacity_mw_ipm": "0.600", "type_ipm": "PLTS", "role_ipm": "Utility", "status_norm": "OPERATIONAL", "action_norm": "", "is_placeholder": false}}, {"type": "Feature", "geometry": {"type": "Point", "coordinates": [128.1798122, 2.2957053]}, "properties": {"id": "GEN-MLK-0015", "name": "PLTS Terpusat Desa Posi-Posi", "osm_name": "", "type": "PLTS", "capacity_mw": "0.0005", "province": "Maluku Utara", "system": "Maluku", "status": "existing", "operator": "", "method": "", "osm_id": "way/1205552684", "osm_source": "solar", "review_flag": "NO_NAME;NO_CAPACITY", "source_id": "OSM-overpass", "capacity_unit": "MWp", "role": "Community", "roleDescription": "Memasok listrik untuk komunitas lokal, desa terpencil, atau pulau kecil.", "roleConfidence": "High", "roleReason": "Sistem elektrifikasi desa", "match_tier": "UNMATCHED_IPM", "match_score": "0.10", "match_reason": "tidak ada RUPTL row yang cocok", "name_source": "ipm_osm", "capacity_mw_source": "ipm_osm", "type_source": "ipm_osm", "role_source": "ipm_osm", "status_source": "ipm_osm", "coord_source": "ipm_osm", "capacity_mw_ipm": "0.0005", "type_ipm": "PLTS", "role_ipm": "Community", "status_norm": "OPERATIONAL", "action_norm": "", "is_placeholder": false}}, {"type": "Feature", "geometry": {"type": "Point", "coordinates": [128.178785, -3.695943]}, "properties": {"id": "RUPTL:RUPTL-MALUKU-P-0001", "name": "Ambon 2", "type": "PLTMG", "capacity_mw": 27.0, "province": "Maluku", "system": "", "status": "Construction", "role": "", "operator": "", "match_tier": "UNMATCHED_RUPTL", "match_score": "0.10", "match_reason": "tidak ada IPM row yang cocok dalam thresholds", "ruptl_id": "RUPTL-MALUKU-P-0001", "coord_source": "ruptl_geocoded", "capacity_mw_ipm": "", "capacity_mw_ruptl": "27.0", "type_ipm": "", "type_ruptl": "PLTMG", "role_ipm": "", "role_ruptl": "", "name_source": "ruptl", "capacity_mw_source": "ruptl", "type_source": "ruptl", "role_source": "ruptl", "operator_source": "ruptl", "status_source": "ruptl", "has_capacity_conflict": "false", "has_type_conflict": "false", "has_role_conflict": "false", "has_location_conflict": "false", "ipm_id": "", "coord_confidence": "medium", "is_placeholder": false, "source_page": "1076", "source_table": "Tabel C7.14", "target_cod_year": "2025", "developer": "SH-PLN", "action_norm": "NEW", "status_norm": "CONSTRUCTION", "target_cod_year_ruptl": ""}}, {"type": "Feature", "geometry": {"type": "Point", "coordinates": [128.178785, -3.695943]}, "properties": {"id": "RUPTL:RUPTL-MALUKU-P-0003", "name": "Ambon (Kuota) Tersebar", "type": "PLTS", "capacity_mw": 30.0, "province": "Maluku", "system": "", "status": "Planned", "role": "", "operator": "", "match_tier": "UNMATCHED_RUPTL", "match_score": "0.10", "match_reason": "tidak ada IPM row yang cocok dalam thresholds", "ruptl_id": "RUPTL-MALUKU-P-0003", "coord_source": "ruptl_geocoded", "capacity_mw_ipm": "", "capacity_mw_ruptl": "30.0", "type_ipm": "", "type_ruptl": "PLTS", "role_ipm": "", "role_ruptl": "", "name_source": "ruptl", "capacity_mw_source": "ruptl", "type_source": "ruptl", "role_source": "ruptl", "operator_source": "ruptl", "status_source": "ruptl", "has_capacity_conflict": "false", "has_type_conflict": "false", "has_role_conflict": "false", "has_location_conflict": "false", "ipm_id": "", "coord_confidence": "medium", "is_placeholder": false, "source_page": "1076", "source_table": "Tabel C7.14", "target_cod_year": "2027", "developer": "IPP", "action_norm": "NEW", "status_norm": "PLANNED", "target_cod_year_ruptl": ""}}, {"type": "Feature", "geometry": {"type": "Point", "coordinates": [128.178785, -3.695943]}, "properties": {"id": "RUPTL:RUPTL-MALUKU-P-0004", "name": "Ambon (Kuota) Tersebar", "type": "PLTS", "capacity_mw": 10.0, "province": "Maluku", "system": "", "status": "Planned", "role": "", "operator": "", "match_tier": "UNMATCHED_RUPTL", "match_score": "0.10", "match_reason": "tidak ada IPM row yang cocok dalam thresholds", "ruptl_id": "RUPTL-MALUKU-P-0004", "coord_source": "ruptl_geocoded", "capacity_mw_ipm": "", "capacity_mw_ruptl": "10.0", "type_ipm": "", "type_ruptl": "PLTS", "role_ipm": "", "role_ruptl": "", "name_source": "ruptl", "capacity_mw_source": "ruptl", "type_source": "ruptl", "role_source": "ruptl", "operator_source": "ruptl", "status_source": "ruptl", "has_capacity_conflict": "false", "has_type_conflict": "false", "has_role_conflict": "false", "has_location_conflict": "false", "ipm_id": "", "coord_confidence": "medium", "is_placeholder": false, "source_page": "1077", "target_cod_year": "2029", "developer": "IPP", "action_norm": "NEW", "status_norm": "PLANNED", "target_cod_year_ruptl": ""}}, {"type": "Feature", "geometry": {"type": "Point", "coordinates": [128.298899, -3.587202]}, "properties": {"id": "RUPTL:RUPTL-MALUKU-P-0005", "name": "Tulehu (FTP2)", "type": "PLTP", "capacity_mw": 12.0, "province": "Maluku", "system": "", "status": "Planned", "role": "", "operator": "", "match_tier": "UNMATCHED_RUPTL", "match_score": "0.10", "match_reason": "tidak ada IPM row yang cocok dalam thresholds", "ruptl_id": "RUPTL-MALUKU-P-0005", "coord_source": "ruptl_geocoded", "capacity_mw_ipm": "", "capacity_mw_ruptl": "12.0", "type_ipm": "", "type_ruptl": "PLTP", "role_ipm": "", "role_ruptl": "", "name_source": "ruptl", "capacity_mw_source": "ruptl", "type_source": "ruptl", "role_source": "ruptl", "operator_source": "ruptl", "status_source": "ruptl", "has_capacity_conflict": "false", "has_type_conflict": "false", "has_role_conflict": "false", "has_location_conflict": "false", "ipm_id": "", "coord_confidence": "medium", "is_placeholder": false, "source_page": "1077", "target_cod_year": "2031", "developer": "SH-PLN", "action_norm": "NEW", "status_norm": "PLANNED", "target_cod_year_ruptl": ""}}, {"type": "Feature", "geometry": {"type": "Point", "coordinates": [128.178785, -3.695943]}, "properties": {"id": "RUPTL:RUPTL-MALUKU-P-0006", "name": "Ambon (Kuota) Tersebar", "type": "PLTB", "capacity_mw": 30.0, "province": "Maluku", "system": "", "status": "Planned", "role": "", "operator": "", "match_tier": "UNMATCHED_RUPTL", "match_score": "0.10", "match_reason": "tidak ada IPM row yang cocok dalam thresholds", "ruptl_id": "RUPTL-MALUKU-P-0006", "coord_source": "ruptl_geocoded", "capacity_mw_ipm": "", "capacity_mw_ruptl": "30.0", "type_ipm": "", "type_ruptl": "PLTB", "role_ipm": "", "role_ruptl": "", "name_source": "ruptl", "capacity_mw_source": "ruptl", "type_source": "ruptl", "role_source": "ruptl", "operator_source": "ruptl", "status_source": "ruptl", "has_capacity_conflict": "false", "has_type_conflict": "false", "has_role_conflict": "false", "has_location_conflict": "false", "ipm_id": "", "coord_confidence": "medium", "is_placeholder": false, "source_page": "1077", "target_cod_year": "2031", "developer": "IPP", "action_norm": "NEW", "status_norm": "PLANNED", "target_cod_year_ruptl": ""}}, {"type": "Feature", "geometry": {"type": "Point", "coordinates": [128.178785, -3.695943]}, "properties": {"id": "RUPTL:RUPTL-MALUKU-P-0007", "name": "Ambon (Kuota) Tersebar", "type": "PLTS", "capacity_mw": 10.0, "province": "Maluku", "system": "", "status": "Planned", "role": "", "operator": "", "match_tier": "UNMATCHED_RUPTL", "match_score": "0.10", "match_reason": "tidak ada IPM row yang cocok dalam thresholds", "ruptl_id": "RUPTL-MALUKU-P-0007", "coord_source": "ruptl_geocoded", "capacity_mw_ipm": "", "capacity_mw_ruptl": "10.0", "type_ipm": "", "type_ruptl": "PLTS", "role_ipm": "", "role_ruptl": "", "name_source": "ruptl", "capacity_mw_source": "ruptl", "type_source": "ruptl", "role_source": "ruptl", "operator_source": "ruptl", "status_source": "ruptl", "has_capacity_conflict": "false", "has_type_conflict": "false", "has_role_conflict": "false", "has_location_conflict": "false", "ipm_id": "", "coord_confidence": "medium", "is_placeholder": false, "source_page": "1077", "target_cod_year": "2033", "developer": "IPP", "action_norm": "NEW", "status_norm": "PLANNED", "target_cod_year_ruptl": ""}}, {"type": "Feature", "geometry": {"type": "Point", "coordinates": [130.414783, -3.172914]}, "properties": {"id": "RUPTL:RUPTL-MALUKU-P-0008", "name": "Bula", "type": "PLTS", "capacity_mw": 3.0, "province": "Maluku", "system": "", "status": "Planned", "role": "", "operator": "", "match_tier": "UNMATCHED_RUPTL", "match_score": "0.10", "match_reason": "tidak ada IPM row yang cocok dalam thresholds", "ruptl_id": "RUPTL-MALUKU-P-0008", "coord_source": "ruptl_geocoded", "capacity_mw_ipm": "", "capacity_mw_ruptl": "3.0", "type_ipm": "", "type_ruptl": "PLTS", "role_ipm": "", "role_ruptl": "", "name_source": "ruptl", "capacity_mw_source": "ruptl", "type_source": "ruptl", "role_source": "ruptl", "operator_source": "ruptl", "status_source": "ruptl", "has_capacity_conflict": "false", "has_type_conflict": "false", "has_role_conflict": "false", "has_location_conflict": "false", "ipm_id": "", "coord_confidence": "medium", "is_placeholder": false, "source_page": "1077", "target_cod_year": "2026", "developer": "IPP", "action_norm": "NEW", "status_norm": "PLANNED", "target_cod_year_ruptl": ""}}, {"type": "Feature", "geometry": {"type": "Point", "coordinates": [130.414783, -3.172914]}, "properties": {"id": "RUPTL:RUPTL-MALUKU-P-0009", "name": "Bula", "type": "PLTMG", "capacity_mw": 10.0, "province": "Maluku", "system": "", "status": "Committed", "role": "", "operator": "", "match_tier": "UNMATCHED_RUPTL", "match_score": "0.10", "match_reason": "tidak ada IPM row yang cocok dalam thresholds", "ruptl_id": "RUPTL-MALUKU-P-0009", "coord_source": "ruptl_geocoded", "capacity_mw_ipm": "", "capacity_mw_ruptl": "10.0", "type_ipm": "", "type_ruptl": "PLTMG", "role_ipm": "", "role_ruptl": "", "name_source": "ruptl", "capacity_mw_source": "ruptl", "type_source": "ruptl", "role_source": "ruptl", "operator_source": "ruptl", "status_source": "ruptl", "has_capacity_conflict": "false", "has_type_conflict": "false", "has_role_conflict": "false", "has_location_conflict": "false", "ipm_id": "", "coord_confidence": "medium", "is_placeholder": false, "source_page": "1077", "target_cod_year": "2027", "developer": "SH-PLN", "action_norm": "NEW", "status_norm": "COMMITTED", "target_cod_year_ruptl": ""}}, {"type": "Feature", "geometry": {"type": "Point", "coordinates": [130.414783, -3.172914]}, "properties": {"id": "RUPTL:RUPTL-MALUKU-P-0010", "name": "Bula", "type": "PLTS", "capacity_mw": 5.0, "province": "Maluku", "system": "", "status": "Planned", "role": "", "operator": "", "match_tier": "UNMATCHED_RUPTL", "match_score": "0.10", "match_reason": "tidak ada IPM row yang cocok dalam thresholds", "ruptl_id": "RUPTL-MALUKU-P-0010", "coord_source": "ruptl_geocoded", "capacity_mw_ipm": "", "capacity_mw_ruptl": "5.0", "type_ipm": "", "type_ruptl": "PLTS", "role_ipm": "", "role_ruptl": "", "name_source": "ruptl", "capacity_mw_source": "ruptl", "type_source": "ruptl", "role_source": "ruptl", "operator_source": "ruptl", "status_source": "ruptl", "has_capacity_conflict": "false", "has_type_conflict": "false", "has_role_conflict": "false", "has_location_conflict": "false", "ipm_id": "", "coord_confidence": "medium", "is_placeholder": false, "source_page": "1077", "target_cod_year": "2030", "developer": "SH-PLN", "action_norm": "NEW", "status_norm": "PLANNED", "target_cod_year_ruptl": ""}}, {"type": "Feature", "geometry": {"type": "Point", "coordinates": [127.091457, -3.21432]}, "properties": {"id": "RUPTL:RUPTL-MALUKU-P-0011", "name": "Namlea", "type": "PLTMG", "capacity_mw": 10.0, "province": "Maluku", "system": "", "status": "Construction", "role": "", "operator": "", "match_tier": "UNMATCHED_RUPTL", "match_score": "0.10", "match_reason": "tidak ada IPM row yang cocok dalam thresholds", "ruptl_id": "RUPTL-MALUKU-P-0011", "coord_source": "ruptl_geocoded", "capacity_mw_ipm": "", "capacity_mw_ruptl": "10.0", "type_ipm": "", "type_ruptl": "PLTMG", "role_ipm": "", "role_ruptl": "", "name_source": "ruptl", "capacity_mw_source": "ruptl", "type_source": "ruptl", "role_source": "ruptl", "operator_source": "ruptl", "status_source": "ruptl", "has_capacity_conflict": "false", "has_type_conflict": "false", "has_role_conflict": "false", "has_location_conflict": "false", "ipm_id": "", "coord_confidence": "medium", "is_placeholder": false, "source_page": "1077", "target_cod_year": "2025", "developer": "PLN", "action_norm": "NEW", "status_norm": "CONSTRUCTION", "target_cod_year_ruptl": ""}}, {"type": "Feature", "geometry": {"type": "Point", "coordinates": [127.091457, -3.21432]}, "properties": {"id": "RUPTL:RUPTL-MALUKU-P-0012", "name": "Namlea", "type": "PLTS", "capacity_mw": 5.0, "province": "Maluku", "system": "", "status": "Planned", "role": "", "operator": "", "match_tier": "UNMATCHED_RUPTL", "match_score": "0.10", "match_reason": "tidak ada IPM row yang cocok dalam thresholds", "ruptl_id": "RUPTL-MALUKU-P-0012", "coord_source": "ruptl_geocoded", "capacity_mw_ipm": "", "capacity_mw_ruptl": "5.0", "type_ipm": "", "type_ruptl": "PLTS", "role_ipm": "", "role_ruptl": "", "name_source": "ruptl", "capacity_mw_source": "ruptl", "type_source": "ruptl", "role_source": "ruptl", "operator_source": "ruptl", "status_source": "ruptl", "has_capacity_conflict": "false", "has_type_conflict": "false", "has_role_conflict": "false", "has_location_conflict": "false", "ipm_id": "", "coord_confidence": "medium", "is_placeholder": false, "source_page": "1077", "target_cod_year": "2025", "developer": "IPP", "action_norm": "NEW", "status_norm": "PLANNED", "target_cod_year_ruptl": ""}}, {"type": "Feature", "geometry": {"type": "Point", "coordinates": [126.751061, -3.834022]}, "properties": {"id": "RUPTL:RUPTL-MALUKU-P-0013", "name": "Namrole", "type": "PLTMG", "capacity_mw": 10.0, "province": "Maluku", "system": "", "status": "Committed", "role": "", "operator": "", "match_tier": "UNMATCHED_RUPTL", "match_score": "0.10", "match_reason": "tidak ada IPM row yang cocok dalam thresholds", "ruptl_id": "RUPTL-MALUKU-P-0013", "coord_source": "ruptl_geocoded", "capacity_mw_ipm": "", "capacity_mw_ruptl": "10.0", "type_ipm": "", "type_ruptl": "PLTMG", "role_ipm": "", "role_ruptl": "", "name_source": "ruptl", "capacity_mw_source": "ruptl", "type_source": "ruptl", "role_source": "ruptl", "operator_source": "ruptl", "status_source": "ruptl", "has_capacity_conflict": "false", "has_type_conflict": "false", "has_role_conflict": "false", "has_location_conflict": "false", "ipm_id": "", "coord_confidence": "medium", "is_placeholder": false, "source_page": "1077", "target_cod_year": "2026", "developer": "SH-PLN", "action_norm": "NEW", "status_norm": "COMMITTED", "target_cod_year_ruptl": ""}}, {"type": "Feature", "geometry": {"type": "Point", "coordinates": [127.091457, -3.21432]}, "properties": {"id": "RUPTL:RUPTL-MALUKU-P-0015", "name": "Namlea 2", "type": "PLTBm", "capacity_mw": 10.0, "province": "Maluku", "system": "", "status": "Planned", "role": "", "operator": "", "match_tier": "UNMATCHED_RUPTL", "match_score": "0.10", "match_reason": "tidak ada IPM row yang cocok dalam thresholds", "ruptl_id": "RUPTL-MALUKU-P-0015", "coord_source": "ruptl_geocoded", "capacity_mw_ipm": "", "capacity_mw_ruptl": "10.0", "type_ipm": "", "type_ruptl": "PLTBm", "role_ipm": "", "role_ruptl": "", "name_source": "ruptl", "capacity_mw_source": "ruptl", "type_source": "ruptl", "role_source": "ruptl", "operator_source": "ruptl", "status_source": "ruptl", "has_capacity_conflict": "false", "has_type_conflict": "false", "has_role_conflict": "false", "has_location_conflict": "false", "ipm_id": "", "coord_confidence": "medium", "is_placeholder": false, "source_page": "1077", "target_cod_year": "2029", "developer": "IPP", "action_norm": "NEW", "status_norm": "PLANNED", "target_cod_year_ruptl": ""}}, {"type": "Feature", "geometry": {"type": "Point", "coordinates": [126.866801, -3.48361]}, "properties": {"id": "RUPTL:RUPTL-MALUKU-P-0016", "name": "Wai Tina", "type": "PLTA", "capacity_mw": 7.0, "province": "Maluku", "system": "", "status": "Planned", "role": "", "operator": "", "match_tier": "UNMATCHED_RUPTL", "match_score": "0.10", "match_reason": "tidak ada IPM row yang cocok dalam thresholds", "ruptl_id": "RUPTL-MALUKU-P-0016", "coord_source": "ruptl_geocoded", "capacity_mw_ipm": "", "capacity_mw_ruptl": "7.0", "type_ipm": "", "type_ruptl": "PLTA", "role_ipm": "", "role_ruptl": "", "name_source": "ruptl", "capacity_mw_source": "ruptl", "type_source": "ruptl", "role_source": "ruptl", "operator_source": "ruptl", "status_source": "ruptl", "has_capacity_conflict": "false", "has_type_conflict": "false", "has_role_conflict": "false", "has_location_conflict": "false", "ipm_id": "", "coord_confidence": "medium", "is_placeholder": false, "source_page": "1077", "target_cod_year": "2030", "developer": "IPP", "action_norm": "NEW", "status_norm": "PLANNED", "target_cod_year_ruptl": ""}}, {"type": "Feature", "geometry": {"type": "Point", "coordinates": [128.655762, -3.572695]}, "properties": {"id": "RUPTL:RUPTL-MALUKU-P-0027", "name": "Saparua 2", "type": "PLTS", "capacity_mw": 5.0, "province": "Maluku", "system": "", "status": "Planned", "role": "", "operator": "", "match_tier": "UNMATCHED_RUPTL", "match_score": "0.10", "match_reason": "tidak ada IPM row yang cocok dalam thresholds", "ruptl_id": "RUPTL-MALUKU-P-0027", "coord_source": "ruptl_geocoded", "capacity_mw_ipm": "", "capacity_mw_ruptl": "5.0", "type_ipm": "", "type_ruptl": "PLTS", "role_ipm": "", "role_ruptl": "", "name_source": "ruptl", "capacity_mw_source": "ruptl", "type_source": "ruptl", "role_source": "ruptl", "operator_source": "ruptl", "status_source": "ruptl", "has_capacity_conflict": "false", "has_type_conflict": "false", "has_role_conflict": "false", "has_location_conflict": "false", "ipm_id": "", "coord_confidence": "medium", "is_placeholder": false, "source_page": "1077", "target_cod_year": "2027", "developer": "PLN", "action_norm": "NEW", "status_norm": "PLANNED", "target_cod_year_ruptl": ""}}, {"type": "Feature", "geometry": {"type": "Point", "coordinates": [131.304876, -7.974171]}, "properties": {"id": "RUPTL:RUPTL-MALUKU-P-0028", "name": "Saumlaki", "type": "PLTMG", "capacity_mw": 10.0, "province": "Maluku", "system": "", "status": "Construction", "role": "", "operator": "", "match_tier": "UNMATCHED_RUPTL", "match_score": "0.10", "match_reason": "tidak ada IPM row yang cocok dalam thresholds", "ruptl_id": "RUPTL-MALUKU-P-0028", "coord_source": "ruptl_geocoded", "capacity_mw_ipm": "", "capacity_mw_ruptl": "10.0", "type_ipm": "", "type_ruptl": "PLTMG", "role_ipm": "", "role_ruptl": "", "name_source": "ruptl", "capacity_mw_source": "ruptl", "type_source": "ruptl", "role_source": "ruptl", "operator_source": "ruptl", "status_source": "ruptl", "has_capacity_conflict": "false", "has_type_conflict": "false", "has_role_conflict": "false", "has_location_conflict": "false", "ipm_id": "", "coord_confidence": "medium", "is_placeholder": false, "source_page": "1077", "target_cod_year": "2025", "developer": "PLN", "action_norm": "NEW", "status_norm": "CONSTRUCTION", "target_cod_year_ruptl": ""}}, {"type": "Feature", "geometry": {"type": "Point", "coordinates": [131.304876, -7.974171]}, "properties": {"id": "RUPTL:RUPTL-MALUKU-P-0029", "name": "Saumlaki 2", "type": "PLTBm", "capacity_mw": 10.0, "province": "Maluku", "system": "", "status": "Planned", "role": "", "operator": "", "match_tier": "UNMATCHED_RUPTL", "match_score": "0.10", "match_reason": "tidak ada IPM row yang cocok dalam thresholds", "ruptl_id": "RUPTL-MALUKU-P-0029", "coord_source": "ruptl_geocoded", "capacity_mw_ipm": "", "capacity_mw_ruptl": "10.0", "type_ipm": "", "type_ruptl": "PLTBm", "role_ipm": "", "role_ruptl": "", "name_source": "ruptl", "capacity_mw_source": "ruptl", "type_source": "ruptl", "role_source": "ruptl", "operator_source": "ruptl", "status_source": "ruptl", "has_capacity_conflict": "false", "has_type_conflict": "false", "has_role_conflict": "false", "has_location_conflict": "false", "ipm_id": "", "coord_confidence": "medium", "is_placeholder": false, "source_page": "1077", "target_cod_year": "2029", "developer": "IPP", "action_norm": "NEW", "status_norm": "PLANNED", "target_cod_year_ruptl": ""}}, {"type": "Feature", "geometry": {"type": "Point", "coordinates": [128.985197, -3.295317]}, "properties": {"id": "RUPTL:RUPTL-MALUKU-P-0035", "name": "Nua (Masohi)", "type": "PLTM", "capacity_mw": 6.4, "province": "Maluku", "system": "", "status": "Planned", "role": "", "operator": "", "match_tier": "UNMATCHED_RUPTL", "match_score": "0.10", "match_reason": "tidak ada IPM row yang cocok dalam thresholds", "ruptl_id": "RUPTL-MALUKU-P-0035", "coord_source": "ruptl_geocoded", "capacity_mw_ipm": "", "capacity_mw_ruptl": "6.4", "type_ipm": "", "type_ruptl": "PLTM", "role_ipm": "", "role_ruptl": "", "name_source": "ruptl", "capacity_mw_source": "ruptl", "type_source": "ruptl", "role_source": "ruptl", "operator_source": "ruptl", "status_source": "ruptl", "has_capacity_conflict": "false", "has_type_conflict": "false", "has_role_conflict": "false", "has_location_conflict": "false", "ipm_id": "", "coord_confidence": "medium", "is_placeholder": false, "source_page": "1077", "target_cod_year": "2030", "developer": "SH-PLN", "action_norm": "NEW", "status_norm": "PLANNED", "target_cod_year_ruptl": ""}}, {"type": "Feature", "geometry": {"type": "Point", "coordinates": [127.553693, 0.701766]}, "properties": {"id": "RUPTL:RUPTL-MALUKU-P-0045", "name": "Sofifi", "type": "PLTU", "capacity_mw": 5.0, "province": "Maluku Utara", "system": "", "status": "Construction", "role": "", "operator": "", "match_tier": "UNMATCHED_RUPTL", "match_score": "0.10", "match_reason": "tidak ada IPM row yang cocok dalam thresholds", "ruptl_id": "RUPTL-MALUKU-P-0045", "coord_source": "ruptl_geocoded", "capacity_mw_ipm": "", "capacity_mw_ruptl": "5.0", "type_ipm": "", "type_ruptl": "PLTU", "role_ipm": "", "role_ruptl": "", "name_source": "ruptl", "capacity_mw_source": "ruptl", "type_source": "ruptl", "role_source": "ruptl", "operator_source": "ruptl", "status_source": "ruptl", "has_capacity_conflict": "false", "has_type_conflict": "false", "has_role_conflict": "false", "has_location_conflict": "false", "ipm_id": "", "coord_confidence": "medium", "is_placeholder": false, "source_page": "1096", "source_table": "Tabel C8.13", "target_cod_year": "2025", "developer": "PLN", "action_norm": "NEW", "status_norm": "CONSTRUCTION", "target_cod_year_ruptl": ""}}, {"type": "Feature", "geometry": {"type": "Point", "coordinates": [127.96274, 1.765177]}, "properties": {"id": "RUPTL:RUPTL-MALUKU-P-0046", "name": "Tobelo", "type": "PLTMG", "capacity_mw": 10.0, "province": "Maluku Utara", "system": "", "status": "Construction", "role": "", "operator": "", "match_tier": "UNMATCHED_RUPTL", "match_score": "0.10", "match_reason": "tidak ada IPM row yang cocok dalam thresholds", "ruptl_id": "RUPTL-MALUKU-P-0046", "coord_source": "ruptl_geocoded", "capacity_mw_ipm": "", "capacity_mw_ruptl": "10.0", "type_ipm": "", "type_ruptl": "PLTMG", "role_ipm": "", "role_ruptl": "", "name_source": "ruptl", "capacity_mw_source": "ruptl", "type_source": "ruptl", "role_source": "ruptl", "operator_source": "ruptl", "status_source": "ruptl", "has_capacity_conflict": "false", "has_type_conflict": "false", "has_role_conflict": "false", "has_location_conflict": "false", "ipm_id": "", "coord_confidence": "medium", "is_placeholder": false, "source_page": "1096", "source_table": "Tabel C8.13", "target_cod_year": "2025", "developer": "SH-PLN", "action_norm": "NEW", "status_norm": "CONSTRUCTION", "target_cod_year_ruptl": ""}}, {"type": "Feature", "geometry": {"type": "Point", "coordinates": [127.96274, 1.765177]}, "properties": {"id": "RUPTL:RUPTL-MALUKU-P-0047", "name": "Tobelo 2", "type": "PLTMG", "capacity_mw": 20.0, "province": "Maluku Utara", "system": "", "status": "Construction", "role": "", "operator": "", "match_tier": "UNMATCHED_RUPTL", "match_score": "0.10", "match_reason": "tidak ada IPM row yang cocok dalam thresholds", "ruptl_id": "RUPTL-MALUKU-P-0047", "coord_source": "ruptl_geocoded", "capacity_mw_ipm": "", "capacity_mw_ruptl": "20.0", "type_ipm": "", "type_ruptl": "PLTMG", "role_ipm": "", "role_ruptl": "", "name_source": "ruptl", "capacity_mw_source": "ruptl", "type_source": "ruptl", "role_source": "ruptl", "operator_source": "ruptl", "status_source": "ruptl", "has_capacity_conflict": "false", "has_type_conflict": "false", "has_role_conflict": "false", "has_location_conflict": "false", "ipm_id": "", "coord_confidence": "medium", "is_placeholder": false, "source_page": "1096", "source_table": "Tabel C8.13", "target_cod_year": "2025", "developer": "SH-PLN", "action_norm": "NEW", "status_norm": "CONSTRUCTION", "target_cod_year_ruptl": ""}}, {"type": "Feature", "geometry": {"type": "Point", "coordinates": [127.96274, 1.765177]}, "properties": {"id": "RUPTL:RUPTL-MALUKU-P-0048", "name": "Tobelo", "type": "PLTS", "capacity_mw": 10.0, "province": "Maluku Utara", "system": "", "status": "Planned", "role": "", "operator": "", "match_tier": "UNMATCHED_RUPTL", "match_score": "0.10", "match_reason": "tidak ada IPM row yang cocok dalam thresholds", "ruptl_id": "RUPTL-MALUKU-P-0048", "coord_source": "ruptl_geocoded", "capacity_mw_ipm": "", "capacity_mw_ruptl": "10.0", "type_ipm": "", "type_ruptl": "PLTS", "role_ipm": "", "role_ruptl": "", "name_source": "ruptl", "capacity_mw_source": "ruptl", "type_source": "ruptl", "role_source": "ruptl", "operator_source": "ruptl", "status_source": "ruptl", "has_capacity_conflict": "false", "has_type_conflict": "false", "has_role_conflict": "false", "has_location_conflict": "false", "ipm_id": "", "coord_confidence": "medium", "is_placeholder": false, "source_page": "1096", "source_table": "Tabel C8.13", "target_cod_year": "2026", "developer": "IPP", "action_norm": "NEW", "status_norm": "PLANNED", "target_cod_year_ruptl": ""}}, {"type": "Feature", "geometry": {"type": "Point", "coordinates": [127.553693, 0.701766]}, "properties": {"id": "RUPTL:RUPTL-MALUKU-P-0049", "name": "Sofifi", "type": "PLTMG", "capacity_mw": 10.0, "province": "Maluku Utara", "system": "", "status": "Committed", "role": "", "operator": "", "match_tier": "UNMATCHED_RUPTL", "match_score": "0.10", "match_reason": "tidak ada IPM row yang cocok dalam thresholds", "ruptl_id": "RUPTL-MALUKU-P-0049", "coord_source": "ruptl_geocoded", "capacity_mw_ipm": "", "capacity_mw_ruptl": "10.0", "type_ipm": "", "type_ruptl": "PLTMG", "role_ipm": "", "role_ruptl": "", "name_source": "ruptl", "capacity_mw_source": "ruptl", "type_source": "ruptl", "role_source": "ruptl", "operator_source": "ruptl", "status_source": "ruptl", "has_capacity_conflict": "false", "has_type_conflict": "false", "has_role_conflict": "false", "has_location_conflict": "false", "ipm_id": "", "coord_confidence": "medium", "is_placeholder": false, "source_page": "1096", "source_table": "Tabel C8.13", "target_cod_year": "2026", "developer": "SH-PLN", "action_norm": "NEW", "status_norm": "COMMITTED", "target_cod_year_ruptl": ""}}, {"type": "Feature", "geometry": {"type": "Point", "coordinates": [125.979644, -2.057332]}, "properties": {"id": "RUPTL:RUPTL-MALUKU-P-0068", "name": "Sanana", "type": "PLTMG", "capacity_mw": 10.0, "province": "Maluku Utara", "system": "", "status": "Committed", "role": "", "operator": "", "match_tier": "UNMATCHED_RUPTL", "match_score": "0.10", "match_reason": "tidak ada IPM row yang cocok dalam thresholds", "ruptl_id": "RUPTL-MALUKU-P-0068", "coord_source": "ruptl_geocoded", "capacity_mw_ipm": "", "capacity_mw_ruptl": "10.0", "type_ipm": "", "type_ruptl": "PLTMG", "role_ipm": "", "role_ruptl": "", "name_source": "ruptl", "capacity_mw_source": "ruptl", "type_source": "ruptl", "role_source": "ruptl", "operator_source": "ruptl", "status_source": "ruptl", "has_capacity_conflict": "false", "has_type_conflict": "false", "has_role_conflict": "false", "has_location_conflict": "false", "ipm_id": "", "coord_confidence": "medium", "is_placeholder": false, "source_page": "1097", "target_cod_year": "2026", "developer": "SH-PLN", "action_norm": "NEW", "status_norm": "COMMITTED", "target_cod_year_ruptl": ""}}, {"type": "Feature", "geometry": {"type": "Point", "coordinates": [125.979644, -2.057332]}, "properties": {"id": "RUPTL:RUPTL-MALUKU-P-0069", "name": "Sanana 2", "type": "PLTBm", "capacity_mw": 10.0, "province": "Maluku Utara", "system": "", "status": "Planned", "role": "", "operator": "", "match_tier": "UNMATCHED_RUPTL", "match_score": "0.10", "match_reason": "tidak ada IPM row yang cocok dalam thresholds", "ruptl_id": "RUPTL-MALUKU-P-0069", "coord_source": "ruptl_geocoded", "capacity_mw_ipm": "", "capacity_mw_ruptl": "10.0", "type_ipm": "", "type_ruptl": "PLTBm", "role_ipm": "", "role_ruptl": "", "name_source": "ruptl", "capacity_mw_source": "ruptl", "type_source": "ruptl", "role_source": "ruptl", "operator_source": "ruptl", "status_source": "ruptl", "has_capacity_conflict": "false", "has_type_conflict": "false", "has_role_conflict": "false", "has_location_conflict": "false", "ipm_id": "", "coord_confidence": "medium", "is_placeholder": false, "source_page": "1097", "target_cod_year": "2030", "developer": "IPP", "action_norm": "NEW", "status_norm": "PLANNED", "target_cod_year_ruptl": ""}}, {"type": "Feature", "geometry": {"type": "Point", "coordinates": [128.001392, 0.476503]}, "properties": {"id": "RUPTL:RUPTL-MALUKU-P-0073", "name": "Weda", "type": "PLTS", "capacity_mw": 5.0, "province": "Maluku Utara", "system": "", "status": "Planned", "role": "", "operator": "", "match_tier": "UNMATCHED_RUPTL", "match_score": "0.10", "match_reason": "tidak ada IPM row yang cocok dalam thresholds", "ruptl_id": "RUPTL-MALUKU-P-0073", "coord_source": "ruptl_geocoded", "capacity_mw_ipm": "", "capacity_mw_ruptl": "5.0", "type_ipm": "", "type_ruptl": "PLTS", "role_ipm": "", "role_ruptl": "", "name_source": "ruptl", "capacity_mw_source": "ruptl", "type_source": "ruptl", "role_source": "ruptl", "operator_source": "ruptl", "status_source": "ruptl", "has_capacity_conflict": "false", "has_type_conflict": "false", "has_role_conflict": "false", "has_location_conflict": "false", "ipm_id": "", "coord_confidence": "high", "is_placeholder": false, "source_page": "1097", "target_cod_year": "2027", "developer": "SH-PLN", "action_norm": "NEW", "status_norm": "PLANNED", "target_cod_year_ruptl": ""}}, {"type": "Feature", "geometry": {"type": "Point", "coordinates": [128.001392, 0.476503]}, "properties": {"id": "RUPTL:RUPTL-MALUKU-P-0074", "name": "Weda", "type": "PLTMG", "capacity_mw": 20.0, "province": "Maluku Utara", "system": "", "status": "Planned", "role": "", "operator": "", "match_tier": "UNMATCHED_RUPTL", "match_score": "0.10", "match_reason": "tidak ada IPM row yang cocok dalam thresholds", "ruptl_id": "RUPTL-MALUKU-P-0074", "coord_source": "ruptl_geocoded", "capacity_mw_ipm": "", "capacity_mw_ruptl": "20.0", "type_ipm": "", "type_ruptl": "PLTMG", "role_ipm": "", "role_ruptl": "", "name_source": "ruptl", "capacity_mw_source": "ruptl", "type_source": "ruptl", "role_source": "ruptl", "operator_source": "ruptl", "status_source": "ruptl", "has_capacity_conflict": "false", "has_type_conflict": "false", "has_role_conflict": "false", "has_location_conflict": "false", "ipm_id": "", "coord_confidence": "high", "is_placeholder": false, "source_page": "1097", "target_cod_year": "2028", "developer": "SH-PLN", "action_norm": "NEW", "status_norm": "PLANNED", "target_cod_year_ruptl": ""}}]}