{"type": "FeatureCollection", "features": [{"type": "Feature", "geometry": {"type": "Point", "coordinates": [131.2603534, -0.8790946]}, "properties": {"id": "GEN-PAP-0001", "name": "PLTD Kota Sorong", "osm_name": "PLTD Kota Sorong", "type": "PLTD", "capacity_mw": "40.37", "province": "Papua Barat", "system": "Papua", "status": "existing", "operator": "", "method": "", "osm_id": "relation/7625982", "osm_source": "", "review_flag": "NO_CAPACITY", "source_id": "OSM-overpass", "capacity_unit": "MW", "role": "Utility", "roleDescription": "Memasok listrik ke sistem kelistrikan publik.", "roleConfidence": "", "roleReason": "", "match_tier": "UNMATCHED_IPM", "match_score": "0.10", "match_reason": "tidak ada RUPTL row yang cocok", "name_source": "ipm_osm", "capacity_mw_source": "ipm_osm", "type_source": "ipm_osm", "role_source": "ipm_osm", "status_source": "ipm_osm", "coord_source": "ipm_osm", "capacity_mw_ipm": "40.37", "type_ipm": "PLTD", "role_ipm": "Utility", "status_norm": "OPERATIONAL", "action_norm": "", "is_placeholder": false}}, {"type": "Feature", "geometry": {"type": "Point", "coordinates": [140.790386, -2.6144744]}, "properties": {"id": "GEN-PAP-0002", "name": "PLTU Holtekamp", "osm_name": "PLTU Holtekamp", "type": "PLTU", "capacity_mw": "24.0", "province": "Papua", "system": "Papua", "status": "existing", "operator": "Indonesia Power", "method": "combustion", "osm_id": "way/377005221", "osm_source": "coal", "review_flag": "", "source_id": "OSM-overpass", "capacity_unit": "MW", "role": "Utility", "roleDescription": "Memasok listrik ke sistem kelistrikan publik.", "roleConfidence": "", "roleReason": "", "match_tier": "UNMATCHED_IPM", "match_score": "0.10", "match_reason": "tidak ada RUPTL row yang cocok", "name_source": "ipm_osm", "capacity_mw_source": "ipm_osm", "type_source": "ipm_osm", "role_source": "ipm_osm", "operator_source": "ipm_osm", "status_source": "ipm_osm", "coord_source": "ipm_osm", "capacity_mw_ipm": "24.0", "type_ipm": "PLTU", "role_ipm": "Utility", "status_norm": "OPERATIONAL", "action_norm": "", "is_placeholder": false}}, {"type": "Feature", "geometry": {"type": "Point", "coordinates": [136.8377098, -4.8275311]}, "properties": {"id": "GEN-PAP-0004", "name": "PLTU Amamapare", "osm_name": "PLTU Amamapare", "type": "PLTU", "capacity_mw": "255.0", "province": "Papua", "system": "Papua", "status": "existing", "operator": "PT Puncak Jaya Power", "method": "combustion", "osm_id": "way/614077557", "osm_source": "coal", "review_flag": "", "source_id": "OSM-overpass", "capacity_unit": "MW", "role": "Utility", "roleDescription": "Memasok listrik ke sistem kelistrikan publik.", "roleConfidence": "", "roleReason": "", "match_tier": "UNMATCHED_IPM", "match_score": "0.10", "match_reason": "tidak ada RUPTL row yang cocok", "name_source": "ipm_osm", "capacity_mw_source": "ipm_osm", "type_source": "ipm_osm", "role_source": "ipm_osm", "operator_source": "ipm_osm", "status_source": "ipm_osm", "coord_source": "ipm_osm", "capacity_mw_ipm": "255.0", "type_ipm": "PLTU", "role_ipm": "Utility", "status_norm": "OPERATIONAL", "action_norm": "", "is_placeholder": false}}, {"type": "Feature", "geometry": {"type": "Point", "coordinates": [132.2998361, -2.9238711]}, "properties": {"id": "GEN-PAP-0005", "name": "PLTD Fakfak", "osm_name": "PLTD Fakfak", "type": "PLTD", "capacity_mw": "8.8", "province": "Papua Barat", "system": "Papua", "status": "existing", "operator": "", "method": "", "osm_id": "way/629897977", "osm_source": "", "review_flag": "NO_CAPACITY", "source_id": "OSM-overpass", "capacity_unit": "MW", "role": "Utility", "roleDescription": "Memasok listrik ke sistem kelistrikan publik.", "roleConfidence": "", "roleReason": "", "match_tier": "UNMATCHED_IPM", "match_score": "0.10", "match_reason": "tidak ada RUPTL row yang cocok", "name_source": "ipm_osm", "capacity_mw_source": "ipm_osm", "type_source": "ipm_osm", "role_source": "ipm_osm", "status_source": "ipm_osm", "coord_source": "ipm_osm", "capacity_mw_ipm": "8.8", "type_ipm": "PLTD", "role_ipm": "Utility", "status_norm": "OPERATIONAL", "action_norm": "", "is_placeholder": false}}, {"type": "Feature", "geometry": {"type": "Point", "coordinates": [140.7913037, -2.6163241]}, "properties": {"id": "GEN-PAP-0006", "name": "PLTMG Jayapura", "osm_name": "PLTMG Jayapura", "type": "PLTMG", "capacity_mw": "40.0", "province": "Papua", "system": "Papua", "status": "existing", "operator": "", "method": "combustion", "osm_id": "way/894329107", "osm_source": "gas", "review_flag": "", "source_id": "OSM-overpass", "capacity_unit": "MW", "role": "Utility", "roleDescription": "Memasok listrik ke sistem kelistrikan publik.", "roleConfidence": "", "roleReason": "", "match_tier": "PROBABLE_MATCH", "match_score": "0.80", "match_reason": "token set sama, jarak=0.0 km", "ruptl_id": "RUPTL-PAPUA-P-0026", "name_source": "ipm_osm", "capacity_mw_source": "ipm_osm", "type_source": "ipm_osm", "role_source": "ipm_osm", "status_source": "ipm_osm", "coord_source": "ipm_osm", "capacity_mw_ipm": "40.0", "capacity_mw_ruptl": "50.0", "type_ipm": "PLTMG", "type_ruptl": "PLTS", "role_ipm": "Utility", "has_capacity_conflict": "false", "has_type_conflict": "true", "has_location_conflict": "false", "target_cod_year_ruptl": "2030", "source_page_ruptl": "1121", "status_norm": "", "action_norm": "", "is_placeholder": false}}, {"type": "Feature", "geometry": {"type": "Point", "coordinates": [131.2469853, -1.0205161]}, "properties": {"id": "GEN-PAP-0007", "name": "PLTMG Sorong", "osm_name": "PLTMG Sorong", "type": "PLTMG", "capacity_mw": "50.0", "province": "Papua Barat", "system": "Papua", "status": "existing", "operator": "", "method": "", "osm_id": "way/940979321", "osm_source": "gas", "review_flag": "", "source_id": "OSM-overpass", "capacity_unit": "MW", "role": "Utility", "roleDescription": "Memasok listrik ke sistem kelistrikan publik.", "roleConfidence": "", "roleReason": "", "match_tier": "UNMATCHED_IPM", "match_score": "0.10", "match_reason": "tidak ada RUPTL row yang cocok", "name_source": "ipm_osm", "capacity_mw_source": "ipm_osm", "type_source": "ipm_osm", "role_source": "ipm_osm", "status_source": "ipm_osm", "coord_source": "ipm_osm", "capacity_mw_ipm": "50.0", "type_ipm": "PLTMG", "role_ipm": "Utility", "status_norm": "OPERATIONAL", "action_norm": "", "is_placeholder": false}}, {"type": "Feature", "geometry": {"type": "Point", "coordinates": [136.7675772, -4.7534102]}, "properties": {"id": "GEN-PAP-0008", "name": "PLTMG Timika", "osm_name": "PLTMG Timika", "type": "PLTMG", "capacity_mw": "10.0", "province": "Papua", "system": "Papua", "status": "existing", "operator": "", "method": "combustion", "osm_id": "way/1121717386", "osm_source": "gas", "review_flag": "", "source_id": "OSM-overpass", "capacity_unit": "MW", "role": "Utility", "roleDescription": "Memasok listrik ke sistem kelistrikan publik.", "roleConfidence": "", "roleReason": "", "match_tier": "PROBABLE_MATCH", "match_score": "0.80", "match_reason": "token set sama, jarak=0.0 km", "ruptl_id": "RUPTL-PAPUA-P-0048", "name_source": "ipm_osm", "capacity_mw_source": "ipm_osm", "type_source": "ipm_osm", "role_source": "ipm_osm", "status_source": "ipm_osm", "coord_source": "ipm_osm", "capacity_mw_ipm": "10.0", "capacity_mw_ruptl": "10.0", "type_ipm": "PLTMG", "type_ruptl": "PLTS", "role_ipm": "Utility", "has_capacity_conflict": "false", "has_type_conflict": "true", "has_location_conflict": "false", "target_cod_year_ruptl": "2033", "source_page_ruptl": "1122", "source_table_ruptl": "Tabel C9.10", "status_norm": "", "action_norm": "", "is_placeholder": false}}, {"type": "Feature", "geometry": {"type": "Point", "coordinates": [134.0059452, -3.4746024]}, "properties": {"id": "GEN-PAP-0009", "name": "PLTS Werua", "osm_name": "PLTS Werua", "type": "PLTS", "capacity_mw": "0.020", "province": "Papua Barat", "system": "Papua", "status": "existing", "operator": "", "method": "", "osm_id": "way/1164608628", "osm_source": "solar", "review_flag": "NO_CAPACITY", "source_id": "OSM-overpass", "capacity_unit": "MWp", "role": "Community", "roleDescription": "Memasok listrik untuk komunitas lokal, desa terpencil, atau pulau kecil.", "roleConfidence": "High", "roleReason": "Sistem elektrifikasi desa", "match_tier": "UNMATCHED_IPM", "match_score": "0.10", "match_reason": "tidak ada RUPTL row yang cocok", "name_source": "ipm_osm", "capacity_mw_source": "ipm_osm", "type_source": "ipm_osm", "role_source": "ipm_osm", "status_source": "ipm_osm", "coord_source": "ipm_osm", "capacity_mw_ipm": "0.020", "type_ipm": "PLTS", "role_ipm": "Community", "status_norm": "OPERATIONAL", "action_norm": "", "is_placeholder": false}}, {"type": "Feature", "geometry": {"type": "Point", "coordinates": [133.979851, -3.4938104]}, "properties": {"id": "GEN-PAP-0010", "name": "PLTS Sara", "osm_name": "PLTS Sara", "type": "PLTS", "capacity_mw": "0.020", "province": "Papua Barat", "system": "Papua", "status": "existing", "operator": "", "method": "", "osm_id": "way/1164613430", "osm_source": "solar", "review_flag": "NO_CAPACITY", "source_id": "OSM-overpass", "capacity_unit": "MWp", "role": "Community", "roleDescription": "Memasok listrik untuk komunitas lokal, desa terpencil, atau pulau kecil.", "roleConfidence": "High", "roleReason": "Sistem elektrifikasi pulau kecil", "match_tier": "UNMATCHED_IPM", "match_score": "0.10", "match_reason": "tidak ada RUPTL row yang cocok", "name_source": "ipm_osm", "capacity_mw_source": "ipm_osm", "type_source": "ipm_osm", "role_source": "ipm_osm", "status_source": "ipm_osm", "coord_source": "ipm_osm", "capacity_mw_ipm": "0.020", "type_ipm": "PLTS", "role_ipm": "Community", "status_norm": "OPERATIONAL", "action_norm": "", "is_placeholder": false}}, {"type": "Feature", "geometry": {"type": "Point", "coordinates": [140.7891872, -2.6169122]}, "properties": {"id": "GEN-PAP-0011", "name": "PLTMG MPP Jayapura", "osm_name": "PLTMG MPP Jayapura", "type": "PLTMG", "capacity_mw": "50.0", "province": "Papua", "system": "Papua", "status": "existing", "operator": "", "method": "combustion", "osm_id": "way/1191857160", "osm_source": "gas", "review_flag": "", "source_id": "OSM-overpass", "capacity_unit": "MW", "role": "Utility", "roleDescription": "Memasok listrik ke sistem kelistrikan publik.", "roleConfidence": "", "roleReason": "", "match_tier": "CONFIRMED_MATCH", "match_score": "1.00", "match_reason": "coord 0.2 km ≤ 2.0, type=PLTMG matches, capacity diff 0% ≤ 20%", "ruptl_id": "RUPTL-PAPUA-P-0028", "name_source": "ipm_osm", "capacity_mw_source": "ipm_osm", "type_source": "ipm_osm", "role_source": "ipm_osm", "status_source": "ipm_osm", "coord_source": "ipm_osm", "capacity_mw_ipm": "50.0", "capacity_mw_ruptl": "50.0", "type_ipm": "PLTMG", "type_ruptl": "PLTMG", "role_ipm": "Utility", "has_capacity_conflict": "false", "has_type_conflict": "false", "has_location_conflict": "false", "target_cod_year_ruptl": "2034", "source_page_ruptl": "1121", "status_norm": "", "action_norm": "", "is_placeholder": false}}, {"type": "Feature", "geometry": {"type": "Point", "coordinates": [140.0199124, -2.6355849]}, "properties": {"id": "GEN-PAP-0012", "name": "PLTA Orya Genyem", "osm_name": "PLTA Orya Genyem", "type": "PLTA", "capacity_mw": "20.0", "province": "Papua", "system": "Papua", "status": "existing", "operator": "", "method": "", "osm_id": "way/1191857172", "osm_source": "hydro", "review_flag": "", "source_id": "OSM-overpass", "capacity_unit": "MW", "role": "Utility", "roleDescription": "Memasok listrik ke sistem kelistrikan publik.", "roleConfidence": "", "roleReason": "", "match_tier": "UNMATCHED_IPM", "match_score": "0.10", "match_reason": "tidak ada RUPTL row yang cocok", "name_source": "ipm_osm", "capacity_mw_source": "ipm_osm", "type_source": "ipm_osm", "role_source": "ipm_osm", "status_source": "ipm_osm", "coord_source": "ipm_osm", "capacity_mw_ipm": "20.0", "type_ipm": "PLTA", "role_ipm": "Utility", "status_norm": "OPERATIONAL", "action_norm": "", "is_placeholder": false}}, {"type": "Feature", "geometry": {"type": "Point", "coordinates": [134.0659233, -0.8716802]}, "properties": {"id": "GEN-PAP-0013", "name": "PLTD Sanggeng", "osm_name": "PLTD Sanggeng", "type": "PLTD", "capacity_mw": "7.5", "province": "Papua Barat", "system": "Papua", "status": "existing", "operator": "", "method": "combustion", "osm_id": "way/1313567917", "osm_source": "diesel", "review_flag": "", "source_id": "OSM-overpass", "capacity_unit": "MW", "role": "Utility", "roleDescription": "Memasok listrik ke sistem kelistrikan publik.", "roleConfidence": "", "roleReason": "", "match_tier": "UNMATCHED_IPM", "match_score": "0.10", "match_reason": "tidak ada RUPTL row yang cocok", "name_source": "ipm_osm", "capacity_mw_source": "ipm_osm", "type_source": "ipm_osm", "role_source": "ipm_osm", "status_source": "ipm_osm", "coord_source": "ipm_osm", "capacity_mw_ipm": "7.5", "type_ipm": "PLTD", "role_ipm": "Utility", "status_norm": "OPERATIONAL", "action_norm": "", "is_placeholder": false}}, {"type": "Feature", "geometry": {"type": "Point", "coordinates": [134.0267712, -0.9239977]}, "properties": {"id": "GEN-PAP-0014", "name": "PLTS Arfai", "osm_name": "PLTS Arfai", "type": "PLTS", "capacity_mw": "1.0", "province": "Papua Barat", "system": "Papua", "status": "existing", "operator": "", "method": "photovoltaic", "osm_id": "way/1313567921", "osm_source": "solar", "review_flag": "", "source_id": "OSM-overpass", "capacity_unit": "MWp", "role": "Utility", "roleDescription": "Memasok listrik ke sistem kelistrikan publik.", "roleConfidence": "", "roleReason": "", "match_tier": "UNMATCHED_IPM", "match_score": "0.10", "match_reason": "tidak ada RUPTL row yang cocok", "name_source": "ipm_osm", "capacity_mw_source": "ipm_osm", "type_source": "ipm_osm", "role_source": "ipm_osm", "status_source": "ipm_osm", "coord_source": "ipm_osm", "capacity_mw_ipm": "1.0", "type_ipm": "PLTS", "role_ipm": "Utility", "status_norm": "OPERATIONAL", "action_norm": "", "is_placeholder": false}}, {"type": "Feature", "geometry": {"type": "Point", "coordinates": [134.0483711, -0.8436382]}, "properties": {"id": "GEN-PAP-0015", "name": "PLTS Reremi", "osm_name": "PLTS Reremi", "type": "PLTS", "capacity_mw": "1.0", "province": "Papua Barat", "system": "Papua", "status": "existing", "operator": "", "method": "photovoltaic", "osm_id": "way/1313567929", "osm_source": "solar", "review_flag": "", "source_id": "OSM-overpass", "capacity_unit": "MWp", "role": "Utility", "roleDescription": "Memasok listrik ke sistem kelistrikan publik.", "roleConfidence": "", "roleReason": "", "match_tier": "UNMATCHED_IPM", "match_score": "0.10", "match_reason": "tidak ada RUPTL row yang cocok", "name_source": "ipm_osm", "capacity_mw_source": "ipm_osm", "type_source": "ipm_osm", "role_source": "ipm_osm", "status_source": "ipm_osm", "coord_source": "ipm_osm", "capacity_mw_ipm": "1.0", "type_ipm": "PLTS", "role_ipm": "Utility", "status_norm": "OPERATIONAL", "action_norm": "", "is_placeholder": false}}, {"type": "Feature", "geometry": {"type": "Point", "coordinates": [134.015478, -0.9348179]}, "properties": {"id": "GEN-PAP-0016", "name": "PLTMG MPP Manokwari", "osm_name": "PLTMG MPP Manokwari", "type": "PLTMG", "capacity_mw": "20.0", "province": "Papua Barat", "system": "Papua", "status": "existing", "operator": "", "method": "combustion", "osm_id": "way/1313567930", "osm_source": "gas", "review_flag": "", "source_id": "OSM-overpass", "capacity_unit": "MW", "role": "Utility", "roleDescription": "Memasok listrik ke sistem kelistrikan publik.", "roleConfidence": "", "roleReason": "", "match_tier": "UNMATCHED_IPM", "match_score": "0.10", "match_reason": "tidak ada RUPTL row yang cocok", "name_source": "ipm_osm", "capacity_mw_source": "ipm_osm", "type_source": "ipm_osm", "role_source": "ipm_osm", "status_source": "ipm_osm", "coord_source": "ipm_osm", "capacity_mw_ipm": "20.0", "type_ipm": "PLTMG", "role_ipm": "Utility", "status_norm": "OPERATIONAL", "action_norm": "", "is_placeholder": false}}, {"type": "Feature", "geometry": {"type": "Point", "coordinates": [138.9312, -4.1017]}, "properties": {"id": "GEN-PAP-0017", "name": "PLTD Sinakma", "osm_name": "", "type": "PLTD", "capacity_mw": "6.0", "province": "Papua", "system": "Papua", "status": "existing", "operator": "", "method": "", "osm_id": "", "osm_source": "", "review_flag": "MANUAL_ADD_v1.0", "source_id": "manual_revision_v1.0", "capacity_unit": "MW", "role": "Utility", "roleDescription": "Memasok listrik ke sistem kelistrikan publik.", "roleConfidence": "", "roleReason": "", "match_tier": "UNMATCHED_IPM", "match_score": "0.10", "match_reason": "tidak ada RUPTL row yang cocok", "name_source": "ipm_osm", "capacity_mw_source": "ipm_osm", "type_source": "ipm_osm", "role_source": "ipm_osm", "status_source": "ipm_osm", "coord_source": "ipm_osm", "capacity_mw_ipm": "6.0", "type_ipm": "PLTD", "role_ipm": "Utility", "status_norm": "OPERATIONAL", "action_norm": "", "is_placeholder": false}}, {"type": "Feature", "geometry": {"type": "Point", "coordinates": [138.9567, -4.1284]}, "properties": {"id": "GEN-PAP-0018", "name": "PLTMH Walesi", "osm_name": "", "type": "PLTMH", "capacity_mw": "3.85", "province": "Papua", "system": "Papua", "status": "existing", "operator": "", "method": "", "osm_id": "", "osm_source": "", "review_flag": "MANUAL_ADD_v1.0", "source_id": "manual_revision_v1.0", "capacity_unit": "MW", "role": "Community", "roleDescription": "Memasok listrik untuk komunitas lokal, desa terpencil, atau pulau kecil.", "roleConfidence": "High", "roleReason": "Sistem elektrifikasi desa", "match_tier": "UNMATCHED_IPM", "match_score": "0.10", "match_reason": "tidak ada RUPTL row yang cocok", "name_source": "ipm_osm", "capacity_mw_source": "ipm_osm", "type_source": "ipm_osm", "role_source": "ipm_osm", "status_source": "ipm_osm", "coord_source": "ipm_osm", "capacity_mw_ipm": "3.85", "type_ipm": "PLTMH", "role_ipm": "Community", "status_norm": "OPERATIONAL", "action_norm": "", "is_placeholder": false}}, {"type": "Feature", "geometry": {"type": "Point", "coordinates": [133.5684, -3.6492]}, "properties": {"id": "GEN-PAP-0019", "name": "PLTS Pulau Namatota", "osm_name": "", "type": "PLTS", "capacity_mw": "0.063", "province": "Papua Barat", "system": "Papua", "status": "existing", "operator": "", "method": "", "osm_id": "", "osm_source": "", "review_flag": "MANUAL_ADD_v1.0", "source_id": "manual_revision_v1.0", "capacity_unit": "MWp", "role": "Community", "roleDescription": "Memasok listrik untuk komunitas lokal, desa terpencil, atau pulau kecil.", "roleConfidence": "High", "roleReason": "Sistem elektrifikasi pulau kecil", "match_tier": "UNMATCHED_IPM", "match_score": "0.10", "match_reason": "tidak ada RUPTL row yang cocok", "name_source": "ipm_osm", "capacity_mw_source": "ipm_osm", "type_source": "ipm_osm", "role_source": "ipm_osm", "status_source": "ipm_osm", "coord_source": "ipm_osm", "capacity_mw_ipm": "0.063", "type_ipm": "PLTS", "role_ipm": "Community", "status_norm": "OPERATIONAL", "action_norm": "", "is_placeholder": false}}, {"type": "Feature", "geometry": {"type": "Point", "coordinates": [133.6711, -3.6761]}, "properties": {"id": "GEN-PAP-0020", "name": "PLTS Kampung Maimai", "osm_name": "", "type": "PLTS", "capacity_mw": "0.040", "province": "Papua Barat", "system": "Papua", "status": "existing", "operator": "", "method": "", "osm_id": "", "osm_source": "", "review_flag": "MANUAL_ADD_v1.0;CAPACITY_RANGE_30-50_kWp_review", "source_id": "manual_revision_v1.0", "capacity_unit": "MWp", "role": "Community", "roleDescription": "Memasok listrik untuk komunitas lokal, desa terpencil, atau pulau kecil.", "roleConfidence": "High", "roleReason": "Sistem elektrifikasi desa", "match_tier": "UNMATCHED_IPM", "match_score": "0.10", "match_reason": "tidak ada RUPTL row yang cocok", "name_source": "ipm_osm", "capacity_mw_source": "ipm_osm", "type_source": "ipm_osm", "role_source": "ipm_osm", "status_source": "ipm_osm", "coord_source": "ipm_osm", "capacity_mw_ipm": "0.040", "type_ipm": "PLTS", "role_ipm": "Community", "status_norm": "OPERATIONAL", "action_norm": "", "is_placeholder": false}}, {"type": "Feature", "geometry": {"type": "Point", "coordinates": [133.7663, -3.6558]}, "properties": {"id": "GEN-PAP-0021", "name": "PLTD Kaimana", "osm_name": "", "type": "PLTD", "capacity_mw": "8.8", "province": "Papua Barat", "system": "Papua", "status": "existing", "operator": "", "method": "", "osm_id": "", "osm_source": "", "review_flag": "MANUAL_ADD_v1.0", "source_id": "manual_revision_v1.0", "capacity_unit": "MW", "role": "Utility", "roleDescription": "Memasok listrik ke sistem kelistrikan publik.", "roleConfidence": "", "roleReason": "", "match_tier": "UNMATCHED_IPM", "match_score": "0.10", "match_reason": "tidak ada RUPTL row yang cocok", "name_source": "ipm_osm", "capacity_mw_source": "ipm_osm", "type_source": "ipm_osm", "role_source": "ipm_osm", "status_source": "ipm_osm", "coord_source": "ipm_osm", "capacity_mw_ipm": "8.8", "type_ipm": "PLTD", "role_ipm": "Utility", "status_norm": "OPERATIONAL", "action_norm": "", "is_placeholder": false}}, {"type": "Feature", "geometry": {"type": "Point", "coordinates": [138.9567, -4.1284]}, "properties": {"id": "RUPTL:RUPTL-PAPUA-P-0050", "name": "Cascade Walesi", "type": "PLTM", "capacity_mw": 6.0, "province": "Papua", "system": "", "status": "Planned", "role": "", "operator": "", "match_tier": "UNMATCHED_RUPTL", "match_score": "0.10", "match_reason": "tidak ada IPM row yang cocok dalam thresholds", "ruptl_id": "RUPTL-PAPUA-P-0050", "coord_source": "ruptl_geocoded", "capacity_mw_ipm": "", "capacity_mw_ruptl": "6.0", "type_ipm": "", "type_ruptl": "PLTM", "role_ipm": "", "role_ruptl": "", "name_source": "ruptl", "capacity_mw_source": "ruptl", "type_source": "ruptl", "role_source": "ruptl", "operator_source": "ruptl", "status_source": "ruptl", "has_capacity_conflict": "false", "has_type_conflict": "false", "has_role_conflict": "false", "has_location_conflict": "false", "ipm_id": "", "coord_confidence": "high", "is_placeholder": false, "source_page": "1122", "source_table": "Tabel C9.10", "target_cod_year": "2029", "developer": "PLN", "action_norm": "NEW", "status_norm": "PLANNED", "target_cod_year_ruptl": ""}}, {"type": "Feature", "geometry": {"type": "Point", "coordinates": [138.9567, -4.1284]}, "properties": {"id": "RUPTL:RUPTL-PAPUA-P-0051", "name": "Walesi Blok II", "type": "PLTM", "capacity_mw": 3.8, "province": "Papua", "system": "", "status": "Planned", "role": "", "operator": "", "match_tier": "UNMATCHED_RUPTL", "match_score": "0.10", "match_reason": "tidak ada IPM row yang cocok dalam thresholds", "ruptl_id": "RUPTL-PAPUA-P-0051", "coord_source": "ruptl_geocoded", "capacity_mw_ipm": "", "capacity_mw_ruptl": "3.8", "type_ipm": "", "type_ruptl": "PLTM", "role_ipm": "", "role_ruptl": "", "name_source": "ruptl", "capacity_mw_source": "ruptl", "type_source": "ruptl", "role_source": "ruptl", "operator_source": "ruptl", "status_source": "ruptl", "has_capacity_conflict": "false", "has_type_conflict": "false", "has_role_conflict": "false", "has_location_conflict": "false", "ipm_id": "", "coord_confidence": "high", "is_placeholder": false, "source_page": "1122", "source_table": "Tabel C9.10", "target_cod_year": "2029", "developer": "PLN", "action_norm": "NEW", "status_norm": "PLANNED", "target_cod_year_ruptl": ""}}]}