{"type": "FeatureCollection", "features": [{"type": "Feature", "geometry": {"type": "Point", "coordinates": [123.5469816, -10.1895328]}, "properties": {"id": "GI-NTT-0002", "name": "Tenau", "voltage": "150/20", "trafo_count": 1, "capacity_mva": 60.0, "province": "Nusa Tenggara Timur", "system": "NTT", "osm_id": "way/1198315802", "osm_name": "Gardu Induk Tenau", "match_score": 1.0, "match_source": "osm_fuzzy", "review_flag": "", "source_id": "RUPTL-2025-2034", "source_table": "Tabel C12.4", "match_tier": "BASELINE", "source": "RUPTL-2025-2034", "target_cod_year_ruptl": "", "action_norm": "", "status_norm": ""}}, {"type": "Feature", "geometry": {"type": "Point", "coordinates": [123.4910246, -10.2384623]}, "properties": {"id": "GI-NTT-0003", "name": "Bolok", "voltage": "70/20", "trafo_count": 2, "capacity_mva": 60.0, "province": "Nusa Tenggara Timur", "system": "NTT", "osm_id": "way/716898231", "osm_name": "Gardu Induk Bolok", "match_score": 1.0, "match_source": "osm_fuzzy", "review_flag": "", "source_id": "RUPTL-2025-2034", "source_table": "Tabel C12.17", "match_tier": "PLANNED_ORPHAN", "source": "RUPTL-2025-2034", "target_cod_year_ruptl": "2025", "action_norm": "", "status_norm": "COMMITTED", "ruptl_id": "RUPTL-NTT-GI-0003", "action_type_ruptl": "", "status_ruptl": "Committed", "capacity_mva_ruptl": "60.0", "voltage_kv_ruptl": "150/70", "source_page": "1186"}}, {"type": "Feature", "geometry": {"type": "Point", "coordinates": [123.6117871, -10.2116095]}, "properties": {"id": "GI-NTT-0004", "name": "Maulafa", "voltage": "70/20", "trafo_count": 2, "capacity_mva": 60.0, "province": "Nusa Tenggara Timur", "system": "NTT", "osm_id": "way/611789535", "osm_name": "Gardu Induk Maulafa", "match_score": 1.0, "match_source": "osm_fuzzy", "review_flag": "", "source_id": "RUPTL-2025-2034", "source_table": "Tabel C12.4", "match_tier": "BASELINE", "source": "RUPTL-2025-2034", "target_cod_year_ruptl": "", "action_norm": "", "status_norm": ""}}, {"type": "Feature", "geometry": {"type": "Point", "coordinates": [123.8797049, -10.1078013]}, "properties": {"id": "GI-NTT-0005", "name": "Naibonat", "voltage": "70/20", "trafo_count": 1, "capacity_mva": 20.0, "province": "Nusa Tenggara Timur", "system": "NTT", "osm_id": "way/611789534", "osm_name": "Gardu Induk Naibonat", "match_score": 1.0, "match_source": "osm_fuzzy", "review_flag": "", "source_id": "RUPTL-2025-2034", "source_table": "Tabel C12.17", "match_tier": "PLANNED_ORPHAN", "source": "RUPTL-2025-2034", "target_cod_year_ruptl": "2025", "action_norm": "", "status_norm": "CONSTRUCTION", "ruptl_id": "RUPTL-NTT-GI-0001", "action_type_ruptl": "", "status_ruptl": "Construction", "capacity_mva_ruptl": "60.0", "voltage_kv_ruptl": "150/70", "source_page": "1186"}}, {"type": "Feature", "geometry": {"type": "Point", "coordinates": [124.2883074, -9.8170662]}, "properties": {"id": "GI-NTT-0006", "name": "Nonohonis", "voltage": "70/20", "trafo_count": 1, "capacity_mva": 20.0, "province": "Nusa Tenggara Timur", "system": "NTT", "osm_id": "way/614316899", "osm_name": "Gardu Induk Nonohonis", "match_score": 1.0, "match_source": "osm_fuzzy", "review_flag": "", "source_id": "RUPTL-2025-2034", "source_table": "Tabel C12.20", "match_tier": "PLANNED_ORPHAN", "source": "RUPTL-2025-2034", "target_cod_year_ruptl": "2034", "action_norm": "", "status_norm": "PLANNED", "ruptl_id": "RUPTL-NTT-GI-0028", "action_type_ruptl": "", "status_ruptl": "Planned", "capacity_mva_ruptl": "30.0", "voltage_kv_ruptl": "70/20", "source_page": "1187"}}, {"type": "Feature", "geometry": {"type": "Point", "coordinates": [124.4935808, -9.5328948]}, "properties": {"id": "GI-NTT-0007", "name": "Kefamenanu", "voltage": "70/20", "trafo_count": 1, "capacity_mva": 20.0, "province": "Nusa Tenggara Timur", "system": "NTT", "osm_id": "way/611789540", "osm_name": "Gardu Induk Kefamenanu", "match_score": 1.0, "match_source": "osm_fuzzy", "review_flag": "", "source_id": "RUPTL-2025-2034", "source_table": "Tabel C12.17", "match_tier": "PLANNED_ORPHAN", "source": "RUPTL-2025-2034", "target_cod_year_ruptl": "2027", "action_norm": "", "status_norm": "COMMITTED", "ruptl_id": "RUPTL-NTT-GI-0015", "action_type_ruptl": "", "status_ruptl": "Committed", "capacity_mva_ruptl": "60.0", "voltage_kv_ruptl": "150/70", "source_page": "1186"}}, {"type": "Feature", "geometry": {"type": "Point", "coordinates": [124.865583, -9.0872625]}, "properties": {"id": "GI-NTT-0008", "name": "Atambua", "voltage": "70/20", "trafo_count": 1, "capacity_mva": 20.0, "province": "Nusa Tenggara Timur", "system": "NTT", "osm_id": "way/611789538", "osm_name": "Gardu Induk Atambua", "match_score": 1.0, "match_source": "osm_fuzzy", "review_flag": "", "source_id": "RUPTL-2025-2034", "source_table": "Tabel C12.17", "match_tier": "PLANNED_ORPHAN", "source": "RUPTL-2025-2034", "target_cod_year_ruptl": "2027", "action_norm": "", "status_norm": "COMMITTED", "ruptl_id": "RUPTL-NTT-GI-0016", "action_type_ruptl": "", "status_ruptl": "Committed", "capacity_mva_ruptl": "60.0", "voltage_kv_ruptl": "150/70", "source_page": "1186"}}, {"type": "Feature", "geometry": {"type": "Point", "coordinates": [122.1891863, -8.5958161]}, "properties": {"id": "GI-NTT-0009", "name": "PLTMG Maumere", "voltage": "150/20", "trafo_count": 1, "capacity_mva": 30.0, "province": "Nusa Tenggara Timur", "system": "NTT", "osm_id": "way/937059874", "osm_name": "Gardu Induk Maumere", "match_score": 0.92, "match_source": "osm_fuzzy", "review_flag": "", "source_id": "RUPTL-2025-2034", "source_table": "Tabel C12.17", "match_tier": "PLANNED_ORPHAN", "source": "RUPTL-2025-2034", "target_cod_year_ruptl": "2027", "action_norm": "", "status_norm": "COMMITTED", "ruptl_id": "RUPTL-NTT-GI-0011", "action_type_ruptl": "", "status_ruptl": "Committed", "capacity_mva_ruptl": "30.0", "voltage_kv_ruptl": "150/20", "source_page": "1186"}}, {"type": "Feature", "geometry": {"type": "Point", "coordinates": [122.1891863, -8.5958161]}, "properties": {"id": "GI-NTT-0010", "name": "Maumere", "voltage": "150/20", "trafo_count": 1, "capacity_mva": 30.0, "province": "Nusa Tenggara Timur", "system": "NTT", "osm_id": "way/937059874", "osm_name": "Gardu Induk Maumere", "match_score": 1.0, "match_source": "osm_fuzzy", "review_flag": "", "source_id": "RUPTL-2025-2034", "source_table": "Tabel C12.4", "match_tier": "BASELINE", "source": "RUPTL-2025-2034", "target_cod_year_ruptl": "", "action_norm": "", "status_norm": ""}}, {"type": "Feature", "geometry": {"type": "Point", "coordinates": [122.1891863, -8.5958161]}, "properties": {"id": "GI-NTT-0011", "name": "Maumere", "voltage": "70/20", "trafo_count": 1, "capacity_mva": 20.0, "province": "Nusa Tenggara Timur", "system": "NTT", "osm_id": "way/937059874", "osm_name": "Gardu Induk Maumere", "match_score": 1.0, "match_source": "osm_fuzzy", "review_flag": "", "source_id": "RUPTL-2025-2034", "source_table": "Tabel C12.4", "match_tier": "BASELINE", "source": "RUPTL-2025-2034", "target_cod_year_ruptl": "", "action_norm": "", "status_norm": ""}}, {"type": "Feature", "geometry": {"type": "Point", "coordinates": [121.7009187, -8.5093678]}, "properties": {"id": "GI-NTT-0012", "name": "Ropa", "voltage": "70/20", "trafo_count": 1, "capacity_mva": 5.0, "province": "Nusa Tenggara Timur", "system": "NTT", "osm_id": "way/614243452", "osm_name": "Gardu Induk Ropa", "match_score": 1.0, "match_source": "osm_fuzzy", "review_flag": "", "source_id": "RUPTL-2025-2034", "source_table": "Tabel C12.17", "match_tier": "PLANNED_ORPHAN", "source": "RUPTL-2025-2034", "target_cod_year_ruptl": "2025", "action_norm": "", "status_norm": "COMMITTED", "ruptl_id": "RUPTL-NTT-GI-0004", "action_type_ruptl": "", "status_ruptl": "Committed", "capacity_mva_ruptl": "30.0", "voltage_kv_ruptl": "70/20", "source_page": "1186"}}, {"type": "Feature", "geometry": {"type": "Point", "coordinates": [121.6725684, -8.8453602]}, "properties": {"id": "GI-NTT-0013", "name": "Ende", "voltage": "70/20", "trafo_count": 2, "capacity_mva": 50.0, "province": "Nusa Tenggara Timur", "system": "NTT", "osm_id": "way/614243449", "osm_name": "Gardu Induk Ende", "match_score": 1.0, "match_source": "osm_fuzzy", "review_flag": "", "source_id": "RUPTL-2025-2034", "source_table": "Tabel C12.4", "match_tier": "BASELINE", "source": "RUPTL-2025-2034", "target_cod_year_ruptl": "", "action_norm": "", "status_norm": ""}}, {"type": "Feature", "geometry": {"type": "Point", "coordinates": [120.9996092, -8.7807679]}, "properties": {"id": "GI-NTT-0015", "name": "Bajawa", "voltage": "70/20", "trafo_count": 1, "capacity_mva": 20.0, "province": "Nusa Tenggara Timur", "system": "NTT", "osm_id": "way/937059873", "osm_name": "Gardu Induk Bajawa", "match_score": 1.0, "match_source": "osm_fuzzy", "review_flag": "", "source_id": "RUPTL-2025-2034", "source_table": "Tabel C12.20", "match_tier": "PLANNED_ORPHAN", "source": "RUPTL-2025-2034", "target_cod_year_ruptl": "2032", "action_norm": "", "status_norm": "PLANNED", "ruptl_id": "RUPTL-NTT-GI-0025", "action_type_ruptl": "", "status_ruptl": "Planned", "capacity_mva_ruptl": "30.0", "voltage_kv_ruptl": "70/20", "source_page": "1187"}}, {"type": "Feature", "geometry": {"type": "Point", "coordinates": [120.4231458, -8.5983218]}, "properties": {"id": "GI-NTT-0017", "name": "Ruteng", "voltage": "70/20", "trafo_count": 2, "capacity_mva": 50.0, "province": "Nusa Tenggara Timur", "system": "NTT", "osm_id": "way/937059869", "osm_name": "Gardu Induk Bahong", "match_score": 1.0, "match_source": "override:osm_substation", "review_flag": "", "source_id": "RUPTL-2025-2034", "source_table": "Tabel C12.20", "match_tier": "PLANNED_ORPHAN", "source": "RUPTL-2025-2034", "target_cod_year_ruptl": "2032", "action_norm": "", "status_norm": "PLANNED", "ruptl_id": "RUPTL-NTT-GI-0024", "action_type_ruptl": "", "status_ruptl": "Planned", "capacity_mva_ruptl": "30.0", "voltage_kv_ruptl": "70/20", "source_page": "1187"}}, {"type": "Feature", "geometry": {"type": "Point", "coordinates": [119.882901, -8.5408133]}, "properties": {"id": "GI-NTT-0018", "name": "Labuan Bajo", "voltage": "70/20", "trafo_count": 2, "capacity_mva": 50.0, "province": "Nusa Tenggara Timur", "system": "NTT", "osm_id": "way/937059865", "osm_name": "Gardu Induk Labuan Bajo", "match_score": 1.0, "match_source": "osm_fuzzy", "review_flag": "", "source_id": "RUPTL-2025-2034", "source_table": "Tabel C12.17", "match_tier": "PLANNED_ORPHAN", "source": "RUPTL-2025-2034", "target_cod_year_ruptl": "2031", "action_norm": "", "status_norm": "PLANNED", "ruptl_id": "RUPTL-NTT-GI-0023", "action_type_ruptl": "", "status_ruptl": "Planned", "capacity_mva_ruptl": "60.0", "voltage_kv_ruptl": "70/20", "source_page": "1186"}}, {"type": "Feature", "geometry": {"type": "Point", "coordinates": [119.9442631, -8.4612847]}, "properties": {"id": "GI-NTT-0019", "name": "PLTMG Flores / Rangko", "voltage": "70/20", "trafo_count": 1, "capacity_mva": 30.0, "province": "Nusa Tenggara Timur", "system": "NTT", "osm_id": "way/937059866", "osm_name": "PLTMG Flores", "match_score": 1.0, "match_source": "override:osm_plant", "review_flag": "", "source_id": "RUPTL-2025-2034", "source_table": "Tabel C12.4", "match_tier": "BASELINE", "source": "RUPTL-2025-2034", "target_cod_year_ruptl": "", "action_norm": "", "status_norm": ""}}]}