{"type": "FeatureCollection", "features": [{"type": "Feature", "geometry": {"type": "Point", "coordinates": [124.8645128, 1.4852886]}, "properties": {"id": "GI-SLW-0001", "name": "Ranomut", "voltage": "70/20", "trafo_count": 4, "capacity_mva": 90.0, "province": "Sulawesi Utara", "system": "Sulutgo", "osm_id": "way/657977648", "osm_name": "Gardu Induk Ranomut", "match_score": 1.0, "match_source": "osm_fuzzy", "review_flag": "", "source_id": "RUPTL-2025-2034", "source_table": "Tabel C1.4"}}, {"type": "Feature", "geometry": {"type": "Point", "coordinates": [124.9598602, 1.3873461]}, "properties": {"id": "GI-SLW-0002", "name": "Sawangan", "voltage": "70/20", "trafo_count": 1, "capacity_mva": 30.0, "province": "Sulawesi Utara", "system": "Sulutgo", "osm_id": "way/102601031", "osm_name": "Gardu Induk Sawangan", "match_score": 1.0, "match_source": "osm_fuzzy", "review_flag": "", "source_id": "RUPTL-2025-2034", "source_table": "Tabel C1.4"}}, {"type": "Feature", "geometry": {"type": "Point", "coordinates": [125.1891514, 1.4465601]}, "properties": {"id": "GI-SLW-0003", "name": "Bitung", "voltage": "70/20", "trafo_count": 3, "capacity_mva": 80.0, "province": "Sulawesi Utara", "system": "Sulutgo", "osm_id": "way/943309170", "osm_name": "Gardu Induk Bitung", "match_score": 1.0, "match_source": "osm_fuzzy", "review_flag": "", "source_id": "RUPTL-2025-2034", "source_table": "Tabel C1.4"}}, {"type": "Feature", "geometry": {"type": "Point", "coordinates": [124.9235684, 1.3268064]}, "properties": {"id": "GI-SLW-0004", "name": "Tonsealama", "voltage": "70/20", "trafo_count": 3, "capacity_mva": 60.0, "province": "Sulawesi Utara", "system": "Sulutgo", "osm_id": "way/943309176", "osm_name": "Gardu Induk Tonsealame", "match_score": 0.9, "match_source": "osm_fuzzy", "review_flag": "", "source_id": "RUPTL-2025-2034", "source_table": "Tabel C1.4"}}, {"type": "Feature", "geometry": {"type": "Point", "coordinates": [124.8551573, 1.4569436]}, "properties": {"id": "GI-SLW-0005", "name": "Teling", "voltage": "70/20", "trafo_count": 3, "capacity_mva": 50.0, "province": "Sulawesi Utara", "system": "Sulutgo", "osm_id": "way/657832693", "osm_name": "Gardu Induk Teling", "match_score": 1.0, "match_source": "osm_fuzzy", "review_flag": "", "source_id": "RUPTL-2025-2034", "source_table": "Tabel C1.4"}}, {"type": "Feature", "geometry": {"type": "Point", "coordinates": [124.8551573, 1.4569436]}, "properties": {"id": "GI-SLW-0006", "name": "GIS Teling", "voltage": "150/20", "trafo_count": 2, "capacity_mva": 90.0, "province": "Sulawesi Utara", "system": "Sulutgo", "osm_id": "way/657832693", "osm_name": "Gardu Induk Teling", "match_score": 1.0, "match_source": "osm_fuzzy", "review_flag": "", "source_id": "RUPTL-2025-2034", "source_table": "Tabel C1.4"}}, {"type": "Feature", "geometry": {"type": "Point", "coordinates": [124.9262894, 1.4941148]}, "properties": {"id": "GI-SLW-0007", "name": "Paniki", "voltage": "150/20", "trafo_count": 2, "capacity_mva": 90.0, "province": "Sulawesi Utara", "system": "Sulutgo", "osm_id": "way/657832695", "osm_name": "Gardu Induk Paniki", "match_score": 1.0, "match_source": "osm_fuzzy", "review_flag": "", "source_id": "RUPTL-2025-2034", "source_table": "Tabel C1.4"}}, {"type": "Feature", "geometry": {"type": "Point", "coordinates": [124.8522418, 1.3138668]}, "properties": {"id": "GI-SLW-0008", "name": "Tomohon", "voltage": "150/20", "trafo_count": 1, "capacity_mva": 60.0, "province": "Sulawesi Utara", "system": "Sulutgo", "osm_id": "way/943309169", "osm_name": "Gardu Induk Tomohon", "match_score": 1.0, "match_source": "osm_fuzzy", "review_flag": "", "source_id": "RUPTL-2025-2034", "source_table": "Tabel C1.4"}}, {"type": "Feature", "geometry": {"type": "Point", "coordinates": [124.8522418, 1.3138668]}, "properties": {"id": "GI-SLW-0009", "name": "Tomohon", "voltage": "70/20", "trafo_count": 2, "capacity_mva": 20.0, "province": "Sulawesi Utara", "system": "Sulutgo", "osm_id": "way/943309169", "osm_name": "Gardu Induk Tomohon", "match_score": 1.0, "match_source": "osm_fuzzy", "review_flag": "", "source_id": "RUPTL-2025-2034", "source_table": "Tabel C1.4"}}, {"type": "Feature", "geometry": {"type": "Point", "coordinates": [124.7951495, 1.1785989]}, "properties": {"id": "GI-SLW-0010", "name": "Kawangkoan", "voltage": "150/20", "trafo_count": 3, "capacity_mva": 70.0, "province": "Sulawesi Utara", "system": "Sulutgo", "osm_id": "way/615868408", "osm_name": "Gardu Induk Kawangkoan", "match_score": 1.0, "match_source": "osm_fuzzy", "review_flag": "", "source_id": "RUPTL-2025-2034", "source_table": "Tabel C1.4"}}, {"type": "Feature", "geometry": {"type": "Point", "coordinates": [124.6038362, 1.2191071]}, "properties": {"id": "GI-SLW-0011", "name": "Lopana", "voltage": "150/20", "trafo_count": 2, "capacity_mva": 50.0, "province": "Sulawesi Utara", "system": "Sulutgo", "osm_id": "way/615868416", "osm_name": "Gardu Induk Lopana", "match_score": 1.0, "match_source": "osm_fuzzy", "review_flag": "", "source_id": "RUPTL-2025-2034", "source_table": "Tabel C1.4"}}, {"type": "Feature", "geometry": {"type": "Point", "coordinates": [124.7146565, 1.4155567]}, "properties": {"id": "GI-SLW-0012", "name": "Tasik Ria", "voltage": "70/20", "trafo_count": 2, "capacity_mva": 50.0, "province": "Sulawesi Utara", "system": "Sulutgo", "osm_id": "way/615868404", "osm_name": "Gardu Induk Tasik Ria", "match_score": 1.0, "match_source": "osm_fuzzy", "review_flag": "", "source_id": "RUPTL-2025-2034", "source_table": "Tabel C1.4"}}, {"type": "Feature", "geometry": {"type": "Point", "coordinates": [125.0941263, 1.6574011]}, "properties": {"id": "GI-SLW-0013", "name": "Likupang", "voltage": "70/20", "trafo_count": 3, "capacity_mva": 60.0, "province": "Sulawesi Utara", "system": "Sulutgo", "osm_id": "way/101696485", "osm_name": "Gardu Induk Likupang", "match_score": 1.0, "match_source": "osm_fuzzy", "review_flag": "", "source_id": "RUPTL-2025-2034", "source_table": "Tabel C1.4"}}, {"type": "Feature", "geometry": {"type": "Point", "coordinates": [125.1119292, 1.4088158]}, "properties": {"id": "GI-SLW-0014", "name": "Tanjung Merah", "voltage": "150/20", "trafo_count": 2, "capacity_mva": 90.0, "province": "Sulawesi Utara", "system": "Sulutgo", "osm_id": "way/700639075", "osm_name": "Gardu Induk Tanjung Merah", "match_score": 1.0, "match_source": "osm_fuzzy", "review_flag": "", "source_id": "RUPTL-2025-2034", "source_table": "Tabel C1.4"}}, {"type": "Feature", "geometry": {"type": "Point", "coordinates": [124.2931807, 0.780419]}, "properties": {"id": "GI-SLW-0015", "name": "Otam", "voltage": "150/20", "trafo_count": 2, "capacity_mva": 90.0, "province": "Sulawesi Utara", "system": "Sulutgo", "osm_id": "way/615868417", "osm_name": "Gardu Induk Otam", "match_score": 1.0, "match_source": "osm_fuzzy", "review_flag": "", "source_id": "RUPTL-2025-2034", "source_table": "Tabel C1.4"}}, {"type": "Feature", "geometry": {"type": "Point", "coordinates": [123.9955535, 0.8576516]}, "properties": {"id": "GI-SLW-0016", "name": "Lolak", "voltage": "150/20", "trafo_count": 1, "capacity_mva": 30.0, "province": "Sulawesi Utara", "system": "Sulutgo", "osm_id": "way/615868418", "osm_name": "Gardu Induk Lolak", "match_score": 1.0, "match_source": "osm_fuzzy", "review_flag": "", "source_id": "RUPTL-2025-2034", "source_table": "Tabel C1.4"}}, {"type": "Feature", "geometry": {"type": "Point", "coordinates": [124.4103343, 0.809498]}, "properties": {"id": "GI-SLW-0017", "name": "GIS Sinsingon", "voltage": "150/20", "trafo_count": 1, "capacity_mva": 20.0, "province": "Sulawesi Utara", "system": "Sulutgo", "osm_id": "way/1316759056", "osm_name": "GIS Mobile Sinsingon", "match_score": 0.95, "match_source": "osm_fuzzy", "review_flag": "", "source_id": "RUPTL-2025-2034", "source_table": "Tabel C1.4"}}, {"type": "Feature", "geometry": {"type": "Point", "coordinates": [124.0511468, 0.3846942]}, "properties": {"id": "GI-SLW-0019", "name": "Molibagu", "voltage": "150/20", "trafo_count": 1, "capacity_mva": 30.0, "province": "Sulawesi Utara", "system": "Sulutgo", "osm_id": "way/943309148", "osm_name": "Gardu Induk Molibagu", "match_score": 1.0, "match_source": "osm_fuzzy", "review_flag": "", "source_id": "RUPTL-2025-2034", "source_table": "Tabel C1.4"}}, {"type": "Feature", "geometry": {"type": "Point", "coordinates": [124.4793945, 1.1833413]}, "properties": {"id": "GI-SLW-0020", "name": "Amurang", "voltage": "150/20", "trafo_count": 1, "capacity_mva": 60.0, "province": "Sulawesi Utara", "system": "Sulutgo", "osm_id": "way/943309157", "osm_name": "PLTU Amurang", "match_score": 1.0, "match_source": "override:osm_plant", "review_flag": "", "source_id": "RUPTL-2025-2034", "source_table": "Tabel C1.4"}}, {"type": "Feature", "geometry": {"type": "Point", "coordinates": [124.8760357, 1.5796264]}, "properties": {"id": "GI-SLW-0024", "name": "GI Pandu", "voltage": "150/20", "trafo_count": 1, "capacity_mva": 60.0, "province": "Sulawesi Utara", "system": "Sulutgo", "osm_id": "way/1191616532", "osm_name": "Gardu Induk Pandu", "match_score": 0.92, "match_source": "osm_fuzzy", "review_flag": "", "source_id": "RUPTL-2025-2034", "source_table": "Tabel C1.4"}}, {"type": "Feature", "geometry": {"type": "Point", "coordinates": [119.888376, -0.8765448]}, "properties": {"id": "GI-SLW-0025", "name": "Talise", "voltage": "70/20", "trafo_count": 4, "capacity_mva": 100.0, "province": "Sulawesi Tengah", "system": "Sulteng", "osm_id": "way/167062122", "osm_name": "Gardu Induk Talise", "match_score": 1.0, "match_source": "osm_fuzzy", "review_flag": "", "source_id": "RUPTL-2025-2034", "source_table": "Tabel C2.4"}}, {"type": "Feature", "geometry": {"type": "Point", "coordinates": [120.1030782, -0.762972]}, "properties": {"id": "GI-SLW-0026", "name": "Parigi", "voltage": "70/20", "trafo_count": 2, "capacity_mva": 50.0, "province": "Sulawesi Tengah", "system": "Sulteng", "osm_id": "way/628929620", "osm_name": "Gardu Induk Parigi", "match_score": 1.0, "match_source": "osm_fuzzy", "review_flag": "", "source_id": "RUPTL-2025-2034", "source_table": "Tabel C2.4"}}, {"type": "Feature", "geometry": {"type": "Point", "coordinates": [119.8154106, -0.8582113]}, "properties": {"id": "GI-SLW-0028", "name": "Silae", "voltage": "150/20", "trafo_count": 2, "capacity_mva": 90.0, "province": "Sulawesi Tengah", "system": "Sulteng", "osm_id": "way/629257348", "osm_name": "Gardu Induk Silae", "match_score": 1.0, "match_source": "osm_fuzzy", "review_flag": "", "source_id": "RUPTL-2025-2034", "source_table": "Tabel C2.4"}}, {"type": "Feature", "geometry": {"type": "Point", "coordinates": [120.6501388, -1.6404227]}, "properties": {"id": "GI-SLW-0029", "name": "Tentena", "voltage": "150/20", "trafo_count": 2, "capacity_mva": 40.0, "province": "Sulawesi Tengah", "system": "Sulteng", "osm_id": "way/615581242", "osm_name": "Gardu Induk Tentena", "match_score": 1.0, "match_source": "osm_fuzzy", "review_flag": "", "source_id": "RUPTL-2025-2034", "source_table": "Tabel C2.4"}}, {"type": "Feature", "geometry": {"type": "Point", "coordinates": [120.7035108, -1.4108911]}, "properties": {"id": "GI-SLW-0030", "name": "Poso", "voltage": "150/20", "trafo_count": 2, "capacity_mva": 90.0, "province": "Sulawesi Tengah", "system": "Sulteng", "osm_id": "way/615581241", "osm_name": "Gardu Induk Poso", "match_score": 1.0, "match_source": "osm_fuzzy", "review_flag": "", "source_id": "RUPTL-2025-2034", "source_table": "Tabel C2.4"}}, {"type": "Feature", "geometry": {"type": "Point", "coordinates": [122.3362526, -1.4559432]}, "properties": {"id": "GI-SLW-0031", "name": "Toili", "voltage": "150/20", "trafo_count": 1, "capacity_mva": 30.0, "province": "Sulawesi Tengah", "system": "Sulteng", "osm_id": "way/950292848", "osm_name": "Gardu Induk Toili", "match_score": 1.0, "match_source": "osm_fuzzy", "review_flag": "", "source_id": "RUPTL-2025-2034", "source_table": "Tabel C2.4"}}, {"type": "Feature", "geometry": {"type": "Point", "coordinates": [122.7755615, -0.984518]}, "properties": {"id": "GI-SLW-0032", "name": "Luwuk", "voltage": "150/20", "trafo_count": 1, "capacity_mva": 60.0, "province": "Sulawesi Tengah", "system": "Sulteng", "osm_id": "way/950292852", "osm_name": "Gardu Induk Luwuk", "match_score": 1.0, "match_source": "osm_fuzzy", "review_flag": "", "source_id": "RUPTL-2025-2034", "source_table": "Tabel C2.4"}}, {"type": "Feature", "geometry": {"type": "Point", "coordinates": [119.888376, -0.8765448]}, "properties": {"id": "GI-SLW-0033", "name": "Talise", "voltage": "150/20", "trafo_count": 1, "capacity_mva": 60.0, "province": "Sulawesi Tengah", "system": "Sulteng", "osm_id": "way/167062122", "osm_name": "Gardu Induk Talise", "match_score": 1.0, "match_source": "osm_fuzzy", "review_flag": "", "source_id": "RUPTL-2025-2034", "source_table": "Tabel C2.4"}}, {"type": "Feature", "geometry": {"type": "Point", "coordinates": [119.7113753, -0.7179644]}, "properties": {"id": "GI-SLW-0034", "name": "Donggala", "voltage": "150/20", "trafo_count": 1, "capacity_mva": 60.0, "province": "Sulawesi Tengah", "system": "Sulteng", "osm_id": "way/1180198268", "osm_name": "Gardu Induk Donggala", "match_score": 1.0, "match_source": "osm_fuzzy", "review_flag": "", "source_id": "RUPTL-2025-2034", "source_table": "Tabel C2.4"}}, {"type": "Feature", "geometry": {"type": "Point", "coordinates": [119.8796882, -0.7131439]}, "properties": {"id": "GI-SLW-0035", "name": "Tawaeli", "voltage": "150/20", "trafo_count": 1, "capacity_mva": 60.0, "province": "Sulawesi Tengah", "system": "Sulteng", "osm_id": "way/1180198267", "osm_name": "Gardu Induk Tawaeli", "match_score": 1.0, "match_source": "osm_fuzzy", "review_flag": "", "source_id": "RUPTL-2025-2034", "source_table": "Tabel C2.4"}}, {"type": "Feature", "geometry": {"type": "Point", "coordinates": [121.4149254, -2.0819924]}, "properties": {"id": "GI-SLW-0036", "name": "Kolonedale", "voltage": "150/20", "trafo_count": 1, "capacity_mva": 30.0, "province": "Sulawesi Tengah", "system": "Sulteng", "osm_id": "way/1193463959", "osm_name": "Gardu Induk Kolonodale", "match_score": 0.9, "match_source": "osm_fuzzy", "review_flag": "", "source_id": "RUPTL-2025-2034", "source_table": "Tabel C2.4"}}, {"type": "Feature", "geometry": {"type": "Point", "coordinates": [120.2486332, 0.8186789]}, "properties": {"id": "GI-SLW-0037", "name": "Bangkir", "voltage": "150/20", "trafo_count": 1, "capacity_mva": 30.0, "province": "Sulawesi Tengah", "system": "Sulteng", "osm_id": "way/942620057", "osm_name": "Gardu Induk Bangkir", "match_score": 1.0, "match_source": "osm_fuzzy", "review_flag": "", "source_id": "RUPTL-2025-2034", "source_table": "Tabel C2.4"}}, {"type": "Feature", "geometry": {"type": "Point", "coordinates": [120.939097, 0.4565205]}, "properties": {"id": "GI-SLW-0038", "name": "Moutong", "voltage": "150/20", "trafo_count": 1, "capacity_mva": 30.0, "province": "Sulawesi Tengah", "system": "Sulteng", "osm_id": "way/942620058", "osm_name": "Gardu Induk Moutong", "match_score": 1.0, "match_source": "osm_fuzzy", "review_flag": "", "source_id": "RUPTL-2025-2034", "source_table": "Tabel C2.4"}}, {"type": "Feature", "geometry": {"type": "Point", "coordinates": [120.6501388, -1.6404227]}, "properties": {"id": "GI-SLW-0039", "name": "Tentena", "voltage": "275/150", "trafo_count": 2, "capacity_mva": 180.0, "province": "Sulawesi Tengah", "system": "Sulteng", "osm_id": "way/615581242", "osm_name": "Gardu Induk Tentena", "match_score": 1.0, "match_source": "osm_fuzzy", "review_flag": "", "source_id": "RUPTL-2025-2034", "source_table": "Tabel C2.4"}}, {"type": "Feature", "geometry": {"type": "Point", "coordinates": [122.8858206, 0.656531]}, "properties": {"id": "GI-SLW-0040", "name": "Isimu", "voltage": "150/20", "trafo_count": 2, "capacity_mva": 90.0, "province": "Gorontalo", "system": "Sulutgo", "osm_id": "way/757066905", "osm_name": "Gardu Induk Isimu", "match_score": 1.0, "match_source": "osm_fuzzy", "review_flag": "", "source_id": "RUPTL-2025-2034", "source_table": "Tabel C3.4"}}, {"type": "Feature", "geometry": {"type": "Point", "coordinates": [123.1266586, 0.519691]}, "properties": {"id": "GI-SLW-0041", "name": "Botupingge", "voltage": "150/20", "trafo_count": 2, "capacity_mva": 120.0, "province": "Gorontalo", "system": "Sulutgo", "osm_id": "way/757066903", "osm_name": "Gardu Induk Botupingge", "match_score": 1.0, "match_source": "osm_fuzzy", "review_flag": "", "source_id": "RUPTL-2025-2034", "source_table": "Tabel C3.4"}}, {"type": "Feature", "geometry": {"type": "Point", "coordinates": [122.0127134, 0.4777616]}, "properties": {"id": "GI-SLW-0042", "name": "Marisa", "voltage": "150/20", "trafo_count": 1, "capacity_mva": 30.0, "province": "Gorontalo", "system": "Sulutgo", "osm_id": "way/397085936", "osm_name": "Gardu Induk Marisa", "match_score": 1.0, "match_source": "osm_fuzzy", "review_flag": "", "source_id": "RUPTL-2025-2034", "source_table": "Tabel C3.4"}}, {"type": "Feature", "geometry": {"type": "Point", "coordinates": [122.7965578, 0.8507011]}, "properties": {"id": "GI-SLW-0043", "name": "Anggrek (PLTU Gorontalo)", "voltage": "150/20", "trafo_count": 1, "capacity_mva": 20.0, "province": "Gorontalo", "system": "Sulutgo", "osm_id": "way/942620063", "osm_name": "PLTU Anggrek", "match_score": 1.0, "match_source": "override:osm_plant", "review_flag": "", "source_id": "RUPTL-2025-2034", "source_table": "Tabel C3.4"}}, {"type": "Feature", "geometry": {"type": "Point", "coordinates": [123.0254165, 0.5510867]}, "properties": {"id": "GI-SLW-0044", "name": "Gorontalo Baru", "voltage": "150/20", "trafo_count": 1, "capacity_mva": 60.0, "province": "Gorontalo", "system": "Sulutgo", "osm_id": "way/1224978143", "osm_name": "Gardu Induk Gorontalo Baru", "match_score": 1.0, "match_source": "osm_fuzzy", "review_flag": "", "source_id": "RUPTL-2025-2034", "source_table": "Tabel C3.4"}}, {"type": "Feature", "geometry": {"type": "Point", "coordinates": [122.4811361, 0.6067016]}, "properties": {"id": "GI-SLW-0045", "name": "Tilamuta", "voltage": "150/20", "trafo_count": 1, "capacity_mva": 30.0, "province": "Gorontalo", "system": "Sulutgo", "osm_id": "way/942620062", "osm_name": "Gardu Induk Tilamuta", "match_score": 1.0, "match_source": "osm_fuzzy", "review_flag": "", "source_id": "RUPTL-2025-2034", "source_table": "Tabel C3.4"}}, {"type": "Feature", "geometry": {"type": "Point", "coordinates": [122.1518888, 1.0200545]}, "properties": {"id": "GI-SLW-0046", "name": "Tolinggula", "voltage": "150/20", "trafo_count": 1, "capacity_mva": 30.0, "province": "Gorontalo", "system": "Sulutgo", "osm_id": "way/942620060", "osm_name": "Gardu Induk Tolinggula", "match_score": 1.0, "match_source": "osm_fuzzy", "review_flag": "", "source_id": "RUPTL-2025-2034", "source_table": "Tabel C3.4"}}, {"type": "Feature", "geometry": {"type": "Point", "coordinates": [119.5275995, -5.0606118]}, "properties": {"id": "GI-SLW-0047", "name": "Mandai", "voltage": "70/20", "trafo_count": 2, "capacity_mva": 40.0, "province": "Sulawesi Selatan", "system": "Sulselrabar", "osm_id": "way/1155942858", "osm_name": "Gardu Induk Mandai", "match_score": 1.0, "match_source": "osm_fuzzy", "review_flag": "", "source_id": "RUPTL-2025-2034", "source_table": "Tabel C4.4"}}, {"type": "Feature", "geometry": {"type": "Point", "coordinates": [119.5082488, -5.1044304]}, "properties": {"id": "GI-SLW-0048", "name": "Daya", "voltage": "70/20", "trafo_count": 1, "capacity_mva": 20.0, "province": "Sulawesi Selatan", "system": "Sulselrabar", "osm_id": "way/1155942860", "osm_name": "Gardu Induk Daya", "match_score": 1.0, "match_source": "osm_fuzzy", "review_flag": "", "source_id": "RUPTL-2025-2034", "source_table": "Tabel C4.4"}}, {"type": "Feature", "geometry": {"type": "Point", "coordinates": [119.595475, -4.9304815]}, "properties": {"id": "GI-SLW-0049", "name": "Maros", "voltage": "150/20", "trafo_count": 2, "capacity_mva": 60.0, "province": "Sulawesi Selatan", "system": "Sulselrabar", "osm_id": "way/399505633", "osm_name": "Gardu Induk Maros", "match_score": 1.0, "match_source": "osm_fuzzy", "review_flag": "", "source_id": "RUPTL-2025-2034", "source_table": "Tabel C4.4"}}, {"type": "Feature", "geometry": {"type": "Point", "coordinates": [119.4991983, -5.0858413]}, "properties": {"id": "GI-SLW-0050", "name": "Kima Makassar", "voltage": "150/20", "trafo_count": 2, "capacity_mva": 90.0, "province": "Sulawesi Selatan", "system": "Sulselrabar", "osm_id": "way/756876724", "osm_name": "Gardu Induk KIMA Makassar", "match_score": 1.0, "match_source": "osm_fuzzy", "review_flag": "", "source_id": "RUPTL-2025-2034", "source_table": "Tabel C4.4"}}, {"type": "Feature", "geometry": {"type": "Point", "coordinates": [119.4378194, -5.1100362]}, "properties": {"id": "GI-SLW-0051", "name": "Tallo Lama", "voltage": "150/20", "trafo_count": 3, "capacity_mva": 120.0, "province": "Sulawesi Selatan", "system": "Sulselrabar", "osm_id": "way/258997962", "osm_name": "Gardu Induk Tallo Lama", "match_score": 1.0, "match_source": "osm_fuzzy", "review_flag": "", "source_id": "RUPTL-2025-2034", "source_table": "Tabel C4.4"}}, {"type": "Feature", "geometry": {"type": "Point", "coordinates": [119.4719989, -5.1473815]}, "properties": {"id": "GI-SLW-0053", "name": "Tello", "voltage": "150/20", "trafo_count": 2, "capacity_mva": 120.0, "province": "Sulawesi Selatan", "system": "Sulselrabar", "osm_id": "way/109924603", "osm_name": "PLTU Tello", "match_score": 1.0, "match_source": "override:osm_plant", "review_flag": "", "source_id": "RUPTL-2025-2034", "source_table": "Tabel C4.4"}}, {"type": "Feature", "geometry": {"type": "Point", "coordinates": [119.395629, -5.1900981]}, "properties": {"id": "GI-SLW-0055", "name": "Tanjung Bunga", "voltage": "150/20", "trafo_count": 3, "capacity_mva": 180.0, "province": "Sulawesi Selatan", "system": "Sulselrabar", "osm_id": "way/399505626", "osm_name": "Gardu Induk Tanjung Bunga", "match_score": 1.0, "match_source": "osm_fuzzy", "review_flag": "", "source_id": "RUPTL-2025-2034", "source_table": "Tabel C4.4"}}, {"type": "Feature", "geometry": {"type": "Point", "coordinates": [119.4738259, -5.4623087]}, "properties": {"id": "GI-SLW-0057", "name": "Tallasa", "voltage": "150/20", "trafo_count": 3, "capacity_mva": 110.0, "province": "Sulawesi Selatan", "system": "Sulselrabar", "osm_id": "way/116023446", "osm_name": "Gardu Induk Tallasa", "match_score": 1.0, "match_source": "osm_fuzzy", "review_flag": "", "source_id": "RUPTL-2025-2034", "source_table": "Tabel C4.4"}}, {"type": "Feature", "geometry": {"type": "Point", "coordinates": [119.4622946, -5.2310143]}, "properties": {"id": "GI-SLW-0058", "name": "Sungguminasa", "voltage": "150/20", "trafo_count": 2, "capacity_mva": 120.0, "province": "Sulawesi Selatan", "system": "Sulselrabar", "osm_id": "way/116023450", "osm_name": "Gardu Induk Sungguminasa", "match_score": 1.0, "match_source": "osm_fuzzy", "review_flag": "", "source_id": "RUPTL-2025-2034", "source_table": "Tabel C4.4"}}, {"type": "Feature", "geometry": {"type": "Point", "coordinates": [119.636752, -4.0222747]}, "properties": {"id": "GI-SLW-0059", "name": "Pare-pare", "voltage": "150/20", "trafo_count": 3, "capacity_mva": 76.0, "province": "Sulawesi Selatan", "system": "Sulselrabar", "osm_id": "way/257725651", "osm_name": "Gardu Induk Parepare", "match_score": 0.94, "match_source": "osm_fuzzy", "review_flag": "", "source_id": "RUPTL-2025-2034", "source_table": "Tabel C4.4"}}, {"type": "Feature", "geometry": {"type": "Point", "coordinates": [119.6259638, -4.4066598]}, "properties": {"id": "GI-SLW-0060", "name": "Barru", "voltage": "150/20", "trafo_count": 1, "capacity_mva": 20.0, "province": "Sulawesi Selatan", "system": "Sulselrabar", "osm_id": "way/1314037779", "osm_name": "Gardu Induk Barru", "match_score": 1.0, "match_source": "osm_fuzzy", "review_flag": "", "source_id": "RUPTL-2025-2034", "source_table": "Tabel C4.4"}}, {"type": "Feature", "geometry": {"type": "Point", "coordinates": [119.6493595, -3.4746174]}, "properties": {"id": "GI-SLW-0061", "name": "Bakaru", "voltage": "150/20", "trafo_count": 1, "capacity_mva": 20.0, "province": "Sulawesi Selatan", "system": "Sulselrabar", "osm_id": "way/399724591", "osm_name": "Gardu Induk Bakaru", "match_score": 1.0, "match_source": "osm_fuzzy", "review_flag": "", "source_id": "RUPTL-2025-2034", "source_table": "Tabel C4.4"}}, {"type": "Feature", "geometry": {"type": "Point", "coordinates": [119.6372482, -3.7949088]}, "properties": {"id": "GI-SLW-0062", "name": "Pinrang", "voltage": "150/20", "trafo_count": 3, "capacity_mva": 76.0, "province": "Sulawesi Selatan", "system": "Sulselrabar", "osm_id": "way/1315155366", "osm_name": "Gardu Induk Pinrang", "match_score": 1.0, "match_source": "osm_fuzzy", "review_flag": "", "source_id": "RUPTL-2025-2034", "source_table": "Tabel C4.4"}}, {"type": "Feature", "geometry": {"type": "Point", "coordinates": [119.9240093, -4.3508161]}, "properties": {"id": "GI-SLW-0063", "name": "Soppeng", "voltage": "150/20", "trafo_count": 2, "capacity_mva": 90.0, "province": "Sulawesi Selatan", "system": "Sulselrabar", "osm_id": "way/756679753", "osm_name": "Gardu Induk Soppeng", "match_score": 1.0, "match_source": "osm_fuzzy", "review_flag": "", "source_id": "RUPTL-2025-2034", "source_table": "Tabel C4.4"}}, {"type": "Feature", "geometry": {"type": "Point", "coordinates": [120.2729125, -4.5164688]}, "properties": {"id": "GI-SLW-0064", "name": "Bone/Watampone", "voltage": "150/20", "trafo_count": 3, "capacity_mva": 80.0, "province": "Sulawesi Selatan", "system": "Sulselrabar", "osm_id": "way/248953893", "osm_name": "Gardu Induk Watampone", "match_score": 0.92, "match_source": "osm_fuzzy", "review_flag": "", "source_id": "RUPTL-2025-2034", "source_table": "Tabel C4.4"}}, {"type": "Feature", "geometry": {"type": "Point", "coordinates": [119.7526409, -3.9166965]}, "properties": {"id": "GI-SLW-0065", "name": "Sidrap", "voltage": "150/20", "trafo_count": 2, "capacity_mva": 50.0, "province": "Sulawesi Selatan", "system": "Sulselrabar", "osm_id": "way/252566435", "osm_name": "Gardu Induk Sidrap", "match_score": 1.0, "match_source": "osm_fuzzy", "review_flag": "", "source_id": "RUPTL-2025-2034", "source_table": "Tabel C4.4"}}, {"type": "Feature", "geometry": {"type": "Point", "coordinates": [120.0725884, -4.1761207]}, "properties": {"id": "GI-SLW-0066", "name": "Sengkang", "voltage": "150/20", "trafo_count": 3, "capacity_mva": 110.0, "province": "Sulawesi Selatan", "system": "Sulselrabar", "osm_id": "way/367586568", "osm_name": "PLTGU Sengkang", "match_score": 1.0, "match_source": "override:osm_plant", "review_flag": "", "source_id": "RUPTL-2025-2034", "source_table": "Tabel C4.4"}}, {"type": "Feature", "geometry": {"type": "Point", "coordinates": [120.1395388, -5.5695689]}, "properties": {"id": "GI-SLW-0067", "name": "Bulukumba", "voltage": "150/20", "trafo_count": 3, "capacity_mva": 110.0, "province": "Sulawesi Selatan", "system": "Sulselrabar", "osm_id": "way/756756918", "osm_name": "Gardu Induk Bulukumba", "match_score": 1.0, "match_source": "osm_fuzzy", "review_flag": "", "source_id": "RUPTL-2025-2034", "source_table": "Tabel C4.4"}}, {"type": "Feature", "geometry": {"type": "Point", "coordinates": [120.2392205, -5.0942472]}, "properties": {"id": "GI-SLW-0068", "name": "Sinjai", "voltage": "150/20", "trafo_count": 3, "capacity_mva": 80.0, "province": "Sulawesi Selatan", "system": "Sulselrabar", "osm_id": "way/248953894", "osm_name": "Gardu Induk Sinjai", "match_score": 1.0, "match_source": "osm_fuzzy", "review_flag": "", "source_id": "RUPTL-2025-2034", "source_table": "Tabel C4.4"}}, {"type": "Feature", "geometry": {"type": "Point", "coordinates": [119.783558, -5.6662251]}, "properties": {"id": "GI-SLW-0069", "name": "Jeneponto", "voltage": "150/20", "trafo_count": 2, "capacity_mva": 50.0, "province": "Sulawesi Selatan", "system": "Sulselrabar", "osm_id": "way/229039262", "osm_name": "Gardu Induk Jeneponto", "match_score": 1.0, "match_source": "osm_fuzzy", "review_flag": "", "source_id": "RUPTL-2025-2034", "source_table": "Tabel C4.4"}}, {"type": "Feature", "geometry": {"type": "Point", "coordinates": [119.9372713, -5.5308249]}, "properties": {"id": "GI-SLW-0070", "name": "Bantaeng", "voltage": "150/20", "trafo_count": 1, "capacity_mva": 30.0, "province": "Sulawesi Selatan", "system": "Sulselrabar", "osm_id": "way/1228891500", "osm_name": "Gardu Induk Bantaeng", "match_score": 1.0, "match_source": "osm_fuzzy", "review_flag": "", "source_id": "RUPTL-2025-2034", "source_table": "Tabel C4.4"}}, {"type": "Feature", "geometry": {"type": "Point", "coordinates": [120.1771789, -3.0243289]}, "properties": {"id": "GI-SLW-0071", "name": "Palopo", "voltage": "150/20", "trafo_count": 4, "capacity_mva": 100.0, "province": "Sulawesi Selatan", "system": "Sulselrabar", "osm_id": "way/615581272", "osm_name": "Gardu Induk Palopo", "match_score": 1.0, "match_source": "osm_fuzzy", "review_flag": "", "source_id": "RUPTL-2025-2034", "source_table": "Tabel C4.4"}}, {"type": "Feature", "geometry": {"type": "Point", "coordinates": [119.8951453, -3.0721292]}, "properties": {"id": "GI-SLW-0072", "name": "Makale", "voltage": "150/20", "trafo_count": 2, "capacity_mva": 50.0, "province": "Sulawesi Selatan", "system": "Sulselrabar", "osm_id": "way/758790653", "osm_name": "Gardu Induk Makale", "match_score": 1.0, "match_source": "osm_fuzzy", "review_flag": "", "source_id": "RUPTL-2025-2034", "source_table": "Tabel C4.4"}}, {"type": "Feature", "geometry": {"type": "Point", "coordinates": [119.5501444, -5.6181198]}, "properties": {"id": "GI-SLW-0073", "name": "Punagaya", "voltage": "150/20", "trafo_count": 1, "capacity_mva": 30.0, "province": "Sulawesi Selatan", "system": "Sulselrabar", "osm_id": "way/905955777", "osm_name": "PLTU Jeneponto", "match_score": 1.0, "match_source": "override:osm_plant", "review_flag": "", "source_id": "RUPTL-2025-2034", "source_table": "Tabel C4.4"}}, {"type": "Feature", "geometry": {"type": "Point", "coordinates": [119.5322867, -5.2043781]}, "properties": {"id": "GI-SLW-0074", "name": "Bolangi", "voltage": "150/20", "trafo_count": 2, "capacity_mva": 120.0, "province": "Sulawesi Selatan", "system": "Sulselrabar", "osm_id": "way/1155942863", "osm_name": "Gardu Induk Bolangi", "match_score": 1.0, "match_source": "osm_fuzzy", "review_flag": "", "source_id": "RUPTL-2025-2034", "source_table": "Tabel C4.4"}}, {"type": "Feature", "geometry": {"type": "Point", "coordinates": [120.7918678, -2.552042]}, "properties": {"id": "GI-SLW-0075", "name": "Wotu", "voltage": "150/20", "trafo_count": 1, "capacity_mva": 30.0, "province": "Sulawesi Selatan", "system": "Sulselrabar", "osm_id": "way/615581232", "osm_name": "Gardu Induk Wotu", "match_score": 1.0, "match_source": "osm_fuzzy", "review_flag": "", "source_id": "RUPTL-2025-2034", "source_table": "Tabel C4.4"}}, {"type": "Feature", "geometry": {"type": "Point", "coordinates": [120.3869333, -3.717022]}, "properties": {"id": "GI-SLW-0076", "name": "Siwa", "voltage": "150/20", "trafo_count": 2, "capacity_mva": 90.0, "province": "Sulawesi Selatan", "system": "Sulselrabar", "osm_id": "way/1004332817", "osm_name": "Gardu Induk Siwa", "match_score": 1.0, "match_source": "osm_fuzzy", "review_flag": "", "source_id": "RUPTL-2025-2034", "source_table": "Tabel C4.4"}}, {"type": "Feature", "geometry": {"type": "Point", "coordinates": [119.7763181, -3.5216346]}, "properties": {"id": "GI-SLW-0077", "name": "Enrekang", "voltage": "150/20", "trafo_count": 1, "capacity_mva": 30.0, "province": "Sulawesi Selatan", "system": "Sulselrabar", "osm_id": "way/1004332814", "osm_name": "Gardu Induk Enrekang", "match_score": 1.0, "match_source": "osm_fuzzy", "review_flag": "", "source_id": "RUPTL-2025-2034", "source_table": "Tabel C4.4"}}, {"type": "Feature", "geometry": {"type": "Point", "coordinates": [119.5753482, -5.1475962]}, "properties": {"id": "GI-SLW-0078", "name": "Daya Baru", "voltage": "70/20", "trafo_count": 1, "capacity_mva": 20.0, "province": "Sulawesi Selatan", "system": "Sulselrabar", "osm_id": "way/1155942862", "osm_name": "Gardu Induk Daya Baru", "match_score": 1.0, "match_source": "osm_fuzzy", "review_flag": "", "source_id": "RUPTL-2025-2034", "source_table": "Tabel C4.4"}}, {"type": "Feature", "geometry": {"type": "Point", "coordinates": [119.6552857, -5.2517848]}, "properties": {"id": "GI-SLW-0079", "name": "Lanna", "voltage": "150/20", "trafo_count": 1, "capacity_mva": 30.0, "province": "Sulawesi Selatan", "system": "Sulselrabar", "osm_id": "way/1027126735", "osm_name": "Gardu Induk Lanna", "match_score": 1.0, "match_source": "osm_fuzzy", "review_flag": "", "source_id": "RUPTL-2025-2034", "source_table": "Tabel C4.4"}}, {"type": "Feature", "geometry": {"type": "Point", "coordinates": [121.1298962, -2.6449185]}, "properties": {"id": "GI-SLW-0080", "name": "Malili", "voltage": "150/20", "trafo_count": 1, "capacity_mva": 30.0, "province": "Sulawesi Selatan", "system": "Sulselrabar", "osm_id": "way/943189967", "osm_name": "Gardu Induk Malili", "match_score": 1.0, "match_source": "osm_fuzzy", "review_flag": "", "source_id": "RUPTL-2025-2034", "source_table": "Tabel C4.4"}}, {"type": "Feature", "geometry": {"type": "Point", "coordinates": [120.14136, -5.3598758]}, "properties": {"id": "GI-SLW-0081", "name": "Tanete", "voltage": "150/20", "trafo_count": 1, "capacity_mva": 30.0, "province": "Sulawesi Selatan", "system": "Sulselrabar", "osm_id": "way/1312699029", "osm_name": "Gardu Induk Tanete", "match_score": 1.0, "match_source": "osm_fuzzy", "review_flag": "", "source_id": "RUPTL-2025-2034", "source_table": "Tabel C4.4"}}, {"type": "Feature", "geometry": {"type": "Point", "coordinates": [120.3622587, -2.5381351]}, "properties": {"id": "GI-SLW-0084", "name": "Masamba", "voltage": "150/20", "trafo_count": 1, "capacity_mva": 30.0, "province": "Sulawesi Selatan", "system": "Sulselrabar", "osm_id": "way/1312470132", "osm_name": "Gardu Induk Masamba", "match_score": 1.0, "match_source": "osm_fuzzy", "review_flag": "", "source_id": "RUPTL-2025-2034", "source_table": "Tabel C4.4"}}, {"type": "Feature", "geometry": {"type": "Point", "coordinates": [120.7918678, -2.552042]}, "properties": {"id": "GI-SLW-0085", "name": "Wotu", "voltage": "275/150", "trafo_count": 2, "capacity_mva": 340.0, "province": "Sulawesi Selatan", "system": "Sulselrabar", "osm_id": "way/615581232", "osm_name": "Gardu Induk Wotu", "match_score": 1.0, "match_source": "osm_fuzzy", "review_flag": "", "source_id": "RUPTL-2025-2034", "source_table": "Tabel C4.4"}}, {"type": "Feature", "geometry": {"type": "Point", "coordinates": [120.1771789, -3.0243289]}, "properties": {"id": "GI-SLW-0086", "name": "Palopo", "voltage": "275/150", "trafo_count": 4, "capacity_mva": 360.0, "province": "Sulawesi Selatan", "system": "Sulselrabar", "osm_id": "way/615581272", "osm_name": "Gardu Induk Palopo", "match_score": 1.0, "match_source": "osm_fuzzy", "review_flag": "", "source_id": "RUPTL-2025-2034", "source_table": "Tabel C4.4"}}, {"type": "Feature", "geometry": {"type": "Point", "coordinates": [122.5059057, -3.9567111]}, "properties": {"id": "GI-SLW-0087", "name": "Puuwatu", "voltage": "70/20", "trafo_count": 3, "capacity_mva": 80.0, "province": "Sulawesi Tenggara", "system": "Sulselrabar", "osm_id": "way/1193198583", "osm_name": "Gardu Induk Puuwatu", "match_score": 1.0, "match_source": "osm_fuzzy", "review_flag": "", "source_id": "RUPTL-2025-2034", "source_table": "Tabel C5.4"}}, {"type": "Feature", "geometry": {"type": "Point", "coordinates": [122.5374029, -3.8950056]}, "properties": {"id": "GI-SLW-0088", "name": "Nii Tanasa", "voltage": "70/20", "trafo_count": 1, "capacity_mva": 10.0, "province": "Sulawesi Tenggara", "system": "Sulselrabar", "osm_id": "way/943189957", "osm_name": "PLTU Nii Tanasa", "match_score": 1.0, "match_source": "override:osm_plant", "review_flag": "", "source_id": "RUPTL-2025-2034", "source_table": "Tabel C5.4"}}, {"type": "Feature", "geometry": {"type": "Point", "coordinates": [122.4659051, -4.0248257]}, "properties": {"id": "GI-SLW-0089", "name": "Kendari 150 kV", "voltage": "150/20", "trafo_count": 2, "capacity_mva": 120.0, "province": "Sulawesi Tenggara", "system": "Sulselrabar", "osm_id": "way/943189956", "osm_name": "Gardu Induk New Kendari", "match_score": 1.0, "match_source": "override:osm_substation", "review_flag": "", "source_id": "RUPTL-2025-2034", "source_table": "Tabel C5.4"}}, {"type": "Feature", "geometry": {"type": "Point", "coordinates": [121.6376779, -4.0729016]}, "properties": {"id": "GI-SLW-0090", "name": "Kolaka", "voltage": "150/20", "trafo_count": 1, "capacity_mva": 30.0, "province": "Sulawesi Tenggara", "system": "Sulselrabar", "osm_id": "way/943189963", "osm_name": "Gardu Induk Kolaka", "match_score": 1.0, "match_source": "osm_fuzzy", "review_flag": "", "source_id": "RUPTL-2025-2034", "source_table": "Tabel C5.4"}}, {"type": "Feature", "geometry": {"type": "Point", "coordinates": [120.9178491, -3.5364649]}, "properties": {"id": "GI-SLW-0091", "name": "Lasusua", "voltage": "150/20", "trafo_count": 1, "capacity_mva": 30.0, "province": "Sulawesi Tenggara", "system": "Sulselrabar", "osm_id": "way/943189959", "osm_name": "Gardu Induk Lasusua", "match_score": 1.0, "match_source": "osm_fuzzy", "review_flag": "", "source_id": "RUPTL-2025-2034", "source_table": "Tabel C5.4"}}, {"type": "Feature", "geometry": {"type": "Point", "coordinates": [122.0742802, -3.861767]}, "properties": {"id": "GI-SLW-0092", "name": "Unaaha", "voltage": "150/20", "trafo_count": 1, "capacity_mva": 30.0, "province": "Sulawesi Tenggara", "system": "Sulselrabar", "osm_id": "way/943189966", "osm_name": "Gardu Induk Unaaha", "match_score": 1.0, "match_source": "osm_fuzzy", "review_flag": "", "source_id": "RUPTL-2025-2034", "source_table": "Tabel C5.4"}}, {"type": "Feature", "geometry": {"type": "Point", "coordinates": [122.2452834, -4.3490591]}, "properties": {"id": "GI-SLW-0095", "name": "Andolo", "voltage": "150/20", "trafo_count": 1, "capacity_mva": 30.0, "province": "Sulawesi Tenggara", "system": "Sulselrabar", "osm_id": "way/1225042456", "osm_name": "Gardu Induk Andolo", "match_score": 1.0, "match_source": "osm_fuzzy", "review_flag": "", "source_id": "RUPTL-2025-2034", "source_table": "Tabel C5.4"}}, {"type": "Feature", "geometry": {"type": "Point", "coordinates": [122.6378516, -5.4647252]}, "properties": {"id": "GI-SLW-0097", "name": "Baubau", "voltage": "150/20", "trafo_count": 1, "capacity_mva": 60.0, "province": "Sulawesi Tenggara", "system": "Sulselrabar", "osm_id": "way/1121250709", "osm_name": "Gardu Induk Baubau", "match_score": 1.0, "match_source": "osm_fuzzy", "review_flag": "", "source_id": "RUPTL-2025-2034", "source_table": "Tabel C5.4"}}, {"type": "Feature", "geometry": {"type": "Point", "coordinates": [122.7192974, -4.875513]}, "properties": {"id": "GI-SLW-0098", "name": "Raha", "voltage": "150/20", "trafo_count": 1, "capacity_mva": 60.0, "province": "Sulawesi Tenggara", "system": "Sulselrabar", "osm_id": "way/1121250708", "osm_name": "Gardu Induk Raha", "match_score": 1.0, "match_source": "osm_fuzzy", "review_flag": "", "source_id": "RUPTL-2025-2034", "source_table": "Tabel C5.4"}}, {"type": "Feature", "geometry": {"type": "Point", "coordinates": [122.6378516, -5.4647252]}, "properties": {"id": "GI-SLW-0099", "name": "PLTMG Baubau", "voltage": "150/20", "trafo_count": 1, "capacity_mva": 60.0, "province": "Sulawesi Tenggara", "system": "Sulselrabar", "osm_id": "way/1121250709", "osm_name": "Gardu Induk Baubau", "match_score": 0.92, "match_source": "osm_fuzzy", "review_flag": "", "source_id": "RUPTL-2025-2034", "source_table": "Tabel C5.4"}}, {"type": "Feature", "geometry": {"type": "Point", "coordinates": [119.3198799, -3.4023866]}, "properties": {"id": "GI-SLW-0100", "name": "Polmas", "voltage": "150/20", "trafo_count": 2, "capacity_mva": 50.0, "province": "Sulawesi Barat", "system": "Sulselrabar", "osm_id": "way/399724593", "osm_name": "Gardu Induk Polmas", "match_score": 1.0, "match_source": "osm_fuzzy", "review_flag": "", "source_id": "RUPTL-2025-2034", "source_table": "Tabel C6.4"}}, {"type": "Feature", "geometry": {"type": "Point", "coordinates": [118.9603512, -3.4951672]}, "properties": {"id": "GI-SLW-0101", "name": "Majene", "voltage": "150/20", "trafo_count": 2, "capacity_mva": 50.0, "province": "Sulawesi Barat", "system": "Sulselrabar", "osm_id": "way/756934978", "osm_name": "Gardu Induk Majene", "match_score": 1.0, "match_source": "osm_fuzzy", "review_flag": "", "source_id": "RUPTL-2025-2034", "source_table": "Tabel C6.4"}}, {"type": "Feature", "geometry": {"type": "Point", "coordinates": [118.8802846, -2.6974393]}, "properties": {"id": "GI-SLW-0102", "name": "Mamuju", "voltage": "150/20", "trafo_count": 3, "capacity_mva": 110.0, "province": "Sulawesi Barat", "system": "Sulselrabar", "osm_id": "way/756934983", "osm_name": "Gardu Induk Mamuju", "match_score": 1.0, "match_source": "osm_fuzzy", "review_flag": "", "source_id": "RUPTL-2025-2034", "source_table": "Tabel C6.4"}}, {"type": "Feature", "geometry": {"type": "Point", "coordinates": [119.3936205, -1.1554347]}, "properties": {"id": "GI-SLW-0103", "name": "Pasangkayu", "voltage": "150/20", "trafo_count": 1, "capacity_mva": 30.0, "province": "Sulawesi Barat", "system": "Sulselrabar", "osm_id": "way/1003539537", "osm_name": "Gardu Induk Pasangkayu", "match_score": 1.0, "match_source": "osm_fuzzy", "review_flag": "", "source_id": "RUPTL-2025-2034", "source_table": "Tabel C6.4"}}, {"type": "Feature", "geometry": {"type": "Point", "coordinates": [119.1183122, -2.4921005]}, "properties": {"id": "GI-SLW-0104", "name": "Mamuju Baru", "voltage": "150/20", "trafo_count": 1, "capacity_mva": 30.0, "province": "Sulawesi Barat", "system": "Sulselrabar", "osm_id": "way/1003491139", "osm_name": "Gardu Induk Mamuju Baru", "match_score": 1.0, "match_source": "osm_fuzzy", "review_flag": "", "source_id": "RUPTL-2025-2034", "source_table": "Tabel C6.4"}}, {"type": "Feature", "geometry": {"type": "Point", "coordinates": [119.3095688, -2.0772272]}, "properties": {"id": "GI-SLW-0105", "name": "Topoyo", "voltage": "150/20", "trafo_count": 1, "capacity_mva": 30.0, "province": "Sulawesi Barat", "system": "Sulselrabar", "osm_id": "way/1225158071", "osm_name": "Gardu Induk Topoyo", "match_score": 1.0, "match_source": "osm_fuzzy", "review_flag": "", "source_id": "RUPTL-2025-2034", "source_table": "Tabel C6.4"}}]}