{"type": "FeatureCollection", "features": [{"type": "Feature", "geometry": {"type": "Point", "coordinates": [97.9430565, 4.5109106]}, "properties": {"id": "GI-SMT-0001", "name": "Alue Dua/ Langsa", "voltage": "150/20", "trafo_count": 2, "capacity_mva": 90.0, "province": "Aceh", "system": "Sumatera", "osm_id": "way/609589928", "osm_name": "Gardu Induk Langsa", "match_score": 0.92, "match_source": "osm_fuzzy", "review_flag": "", "source_id": "RUPTL-2025-2034", "source_table": "Tabel A1.4"}}, {"type": "Feature", "geometry": {"type": "Point", "coordinates": [98.0863908, 4.3835029]}, "properties": {"id": "GI-SMT-0002", "name": "Tualang Cut", "voltage": "150/20", "trafo_count": 3, "capacity_mva": 110.0, "province": "Aceh", "system": "Sumatera", "osm_id": "way/609589927", "osm_name": "Gardu Induk Tualang Cut", "match_score": 1.0, "match_source": "osm_fuzzy", "review_flag": "", "source_id": "RUPTL-2025-2034", "source_table": "Tabel A1.4"}}, {"type": "Feature", "geometry": {"type": "Point", "coordinates": [97.8390241, 4.8795321]}, "properties": {"id": "GI-SMT-0003", "name": "Alue Batee/ Idi", "voltage": "150/20", "trafo_count": 2, "capacity_mva": 50.0, "province": "Aceh", "system": "Sumatera", "osm_id": "way/605887412", "osm_name": "Gardu Induk Alue Batee", "match_score": 0.92, "match_source": "osm_fuzzy", "review_flag": "", "source_id": "RUPTL-2025-2034", "source_table": "Tabel A1.4"}}, {"type": "Feature", "geometry": {"type": "Point", "coordinates": [97.1822945, 5.1146925]}, "properties": {"id": "GI-SMT-0004", "name": "Lhokseumawe", "voltage": "150/20", "trafo_count": 2, "capacity_mva": 120.0, "province": "Aceh", "system": "Sumatera", "osm_id": "way/320433823", "osm_name": "Gardu Induk Lhokseumawe", "match_score": 1.0, "match_source": "osm_fuzzy", "review_flag": "", "source_id": "RUPTL-2025-2034", "source_table": "Tabel A1.4"}}, {"type": "Feature", "geometry": {"type": "Point", "coordinates": [96.725273, 5.1318708]}, "properties": {"id": "GI-SMT-0005", "name": "Bireuen", "voltage": "150/20", "trafo_count": 2, "capacity_mva": 120.0, "province": "Aceh", "system": "Sumatera", "osm_id": "way/605863141", "osm_name": "Gardu Induk Bireuen", "match_score": 1.0, "match_source": "osm_fuzzy", "review_flag": "", "source_id": "RUPTL-2025-2034", "source_table": "Tabel A1.4"}}, {"type": "Feature", "geometry": {"type": "Point", "coordinates": [95.9629011, 5.3524427]}, "properties": {"id": "GI-SMT-0006", "name": "Sigli", "voltage": "150/20", "trafo_count": 2, "capacity_mva": 90.0, "province": "Aceh", "system": "Sumatera", "osm_id": "way/398787876", "osm_name": "Gardu Induk Sigli", "match_score": 1.0, "match_source": "osm_fuzzy", "review_flag": "", "source_id": "RUPTL-2025-2034", "source_table": "Tabel A1.4"}}, {"type": "Feature", "geometry": {"type": "Point", "coordinates": [95.5704197, 5.3589211]}, "properties": {"id": "GI-SMT-0008", "name": "Jantho", "voltage": "150/20", "trafo_count": 1, "capacity_mva": 30.0, "province": "Aceh", "system": "Sumatera", "osm_id": "way/928220389", "osm_name": "Gardu Induk Jantho", "match_score": 1.0, "match_source": "osm_fuzzy", "review_flag": "", "source_id": "RUPTL-2025-2034", "source_table": "Tabel A1.4"}}, {"type": "Feature", "geometry": {"type": "Point", "coordinates": [97.4413608, 5.13019]}, "properties": {"id": "GI-SMT-0009", "name": "Pantonlabu", "voltage": "150/20", "trafo_count": 2, "capacity_mva": 60.0, "province": "Aceh", "system": "Sumatera", "osm_id": "way/1004244347", "osm_name": "Gardu Induk Pantonlabu", "match_score": 1.0, "match_source": "osm_fuzzy", "review_flag": "", "source_id": "RUPTL-2025-2034", "source_table": "Tabel A1.4"}}, {"type": "Feature", "geometry": {"type": "Point", "coordinates": [96.1977401, 4.1054362]}, "properties": {"id": "GI-SMT-0010", "name": "PLTU Nagan Raya", "voltage": "150/20", "trafo_count": 1, "capacity_mva": 30.0, "province": "Aceh", "system": "Sumatera", "osm_id": "way/321541350", "osm_name": "PLTU Nagan Raya", "match_score": 1.0, "match_source": "override:osm_plant", "review_flag": "", "source_id": "RUPTL-2025-2034", "source_table": "Tabel A1.4"}}, {"type": "Feature", "geometry": {"type": "Point", "coordinates": [97.0899019, 5.2162499]}, "properties": {"id": "GI-SMT-0011", "name": "Arun", "voltage": "150/20", "trafo_count": 2, "capacity_mva": 120.0, "province": "Aceh", "system": "Sumatera", "osm_id": "way/542904306", "osm_name": "PLTMG Arun I", "match_score": 1.0, "match_source": "override:osm_plant", "review_flag": "", "source_id": "RUPTL-2025-2034", "source_table": "Tabel A1.4"}}, {"type": "Feature", "geometry": {"type": "Point", "coordinates": [96.111542, 4.1721922]}, "properties": {"id": "GI-SMT-0012", "name": "Meulaboh", "voltage": "150/20", "trafo_count": 2, "capacity_mva": 90.0, "province": "Aceh", "system": "Sumatera", "osm_id": "way/721683958", "osm_name": "Gardu Induk Meulaboh", "match_score": 1.0, "match_source": "osm_fuzzy", "review_flag": "", "source_id": "RUPTL-2025-2034", "source_table": "Tabel A1.4"}}, {"type": "Feature", "geometry": {"type": "Point", "coordinates": [96.8589516, 3.7139163]}, "properties": {"id": "GI-SMT-0013", "name": "Blang Pidie", "voltage": "150/20", "trafo_count": 1, "capacity_mva": 30.0, "province": "Aceh", "system": "Sumatera", "osm_id": "way/610841759", "osm_name": "Gardu Induk Blangpidie", "match_score": 0.95, "match_source": "osm_fuzzy", "review_flag": "", "source_id": "RUPTL-2025-2034", "source_table": "Tabel A1.4"}}, {"type": "Feature", "geometry": {"type": "Point", "coordinates": [97.8256586, 3.4594907]}, "properties": {"id": "GI-SMT-0014", "name": "Kutacane", "voltage": "150/20", "trafo_count": 1, "capacity_mva": 30.0, "province": "Aceh", "system": "Sumatera", "osm_id": "way/736951168", "osm_name": "Gardu Induk Kutacane", "match_score": 1.0, "match_source": "osm_fuzzy", "review_flag": "", "source_id": "RUPTL-2025-2034", "source_table": "Tabel A1.4"}}, {"type": "Feature", "geometry": {"type": "Point", "coordinates": [98.0310166, 2.632367]}, "properties": {"id": "GI-SMT-0015", "name": "Subulussalam", "voltage": "150/20", "trafo_count": 1, "capacity_mva": 30.0, "province": "Aceh", "system": "Sumatera", "osm_id": "way/928475183", "osm_name": "Gardu Induk Subulussalam", "match_score": 1.0, "match_source": "osm_fuzzy", "review_flag": "", "source_id": "RUPTL-2025-2034", "source_table": "Tabel A1.4"}}, {"type": "Feature", "geometry": {"type": "Point", "coordinates": [96.8130255, 4.6193252]}, "properties": {"id": "GI-SMT-0016", "name": "Takengon", "voltage": "150/20", "trafo_count": 1, "capacity_mva": 30.0, "province": "Aceh", "system": "Sumatera", "osm_id": "way/692479951", "osm_name": "Gardu Induk Takengon", "match_score": 1.0, "match_source": "osm_fuzzy", "review_flag": "", "source_id": "RUPTL-2025-2034", "source_table": "Tabel A1.4"}}, {"type": "Feature", "geometry": {"type": "Point", "coordinates": [96.4455588, 5.1915898]}, "properties": {"id": "GI-SMT-0017", "name": "Samalanga", "voltage": "150/20", "trafo_count": 1, "capacity_mva": 30.0, "province": "Aceh", "system": "Sumatera", "osm_id": "way/928220387", "osm_name": "Gardu Induk Samalanga", "match_score": 1.0, "match_source": "osm_fuzzy", "review_flag": "", "source_id": "RUPTL-2025-2034", "source_table": "Tabel A1.4"}}, {"type": "Feature", "geometry": {"type": "Point", "coordinates": [95.3889176, 5.5571417]}, "properties": {"id": "GI-SMT-0018", "name": "Ulee Kareng", "voltage": "150/20", "trafo_count": 1, "capacity_mva": 60.0, "province": "Aceh", "system": "Sumatera", "osm_id": "way/928220391", "osm_name": "GITET Ulee Kareng", "match_score": 1.0, "match_source": "osm_fuzzy", "review_flag": "", "source_id": "RUPTL-2025-2034", "source_table": "Tabel A1.4"}}, {"type": "Feature", "geometry": {"type": "Point", "coordinates": [95.464793, 5.6412332]}, "properties": {"id": "GI-SMT-0019", "name": "Krueng Raya", "voltage": "150/20", "trafo_count": 1, "capacity_mva": 30.0, "province": "Aceh", "system": "Sumatera", "osm_id": "way/928220390", "osm_name": "Gardu Induk Krueng Raya", "match_score": 1.0, "match_source": "osm_fuzzy", "review_flag": "", "source_id": "RUPTL-2025-2034", "source_table": "Tabel A1.4"}}, {"type": "Feature", "geometry": {"type": "Point", "coordinates": [98.668406, 3.6165412]}, "properties": {"id": "GI-SMT-0021", "name": "Glugur", "voltage": "150/20", "trafo_count": 3, "capacity_mva": 180.0, "province": "Sumatera Utara", "system": "Sumatera", "osm_id": "way/930833479", "osm_name": "Gardu Induk Glugur", "match_score": 1.0, "match_source": "osm_fuzzy", "review_flag": "", "source_id": "RUPTL-2025-2034", "source_table": "Tabel A2.4"}}, {"type": "Feature", "geometry": {"type": "Point", "coordinates": [98.6896123, 3.5398566]}, "properties": {"id": "GI-SMT-0023", "name": "Titi Kuning", "voltage": "150/20", "trafo_count": 4, "capacity_mva": 240.0, "province": "Sumatera Utara", "system": "Sumatera", "osm_id": "way/277204741", "osm_name": "Gardu Induk Titi Kuning", "match_score": 1.0, "match_source": "osm_fuzzy", "review_flag": "", "source_id": "RUPTL-2025-2034", "source_table": "Tabel A2.4"}}, {"type": "Feature", "geometry": {"type": "Point", "coordinates": [98.6668057, 3.714331]}, "properties": {"id": "GI-SMT-0024", "name": "Paya Pasir", "voltage": "150/20", "trafo_count": 2, "capacity_mva": 120.0, "province": "Sumatera Utara", "system": "Sumatera", "osm_id": "way/277204263", "osm_name": "Gardu Induk Paya Pasir", "match_score": 1.0, "match_source": "osm_fuzzy", "review_flag": "", "source_id": "RUPTL-2025-2034", "source_table": "Tabel A2.4"}}, {"type": "Feature", "geometry": {"type": "Point", "coordinates": [98.5936689, 3.5901214]}, "properties": {"id": "GI-SMT-0025", "name": "Paya Geli", "voltage": "150/20", "trafo_count": 4, "capacity_mva": 240.0, "province": "Sumatera Utara", "system": "Sumatera", "osm_id": "way/276990481", "osm_name": "Gardu Induk Paya Geli", "match_score": 1.0, "match_source": "osm_fuzzy", "review_flag": "", "source_id": "RUPTL-2025-2034", "source_table": "Tabel A2.4"}}, {"type": "Feature", "geometry": {"type": "Point", "coordinates": [98.6616442, 3.664069]}, "properties": {"id": "GI-SMT-0026", "name": "Mabar", "voltage": "150/20", "trafo_count": 1, "capacity_mva": 60.0, "province": "Sumatera Utara", "system": "Sumatera", "osm_id": "way/1190867831", "osm_name": "Gardu Induk Mabar", "match_score": 1.0, "match_source": "osm_fuzzy", "review_flag": "", "source_id": "RUPTL-2025-2034", "source_table": "Tabel A2.4"}}, {"type": "Feature", "geometry": {"type": "Point", "coordinates": [98.6800387, 3.6710833]}, "properties": {"id": "GI-SMT-0027", "name": "KIM", "voltage": "150/20", "trafo_count": 3, "capacity_mva": 180.0, "province": "Sumatera Utara", "system": "Sumatera", "osm_id": "way/930833478", "osm_name": "Gardu Induk KIM", "match_score": 1.0, "match_source": "osm_fuzzy", "review_flag": "", "source_id": "RUPTL-2025-2034", "source_table": "Tabel A2.4"}}, {"type": "Feature", "geometry": {"type": "Point", "coordinates": [98.6796186, 3.7542177]}, "properties": {"id": "GI-SMT-0028", "name": "Labuhan", "voltage": "150/20", "trafo_count": 2, "capacity_mva": 120.0, "province": "Sumatera Utara", "system": "Sumatera", "osm_id": "way/277204260", "osm_name": "Gardu Induk Labuhan", "match_score": 1.0, "match_source": "osm_fuzzy", "review_flag": "", "source_id": "RUPTL-2025-2034", "source_table": "Tabel A2.4"}}, {"type": "Feature", "geometry": {"type": "Point", "coordinates": [98.6990534, 3.735161]}, "properties": {"id": "GI-SMT-0029", "name": "Lamhotma", "voltage": "150/20", "trafo_count": 1, "capacity_mva": 30.0, "province": "Sumatera Utara", "system": "Sumatera", "osm_id": "way/338675160", "osm_name": "Gardu Induk Lamhotma", "match_score": 1.0, "match_source": "osm_fuzzy", "review_flag": "", "source_id": "RUPTL-2025-2034", "source_table": "Tabel A2.4"}}, {"type": "Feature", "geometry": {"type": "Point", "coordinates": [98.6537967, 3.4741515]}, "properties": {"id": "GI-SMT-0030", "name": "Namurambe", "voltage": "150/20", "trafo_count": 2, "capacity_mva": 120.0, "province": "Sumatera Utara", "system": "Sumatera", "osm_id": "way/519390721", "osm_name": "Gardu Induk Namorambe", "match_score": 0.89, "match_source": "osm_fuzzy", "review_flag": "", "source_id": "RUPTL-2025-2034", "source_table": "Tabel A2.4"}}, {"type": "Feature", "geometry": {"type": "Point", "coordinates": [98.7225384, 3.5532481]}, "properties": {"id": "GI-SMT-0031", "name": "Denai", "voltage": "150/20", "trafo_count": 3, "capacity_mva": 180.0, "province": "Sumatera Utara", "system": "Sumatera", "osm_id": "way/519390724", "osm_name": "Gardu Induk Denai", "match_score": 1.0, "match_source": "osm_fuzzy", "review_flag": "", "source_id": "RUPTL-2025-2034", "source_table": "Tabel A2.4"}}, {"type": "Feature", "geometry": {"type": "Point", "coordinates": [98.8060798, 3.5416152]}, "properties": {"id": "GI-SMT-0032", "name": "T. Morawa", "voltage": "150/20", "trafo_count": 3, "capacity_mva": 180.0, "province": "Sumatera Utara", "system": "Sumatera", "osm_id": "way/519390726", "osm_name": "Gardu Induk Tanjung Morawa", "match_score": 1.0, "match_source": "override:osm_substation", "review_flag": "", "source_id": "RUPTL-2025-2034", "source_table": "Tabel A2.4"}}, {"type": "Feature", "geometry": {"type": "Point", "coordinates": [98.7879123, 3.6001423]}, "properties": {"id": "GI-SMT-0033", "name": "Sei Rotan", "voltage": "150/20", "trafo_count": 3, "capacity_mva": 180.0, "province": "Sumatera Utara", "system": "Sumatera", "osm_id": "way/277204262", "osm_name": "Gardu Induk Sei Rotan", "match_score": 1.0, "match_source": "osm_fuzzy", "review_flag": "", "source_id": "RUPTL-2025-2034", "source_table": "Tabel A2.4"}}, {"type": "Feature", "geometry": {"type": "Point", "coordinates": [98.95097, 3.5775018]}, "properties": {"id": "GI-SMT-0034", "name": "Perbaungan", "voltage": "150/20", "trafo_count": 2, "capacity_mva": 90.0, "province": "Sumatera Utara", "system": "Sumatera", "osm_id": "way/556220229", "osm_name": "Gardu Induk Perbaungan", "match_score": 1.0, "match_source": "osm_fuzzy", "review_flag": "", "source_id": "RUPTL-2025-2034", "source_table": "Tabel A2.4"}}, {"type": "Feature", "geometry": {"type": "Point", "coordinates": [98.506771, 3.6457962]}, "properties": {"id": "GI-SMT-0035", "name": "Binjai", "voltage": "150/20", "trafo_count": 4, "capacity_mva": 240.0, "province": "Sumatera Utara", "system": "Sumatera", "osm_id": "way/340205049", "osm_name": "GITET Binjai", "match_score": 1.0, "match_source": "osm_fuzzy", "review_flag": "", "source_id": "RUPTL-2025-2034", "source_table": "Tabel A2.4"}}, {"type": "Feature", "geometry": {"type": "Point", "coordinates": [98.2726004, 3.9922627]}, "properties": {"id": "GI-SMT-0036", "name": "P. Brandan", "voltage": "150/20", "trafo_count": 2, "capacity_mva": 120.0, "province": "Sumatera Utara", "system": "Sumatera", "osm_id": "way/754073847", "osm_name": "Gardu Induk Pangkalan Brandan", "match_score": 1.0, "match_source": "override:osm_substation", "review_flag": "", "source_id": "RUPTL-2025-2034", "source_table": "Tabel A2.4"}}, {"type": "Feature", "geometry": {"type": "Point", "coordinates": [98.3391282, 2.7359116]}, "properties": {"id": "GI-SMT-0037", "name": "Sidikalang", "voltage": "150/20", "trafo_count": 2, "capacity_mva": 80.0, "province": "Sumatera Utara", "system": "Sumatera", "osm_id": "way/234372891", "osm_name": "Gardu Induk Sidikalang", "match_score": 1.0, "match_source": "osm_fuzzy", "review_flag": "", "source_id": "RUPTL-2025-2034", "source_table": "Tabel A2.4"}}, {"type": "Feature", "geometry": {"type": "Point", "coordinates": [98.504102, 3.1579349]}, "properties": {"id": "GI-SMT-0038", "name": "Brastagi", "voltage": "150/20", "trafo_count": 2, "capacity_mva": 90.0, "province": "Sumatera Utara", "system": "Sumatera", "osm_id": "way/519100435", "osm_name": "Gardu Induk Berastagi", "match_score": 0.94, "match_source": "osm_fuzzy", "review_flag": "", "source_id": "RUPTL-2025-2034", "source_table": "Tabel A2.4"}}, {"type": "Feature", "geometry": {"type": "Point", "coordinates": [99.1657144, 3.3822073]}, "properties": {"id": "GI-SMT-0039", "name": "Tebing Tinggi", "voltage": "150/20", "trafo_count": 3, "capacity_mva": 180.0, "province": "Sumatera Utara", "system": "Sumatera", "osm_id": "way/337039429", "osm_name": "Gardu Induk Tebing Tinggi", "match_score": 1.0, "match_source": "osm_fuzzy", "review_flag": "", "source_id": "RUPTL-2025-2034", "source_table": "Tabel A2.4"}}, {"type": "Feature", "geometry": {"type": "Point", "coordinates": [99.4584376, 3.3437231]}, "properties": {"id": "GI-SMT-0040", "name": "Kuala Tanjung", "voltage": "150/20", "trafo_count": 3, "capacity_mva": 180.0, "province": "Sumatera Utara", "system": "Sumatera", "osm_id": "way/337039431", "osm_name": "Gardu Induk Kuala Tanjung", "match_score": 1.0, "match_source": "osm_fuzzy", "review_flag": "", "source_id": "RUPTL-2025-2034", "source_table": "Tabel A2.4"}}, {"type": "Feature", "geometry": {"type": "Point", "coordinates": [99.1052085, 2.9648597]}, "properties": {"id": "GI-SMT-0041", "name": "Pematang Siantar", "voltage": "150/20", "trafo_count": 3, "capacity_mva": 150.0, "province": "Sumatera Utara", "system": "Sumatera", "osm_id": "way/310984536", "osm_name": "Gardu Induk Pematang Siantar", "match_score": 1.0, "match_source": "osm_fuzzy", "review_flag": "", "source_id": "RUPTL-2025-2034", "source_table": "Tabel A2.4"}}, {"type": "Feature", "geometry": {"type": "Point", "coordinates": [99.103795, 3.1602911]}, "properties": {"id": "GI-SMT-0042", "name": "Gunung Para", "voltage": "150/20", "trafo_count": 1, "capacity_mva": 30.0, "province": "Sumatera Utara", "system": "Sumatera", "osm_id": "way/958172158", "osm_name": "Gardu Induk Gunung Para", "match_score": 1.0, "match_source": "osm_fuzzy", "review_flag": "", "source_id": "RUPTL-2025-2034", "source_table": "Tabel A2.4"}}, {"type": "Feature", "geometry": {"type": "Point", "coordinates": [98.6293864, 2.5327764]}, "properties": {"id": "GI-SMT-0043", "name": "Tele", "voltage": "150/20", "trafo_count": 2, "capacity_mva": 20.0, "province": "Sumatera Utara", "system": "Sumatera", "osm_id": "way/246972431", "osm_name": "Gardu Induk Tele", "match_score": 1.0, "match_source": "osm_fuzzy", "review_flag": "", "source_id": "RUPTL-2025-2034", "source_table": "Tabel A2.4"}}, {"type": "Feature", "geometry": {"type": "Point", "coordinates": [99.6530476, 2.9617298]}, "properties": {"id": "GI-SMT-0044", "name": "Kisaran", "voltage": "150/20", "trafo_count": 2, "capacity_mva": 120.0, "province": "Sumatera Utara", "system": "Sumatera", "osm_id": "way/337047408", "osm_name": "Gardu Induk Kisaran", "match_score": 1.0, "match_source": "osm_fuzzy", "review_flag": "", "source_id": "RUPTL-2025-2034", "source_table": "Tabel A2.4"}}, {"type": "Feature", "geometry": {"type": "Point", "coordinates": [99.6372671, 2.5694166]}, "properties": {"id": "GI-SMT-0045", "name": "Aek Kanopan", "voltage": "150/20", "trafo_count": 2, "capacity_mva": 90.0, "province": "Sumatera Utara", "system": "Sumatera", "osm_id": "way/754402650", "osm_name": "Gardu Induk Aek Kanopan", "match_score": 1.0, "match_source": "osm_fuzzy", "review_flag": "", "source_id": "RUPTL-2025-2034", "source_table": "Tabel A2.4"}}, {"type": "Feature", "geometry": {"type": "Point", "coordinates": [99.8083975, 2.1124119]}, "properties": {"id": "GI-SMT-0046", "name": "R. Prapat", "voltage": "150/20", "trafo_count": 3, "capacity_mva": 180.0, "province": "Sumatera Utara", "system": "Sumatera", "osm_id": "way/522690659", "osm_name": "Gardu Induk Rantau Prapat", "match_score": 1.0, "match_source": "override:osm_substation", "review_flag": "", "source_id": "RUPTL-2025-2034", "source_table": "Tabel A2.4"}}, {"type": "Feature", "geometry": {"type": "Point", "coordinates": [100.1271696, 1.8619152]}, "properties": {"id": "GI-SMT-0047", "name": "Kota Pinang", "voltage": "150/20", "trafo_count": 2, "capacity_mva": 90.0, "province": "Sumatera Utara", "system": "Sumatera", "osm_id": "way/754977463", "osm_name": "Gardu Induk Kota Pinang", "match_score": 1.0, "match_source": "osm_fuzzy", "review_flag": "", "source_id": "RUPTL-2025-2034", "source_table": "Tabel A2.4"}}, {"type": "Feature", "geometry": {"type": "Point", "coordinates": [99.1864139, 2.4650664]}, "properties": {"id": "GI-SMT-0048", "name": "Porsea", "voltage": "150/20", "trafo_count": 2, "capacity_mva": 80.0, "province": "Sumatera Utara", "system": "Sumatera", "osm_id": "way/330762623", "osm_name": "Gardu Induk Porsea", "match_score": 1.0, "match_source": "osm_fuzzy", "review_flag": "", "source_id": "RUPTL-2025-2034", "source_table": "Tabel A2.4"}}, {"type": "Feature", "geometry": {"type": "Point", "coordinates": [98.990701, 2.0166308]}, "properties": {"id": "GI-SMT-0049", "name": "Tarutung", "voltage": "150/20", "trafo_count": 2, "capacity_mva": 90.0, "province": "Sumatera Utara", "system": "Sumatera", "osm_id": "way/330829519", "osm_name": "Gardu Induk Tarutung", "match_score": 1.0, "match_source": "osm_fuzzy", "review_flag": "", "source_id": "RUPTL-2025-2034", "source_table": "Tabel A2.4"}}, {"type": "Feature", "geometry": {"type": "Point", "coordinates": [98.8349668, 1.6914862]}, "properties": {"id": "GI-SMT-0050", "name": "Sibolga", "voltage": "150/20", "trafo_count": 2, "capacity_mva": 120.0, "province": "Sumatera Utara", "system": "Sumatera", "osm_id": "way/329730422", "osm_name": "Gardu Induk Sibolga", "match_score": 1.0, "match_source": "osm_fuzzy", "review_flag": "", "source_id": "RUPTL-2025-2034", "source_table": "Tabel A2.4"}}, {"type": "Feature", "geometry": {"type": "Point", "coordinates": [99.3003159, 1.3388358]}, "properties": {"id": "GI-SMT-0051", "name": "P. Sidimpuan", "voltage": "150/20", "trafo_count": 2, "capacity_mva": 120.0, "province": "Sumatera Utara", "system": "Sumatera", "osm_id": "way/469888044", "osm_name": "Gardu Induk Padang Sidempuan", "match_score": 1.0, "match_source": "override:osm_substation", "review_flag": "", "source_id": "RUPTL-2025-2034", "source_table": "Tabel A2.4"}}, {"type": "Feature", "geometry": {"type": "Point", "coordinates": [99.6309064, 1.5250955]}, "properties": {"id": "GI-SMT-0052", "name": "Gunung Tua", "voltage": "150/20", "trafo_count": 2, "capacity_mva": 60.0, "province": "Sumatera Utara", "system": "Sumatera", "osm_id": "way/522690654", "osm_name": "Gardu Induk Gunung Tua", "match_score": 1.0, "match_source": "osm_fuzzy", "review_flag": "", "source_id": "RUPTL-2025-2034", "source_table": "Tabel A2.4"}}, {"type": "Feature", "geometry": {"type": "Point", "coordinates": [98.6796186, 3.7542177]}, "properties": {"id": "GI-SMT-0053", "name": "Labuhan Angin", "voltage": "150/20", "trafo_count": 2, "capacity_mva": 40.0, "province": "Sumatera Utara", "system": "Sumatera", "osm_id": "way/277204260", "osm_name": "Gardu Induk Labuhan", "match_score": 0.92, "match_source": "osm_fuzzy", "review_flag": "", "source_id": "RUPTL-2025-2034", "source_table": "Tabel A2.4"}}, {"type": "Feature", "geometry": {"type": "Point", "coordinates": [98.8938148, 3.6044336]}, "properties": {"id": "GI-SMT-0054", "name": "Kuala Namu", "voltage": "150/20", "trafo_count": 3, "capacity_mva": 120.0, "province": "Sumatera Utara", "system": "Sumatera", "osm_id": "way/249207412", "osm_name": "Gardu Induk Kuala Namu", "match_score": 1.0, "match_source": "osm_fuzzy", "review_flag": "", "source_id": "RUPTL-2025-2034", "source_table": "Tabel A2.4"}}, {"type": "Feature", "geometry": {"type": "Point", "coordinates": [99.3527341, 3.1259655]}, "properties": {"id": "GI-SMT-0055", "name": "Perdagangan/Sei Mangkei", "voltage": "150/20", "trafo_count": 2, "capacity_mva": 120.0, "province": "Sumatera Utara", "system": "Sumatera", "osm_id": "way/958172159", "osm_name": "Gardu Induk Sei Mangkei", "match_score": 0.92, "match_source": "osm_fuzzy", "review_flag": "", "source_id": "RUPTL-2025-2034", "source_table": "Tabel A2.4"}}, {"type": "Feature", "geometry": {"type": "Point", "coordinates": [98.6624918, 2.2363862]}, "properties": {"id": "GI-SMT-0056", "name": "Dolok Sanggul", "voltage": "150/20", "trafo_count": 2, "capacity_mva": 90.0, "province": "Sumatera Utara", "system": "Sumatera", "osm_id": "way/957813234", "osm_name": "Gardu Induk Dolok Sanggul", "match_score": 1.0, "match_source": "osm_fuzzy", "review_flag": "", "source_id": "RUPTL-2025-2034", "source_table": "Tabel A2.4"}}, {"type": "Feature", "geometry": {"type": "Point", "coordinates": [99.0359706, 1.4816293]}, "properties": {"id": "GI-SMT-0057", "name": "Martabe", "voltage": "150/20", "trafo_count": 1, "capacity_mva": 10.0, "province": "Sumatera Utara", "system": "Sumatera", "osm_id": "way/938146451", "osm_name": "Gardu Induk Martabe", "match_score": 1.0, "match_source": "osm_fuzzy", "review_flag": "", "source_id": "RUPTL-2025-2034", "source_table": "Tabel A2.4"}}, {"type": "Feature", "geometry": {"type": "Point", "coordinates": [98.8663544, 3.4478549]}, "properties": {"id": "GI-SMT-0058", "name": "Galang", "voltage": "150/20", "trafo_count": 1, "capacity_mva": 30.0, "province": "Sumatera Utara", "system": "Sumatera", "osm_id": "way/754096394", "osm_name": "GITET Galang", "match_score": 1.0, "match_source": "osm_fuzzy", "review_flag": "", "source_id": "RUPTL-2025-2034", "source_table": "Tabel A2.4"}}, {"type": "Feature", "geometry": {"type": "Point", "coordinates": [98.3326256, 2.5798501]}, "properties": {"id": "GI-SMT-0059", "name": "Salak/Siempat Rube", "voltage": "150/20", "trafo_count": 2, "capacity_mva": 60.0, "province": "Sumatera Utara", "system": "Sumatera", "osm_id": "way/928475180", "osm_name": "Gardu Induk Siempat Rube", "match_score": 0.92, "match_source": "osm_fuzzy", "review_flag": "", "source_id": "RUPTL-2025-2034", "source_table": "Tabel A2.4"}}, {"type": "Feature", "geometry": {"type": "Point", "coordinates": [98.713277, 2.6871419]}, "properties": {"id": "GI-SMT-0060", "name": "Pangururan", "voltage": "150/20", "trafo_count": 1, "capacity_mva": 30.0, "province": "Sumatera Utara", "system": "Sumatera", "osm_id": "way/957505067", "osm_name": "Gardu Induk Pangururan", "match_score": 1.0, "match_source": "osm_fuzzy", "review_flag": "", "source_id": "RUPTL-2025-2034", "source_table": "Tabel A2.4"}}, {"type": "Feature", "geometry": {"type": "Point", "coordinates": [99.5787316, 0.7783451]}, "properties": {"id": "GI-SMT-0061", "name": "Panyabungan", "voltage": "150/20", "trafo_count": 1, "capacity_mva": 30.0, "province": "Sumatera Utara", "system": "Sumatera", "osm_id": "way/938146459", "osm_name": "Gardu Induk Panyabungan", "match_score": 1.0, "match_source": "override:osm_substation", "review_flag": "", "source_id": "RUPTL-2025-2034", "source_table": "Tabel A2.4"}}, {"type": "Feature", "geometry": {"type": "Point", "coordinates": [97.6772842, 1.2092485]}, "properties": {"id": "GI-SMT-0063", "name": "Gunung Sitoli", "voltage": "70/20", "trafo_count": 2, "capacity_mva": 60.0, "province": "Sumatera Utara", "system": "Sumatera", "osm_id": "way/940597646", "osm_name": "Gardu Induk Gunung Sitoli", "match_score": 1.0, "match_source": "osm_fuzzy", "review_flag": "", "source_id": "RUPTL-2025-2034", "source_table": "Tabel A2.4"}}, {"type": "Feature", "geometry": {"type": "Point", "coordinates": [100.1625066, 2.4544564]}, "properties": {"id": "GI-SMT-0064", "name": "Labuhan Bilik", "voltage": "150/20", "trafo_count": 1, "capacity_mva": 60.0, "province": "Sumatera Utara", "system": "Sumatera", "osm_id": "way/1314075093", "osm_name": "Gardu Induk Labuhan Bilik", "match_score": 1.0, "match_source": "osm_fuzzy", "review_flag": "", "source_id": "RUPTL-2025-2034", "source_table": "Tabel A2.4"}}, {"type": "Feature", "geometry": {"type": "Point", "coordinates": [98.4171886, 3.8049564]}, "properties": {"id": "GI-SMT-0065", "name": "Tanjung Pura", "voltage": "150/20", "trafo_count": 1, "capacity_mva": 60.0, "province": "Sumatera Utara", "system": "Sumatera", "osm_id": "way/1190867839", "osm_name": "Gardu Induk Tanjung Pura", "match_score": 1.0, "match_source": "osm_fuzzy", "review_flag": "", "source_id": "RUPTL-2025-2034", "source_table": "Tabel A2.4"}}, {"type": "Feature", "geometry": {"type": "Point", "coordinates": [98.8407585, 3.1614239]}, "properties": {"id": "GI-SMT-0066", "name": "Negeri Dolok", "voltage": "150/20", "trafo_count": 2, "capacity_mva": 60.0, "province": "Sumatera Utara", "system": "Sumatera", "osm_id": "way/1190856217", "osm_name": "Gardu Induk Negeri Dolok", "match_score": 1.0, "match_source": "osm_fuzzy", "review_flag": "", "source_id": "RUPTL-2025-2034", "source_table": "Tabel A2.4"}}, {"type": "Feature", "geometry": {"type": "Point", "coordinates": [98.5914883, 3.4982668]}, "properties": {"id": "GI-SMT-0067", "name": "Selayang", "voltage": "150/20", "trafo_count": 1, "capacity_mva": 60.0, "province": "Sumatera Utara", "system": "Sumatera", "osm_id": "way/1223005210", "osm_name": "Gardu Induk Selayang", "match_score": 1.0, "match_source": "osm_fuzzy", "review_flag": "", "source_id": "RUPTL-2025-2034", "source_table": "Tabel A2.4"}}, {"type": "Feature", "geometry": {"type": "Point", "coordinates": [99.0754439, 1.8284304]}, "properties": {"id": "GI-SMT-0068", "name": "Sarula", "voltage": "150/20", "trafo_count": 1, "capacity_mva": 30.0, "province": "Sumatera Utara", "system": "Sumatera", "osm_id": "way/721674155", "osm_name": "Gardu Induk Sarulla", "match_score": 0.92, "match_source": "osm_fuzzy", "review_flag": "", "source_id": "RUPTL-2025-2034", "source_table": "Tabel A2.4"}}, {"type": "Feature", "geometry": {"type": "Point", "coordinates": [99.7781136, 2.9543127]}, "properties": {"id": "GI-SMT-0069", "name": "Tanjung Balai", "voltage": "150/20", "trafo_count": 1, "capacity_mva": 60.0, "province": "Sumatera Utara", "system": "Sumatera", "osm_id": "way/1274583183", "osm_name": "Gardu Induk Tanjung Balai", "match_score": 1.0, "match_source": "osm_fuzzy", "review_flag": "", "source_id": "RUPTL-2025-2034", "source_table": "Tabel A2.4"}}, {"type": "Feature", "geometry": {"type": "Point", "coordinates": [99.7552934, 1.0824778]}, "properties": {"id": "GI-SMT-0070", "name": "Sibuhuan", "voltage": "150/20", "trafo_count": 1, "capacity_mva": 60.0, "province": "Sumatera Utara", "system": "Sumatera", "osm_id": "way/1191243018", "osm_name": "Gardu Induk Sibuhuan", "match_score": 1.0, "match_source": "osm_fuzzy", "review_flag": "", "source_id": "RUPTL-2025-2034", "source_table": "Tabel A2.4"}}, {"type": "Feature", "geometry": {"type": "Point", "coordinates": [99.3003159, 1.3388358]}, "properties": {"id": "GI-SMT-0071", "name": "New Padang Sidempuan", "voltage": "150/20", "trafo_count": 1, "capacity_mva": 30.0, "province": "Sumatera Utara", "system": "Sumatera", "osm_id": "way/469888044", "osm_name": "Gardu Induk Padang Sidempuan", "match_score": 0.92, "match_source": "osm_fuzzy", "review_flag": "", "source_id": "RUPTL-2025-2034", "source_table": "Tabel A2.4"}}, {"type": "Feature", "geometry": {"type": "Point", "coordinates": [98.668286, 3.7724229]}, "properties": {"id": "GI-SMT-0072", "name": "Belawan", "voltage": "150/20", "trafo_count": 1, "capacity_mva": 60.0, "province": "Sumatera Utara", "system": "Sumatera", "osm_id": "way/277183762", "osm_name": "PLTGU Belawan", "match_score": 1.0, "match_source": "override:osm_plant", "review_flag": "", "source_id": "RUPTL-2025-2034", "source_table": "Tabel A2.4"}}, {"type": "Feature", "geometry": {"type": "Point", "coordinates": [99.1709966, 2.8007217]}, "properties": {"id": "GI-SMT-0073", "name": "Tanah Jawa", "voltage": "150/20", "trafo_count": 1, "capacity_mva": 60.0, "province": "Sumatera Utara", "system": "Sumatera", "osm_id": "way/1190856219", "osm_name": "Gardu Induk Tanah Jawa", "match_score": 1.0, "match_source": "osm_fuzzy", "review_flag": "", "source_id": "RUPTL-2025-2034", "source_table": "Tabel A2.4"}}, {"type": "Feature", "geometry": {"type": "Point", "coordinates": [100.8810085, 0.2946716]}, "properties": {"id": "GI-SMT-0074", "name": "Koto Panjang", "voltage": "150/20", "trafo_count": 2, "capacity_mva": 90.0, "province": "Riau", "system": "Sumatera", "osm_id": "way/540716518", "osm_name": "Gardu Induk Koto Panjang", "match_score": 1.0, "match_source": "osm_fuzzy", "review_flag": "", "source_id": "RUPTL-2025-2034", "source_table": "Tabel A3.4"}}, {"type": "Feature", "geometry": {"type": "Point", "coordinates": [101.0330213, 0.3286425]}, "properties": {"id": "GI-SMT-0075", "name": "Bangkinang", "voltage": "150/20", "trafo_count": 2, "capacity_mva": 90.0, "province": "Riau", "system": "Sumatera", "osm_id": "way/625300177", "osm_name": "Gardu Induk Bangkinang", "match_score": 1.0, "match_source": "osm_fuzzy", "review_flag": "", "source_id": "RUPTL-2025-2034", "source_table": "Tabel A3.4"}}, {"type": "Feature", "geometry": {"type": "Point", "coordinates": [101.3548907, 0.4969226]}, "properties": {"id": "GI-SMT-0076", "name": "Garuda Sakti", "voltage": "150/20", "trafo_count": 4, "capacity_mva": 240.0, "province": "Riau", "system": "Sumatera", "osm_id": "way/625279426", "osm_name": "Gardu Induk Garuda Sakti", "match_score": 1.0, "match_source": "osm_fuzzy", "review_flag": "", "source_id": "RUPTL-2025-2034", "source_table": "Tabel A3.4"}}, {"type": "Feature", "geometry": {"type": "Point", "coordinates": [101.4623353, 0.5471696]}, "properties": {"id": "GI-SMT-0077", "name": "Teluk Lembu", "voltage": "150/20", "trafo_count": 3, "capacity_mva": 180.0, "province": "Riau", "system": "Sumatera", "osm_id": "way/465906681", "osm_name": "Gardu Induk Teluk Lembu", "match_score": 1.0, "match_source": "osm_fuzzy", "review_flag": "", "source_id": "RUPTL-2025-2034", "source_table": "Tabel A3.4"}}, {"type": "Feature", "geometry": {"type": "Point", "coordinates": [100.3360878, 0.9235946]}, "properties": {"id": "GI-SMT-0078", "name": "Pasir Pangaraian", "voltage": "150/20", "trafo_count": 2, "capacity_mva": 90.0, "province": "Riau", "system": "Sumatera", "osm_id": "way/1314001760", "osm_name": "Gardu Induk Pasir Pangaraian", "match_score": 1.0, "match_source": "osm_fuzzy", "review_flag": "", "source_id": "RUPTL-2025-2034", "source_table": "Tabel A3.4"}}, {"type": "Feature", "geometry": {"type": "Point", "coordinates": [101.1299322, 1.3648243]}, "properties": {"id": "GI-SMT-0079", "name": "Duri", "voltage": "150/20", "trafo_count": 2, "capacity_mva": 120.0, "province": "Riau", "system": "Sumatera", "osm_id": "way/939125634", "osm_name": "Gardu Induk Duri", "match_score": 1.0, "match_source": "osm_fuzzy", "review_flag": "", "source_id": "RUPTL-2025-2034", "source_table": "Tabel A3.4"}}, {"type": "Feature", "geometry": {"type": "Point", "coordinates": [101.4121396, 1.6892519]}, "properties": {"id": "GI-SMT-0080", "name": "Dumai", "voltage": "150/20", "trafo_count": 3, "capacity_mva": 150.0, "province": "Riau", "system": "Sumatera", "osm_id": "way/939125633", "osm_name": "Gardu Induk Dumai", "match_score": 1.0, "match_source": "osm_fuzzy", "review_flag": "", "source_id": "RUPTL-2025-2034", "source_table": "Tabel A3.4"}}, {"type": "Feature", "geometry": {"type": "Point", "coordinates": [100.4481109, 1.6656934]}, "properties": {"id": "GI-SMT-0081", "name": "Bagan Batu", "voltage": "150/20", "trafo_count": 3, "capacity_mva": 100.0, "province": "Riau", "system": "Sumatera", "osm_id": "way/755006489", "osm_name": "Gardu Induk Bagan Batu", "match_score": 1.0, "match_source": "osm_fuzzy", "review_flag": "", "source_id": "RUPTL-2025-2034", "source_table": "Tabel A3.4"}}, {"type": "Feature", "geometry": {"type": "Point", "coordinates": [101.2801514, 1.0744221]}, "properties": {"id": "GI-SMT-0082", "name": "Balai Pungut", "voltage": "150/20", "trafo_count": 2, "capacity_mva": 90.0, "province": "Riau", "system": "Sumatera", "osm_id": "way/939125619", "osm_name": "Gardu Induk Balai Pungut", "match_score": 1.0, "match_source": "osm_fuzzy", "review_flag": "", "source_id": "RUPTL-2025-2034", "source_table": "Tabel A3.4"}}, {"type": "Feature", "geometry": {"type": "Point", "coordinates": [101.6151555, 1.6359416]}, "properties": {"id": "GI-SMT-0083", "name": "KID", "voltage": "150/20", "trafo_count": 1, "capacity_mva": 30.0, "province": "Riau", "system": "Sumatera", "osm_id": "way/947860177", "osm_name": "Gardu Induk Kawasan Industri Dumai", "match_score": 1.0, "match_source": "override:osm_substation", "review_flag": "", "source_id": "RUPTL-2025-2034", "source_table": "Tabel A3.4"}}, {"type": "Feature", "geometry": {"type": "Point", "coordinates": [101.5406469, -0.5237208]}, "properties": {"id": "GI-SMT-0084", "name": "Teluk Kuantan", "voltage": "150/20", "trafo_count": 2, "capacity_mva": 90.0, "province": "Riau", "system": "Sumatera", "osm_id": "way/930242870", "osm_name": "Gardu Induk Teluk Kuantan", "match_score": 1.0, "match_source": "osm_fuzzy", "review_flag": "", "source_id": "RUPTL-2025-2034", "source_table": "Tabel A3.4"}}, {"type": "Feature", "geometry": {"type": "Point", "coordinates": [101.5231016, 0.4095641]}, "properties": {"id": "GI-SMT-0085", "name": "Pasir Putih", "voltage": "150/20", "trafo_count": 3, "capacity_mva": 120.0, "province": "Riau", "system": "Sumatera", "osm_id": "way/736599655", "osm_name": "Gardu Induk Pasir Putih", "match_score": 1.0, "match_source": "osm_fuzzy", "review_flag": "", "source_id": "RUPTL-2025-2034", "source_table": "Tabel A3.4"}}, {"type": "Feature", "geometry": {"type": "Point", "coordinates": [101.4217123, 0.5927925]}, "properties": {"id": "GI-SMT-0086", "name": "New Garuda Sakti", "voltage": "150/20", "trafo_count": 1, "capacity_mva": 60.0, "province": "Riau", "system": "Sumatera", "osm_id": "way/928928136", "osm_name": "Gardu Induk New Garuda Sakti", "match_score": 1.0, "match_source": "osm_fuzzy", "review_flag": "", "source_id": "RUPTL-2025-2034", "source_table": "Tabel A3.4"}}, {"type": "Feature", "geometry": {"type": "Point", "coordinates": [101.8158597, 0.3946519]}, "properties": {"id": "GI-SMT-0087", "name": "Pangkalan Kerinci", "voltage": "150/20", "trafo_count": 2, "capacity_mva": 90.0, "province": "Riau", "system": "Sumatera", "osm_id": "way/928928139", "osm_name": "Gardu Induk Pangkalan Kerinci", "match_score": 1.0, "match_source": "osm_fuzzy", "review_flag": "", "source_id": "RUPTL-2025-2034", "source_table": "Tabel A3.4"}}, {"type": "Feature", "geometry": {"type": "Point", "coordinates": [101.5485408, 0.6596896]}, "properties": {"id": "GI-SMT-0088", "name": "Perawang", "voltage": "150/20", "trafo_count": 1, "capacity_mva": 60.0, "province": "Riau", "system": "Sumatera", "osm_id": "way/736595653", "osm_name": "Gardu Induk Perawang", "match_score": 1.0, "match_source": "osm_fuzzy", "review_flag": "", "source_id": "RUPTL-2025-2034", "source_table": "Tabel A3.4"}}, {"type": "Feature", "geometry": {"type": "Point", "coordinates": [102.4399642, -0.4608264]}, "properties": {"id": "GI-SMT-0089", "name": "Rengat", "voltage": "150/20", "trafo_count": 2, "capacity_mva": 90.0, "province": "Riau", "system": "Sumatera", "osm_id": "way/939542520", "osm_name": "Gardu Induk Rengat", "match_score": 1.0, "match_source": "osm_fuzzy", "review_flag": "", "source_id": "RUPTL-2025-2034", "source_table": "Tabel A3.4"}}, {"type": "Feature", "geometry": {"type": "Point", "coordinates": [101.5233476, 0.5636818]}, "properties": {"id": "GI-SMT-0090", "name": "Tenayan", "voltage": "150/20", "trafo_count": 1, "capacity_mva": 30.0, "province": "Riau", "system": "Sumatera", "osm_id": "way/528916594", "osm_name": "PLTU Tenayan Raya", "match_score": 1.0, "match_source": "override:osm_plant", "review_flag": "", "source_id": "RUPTL-2025-2034", "source_table": "Tabel A3.4"}}, {"type": "Feature", "geometry": {"type": "Point", "coordinates": [100.8623791, 2.066966]}, "properties": {"id": "GI-SMT-0091", "name": "Bagan Siapi-Api", "voltage": "150/20", "trafo_count": 1, "capacity_mva": 30.0, "province": "Riau", "system": "Sumatera", "osm_id": "way/1312413169", "osm_name": "Gardu Induk Bagan Siapiapi", "match_score": 0.97, "match_source": "osm_fuzzy", "review_flag": "", "source_id": "RUPTL-2025-2034", "source_table": "Tabel A3.4"}}, {"type": "Feature", "geometry": {"type": "Point", "coordinates": [101.4107207, 0.502374]}, "properties": {"id": "GI-SMT-0092", "name": "GIS Kota Pekanbaru", "voltage": "150/20", "trafo_count": 2, "capacity_mva": 120.0, "province": "Riau", "system": "Sumatera", "osm_id": "way/1314000777", "osm_name": "GIS Pekanbaru", "match_score": 0.92, "match_source": "osm_fuzzy", "review_flag": "", "source_id": "RUPTL-2025-2034", "source_table": "Tabel A3.4"}}, {"type": "Feature", "geometry": {"type": "Point", "coordinates": [103.180128, -0.273221]}, "properties": {"id": "GI-SMT-0093", "name": "Tembilahan", "voltage": "150/20", "trafo_count": 1, "capacity_mva": 60.0, "province": "Riau", "system": "Sumatera", "osm_id": "way/939542518", "osm_name": "Gardu Induk Tembilahan", "match_score": 1.0, "match_source": "osm_fuzzy", "review_flag": "", "source_id": "RUPTL-2025-2034", "source_table": "Tabel A3.4"}}, {"type": "Feature", "geometry": {"type": "Point", "coordinates": [101.9959545, 0.7831296]}, "properties": {"id": "GI-SMT-0094", "name": "Siak Sri Indra Pura", "voltage": "150/20", "trafo_count": 1, "capacity_mva": 60.0, "province": "Riau", "system": "Sumatera", "osm_id": "way/1314000786", "osm_name": "Gardu Induk Siak Sri Indrapura", "match_score": 0.97, "match_source": "osm_fuzzy", "review_flag": "", "source_id": "RUPTL-2025-2034", "source_table": "Tabel A3.4"}}, {"type": "Feature", "geometry": {"type": "Point", "coordinates": [104.1821734, 1.0200009]}, "properties": {"id": "GI-SMT-0095", "name": "Ngenang", "voltage": "150/20", "trafo_count": 1, "capacity_mva": 10.0, "province": "Kepulauan Riau", "system": "Batam", "osm_id": "way/706965637", "osm_name": "Landing Point Pulau Ngenang", "match_score": 0.95, "match_source": "osm_fuzzy", "review_flag": "", "source_id": "RUPTL-2025-2034", "source_table": "Tabel A4.4"}}, {"type": "Feature", "geometry": {"type": "Point", "coordinates": [104.2372231, 1.0637445]}, "properties": {"id": "GI-SMT-0096", "name": "Tanjung Uban", "voltage": "150/20", "trafo_count": 2, "capacity_mva": 60.0, "province": "Kepulauan Riau", "system": "Batam", "osm_id": "way/948167522", "osm_name": "Gardu Induk Tanjung Uban", "match_score": 1.0, "match_source": "osm_fuzzy", "review_flag": "", "source_id": "RUPTL-2025-2034", "source_table": "Tabel A4.4"}}, {"type": "Feature", "geometry": {"type": "Point", "coordinates": [104.3639073, 1.1071529]}, "properties": {"id": "GI-SMT-0097", "name": "Sri Bintan", "voltage": "150/20", "trafo_count": 2, "capacity_mva": 60.0, "province": "Kepulauan Riau", "system": "Batam", "osm_id": "way/706956290", "osm_name": "Gardu Induk Sri Bintan", "match_score": 1.0, "match_source": "osm_fuzzy", "review_flag": "", "source_id": "RUPTL-2025-2034", "source_table": "Tabel A4.4"}}, {"type": "Feature", "geometry": {"type": "Point", "coordinates": [104.5165135, 0.9456262]}, "properties": {"id": "GI-SMT-0098", "name": "Air Raja", "voltage": "150/20", "trafo_count": 2, "capacity_mva": 120.0, "province": "Kepulauan Riau", "system": "Batam", "osm_id": "way/706956296", "osm_name": "Gardu Induk Air Raja", "match_score": 1.0, "match_source": "osm_fuzzy", "review_flag": "", "source_id": "RUPTL-2025-2034", "source_table": "Tabel A4.4"}}, {"type": "Feature", "geometry": {"type": "Point", "coordinates": [104.6036946, 0.8811701]}, "properties": {"id": "GI-SMT-0099", "name": "Kijang", "voltage": "150/20", "trafo_count": 2, "capacity_mva": 60.0, "province": "Kepulauan Riau", "system": "Batam", "osm_id": "way/706956292", "osm_name": "Gardu Induk Kijang", "match_score": 1.0, "match_source": "osm_fuzzy", "review_flag": "", "source_id": "RUPTL-2025-2034", "source_table": "Tabel A4.4"}}, {"type": "Feature", "geometry": {"type": "Point", "coordinates": [106.0903027, -2.1022794]}, "properties": {"id": "GI-SMT-0100", "name": "Pangkalpinang (GI Kampak)", "voltage": "150/20", "trafo_count": 2, "capacity_mva": 120.0, "province": "Kepulauan Bangka Belitung", "system": "Babel", "osm_id": "way/620166583", "osm_name": "Gardu Induk Kampak", "match_score": 0.92, "match_source": "osm_fuzzy", "review_flag": "", "source_id": "RUPTL-2025-2034", "source_table": "Tabel A5.4"}}, {"type": "Feature", "geometry": {"type": "Point", "coordinates": [106.1008796, -1.9015194]}, "properties": {"id": "GI-SMT-0101", "name": "Sungailiat", "voltage": "150/20", "trafo_count": 2, "capacity_mva": 90.0, "province": "Kepulauan Bangka Belitung", "system": "Babel", "osm_id": "way/928776913", "osm_name": "Gardu Induk Sungailiat", "match_score": 1.0, "match_source": "osm_fuzzy", "review_flag": "", "source_id": "RUPTL-2025-2034", "source_table": "Tabel A5.4"}}, {"type": "Feature", "geometry": {"type": "Point", "coordinates": [106.1496436, -2.0775568]}, "properties": {"id": "GI-SMT-0102", "name": "Air Anyir", "voltage": "150/20", "trafo_count": 2, "capacity_mva": 120.0, "province": "Kepulauan Bangka Belitung", "system": "Babel", "osm_id": "way/543959909", "osm_name": "PLTU Air Anyir", "match_score": 1.0, "match_source": "override:osm_plant", "review_flag": "", "source_id": "RUPTL-2025-2034", "source_table": "Tabel A5.4"}}, {"type": "Feature", "geometry": {"type": "Point", "coordinates": [105.6564279, -1.871924]}, "properties": {"id": "GI-SMT-0103", "name": "Kelapa", "voltage": "150/20", "trafo_count": 1, "capacity_mva": 30.0, "province": "Kepulauan Bangka Belitung", "system": "Babel", "osm_id": "way/928776916", "osm_name": "Gardu Induk Kelapa", "match_score": 1.0, "match_source": "osm_fuzzy", "review_flag": "", "source_id": "RUPTL-2025-2034", "source_table": "Tabel A5.4"}}, {"type": "Feature", "geometry": {"type": "Point", "coordinates": [105.1747391, -2.0335775]}, "properties": {"id": "GI-SMT-0104", "name": "Muntok", "voltage": "150/20", "trafo_count": 1, "capacity_mva": 60.0, "province": "Kepulauan Bangka Belitung", "system": "Babel", "osm_id": "way/928776914", "osm_name": "Gardu Induk Muntok", "match_score": 1.0, "match_source": "osm_fuzzy", "review_flag": "", "source_id": "RUPTL-2025-2034", "source_table": "Tabel A5.4"}}, {"type": "Feature", "geometry": {"type": "Point", "coordinates": [106.4008101, -2.5007033]}, "properties": {"id": "GI-SMT-0105", "name": "Koba", "voltage": "150/20", "trafo_count": 1, "capacity_mva": 30.0, "province": "Kepulauan Bangka Belitung", "system": "Babel", "osm_id": "way/928791943", "osm_name": "Gardu Induk Koba", "match_score": 1.0, "match_source": "osm_fuzzy", "review_flag": "", "source_id": "RUPTL-2025-2034", "source_table": "Tabel A5.4"}}, {"type": "Feature", "geometry": {"type": "Point", "coordinates": [106.5073472, -3.0113112]}, "properties": {"id": "GI-SMT-0106", "name": "Toboali", "voltage": "150/20", "trafo_count": 1, "capacity_mva": 60.0, "province": "Kepulauan Bangka Belitung", "system": "Babel", "osm_id": "way/928791944", "osm_name": "Gardu Induk Toboali", "match_score": 1.0, "match_source": "osm_fuzzy", "review_flag": "", "source_id": "RUPTL-2025-2034", "source_table": "Tabel A5.4"}}, {"type": "Feature", "geometry": {"type": "Point", "coordinates": [107.5637904, -2.8929037]}, "properties": {"id": "GI-SMT-0108", "name": "Suge (GI Pembangkit)", "voltage": "70/20", "trafo_count": 3, "capacity_mva": 90.0, "province": "Kepulauan Bangka Belitung", "system": "Babel", "osm_id": "way/953023896", "osm_name": "PLTU Suge", "match_score": 1.0, "match_source": "override:osm_plant", "review_flag": "", "source_id": "RUPTL-2025-2034", "source_table": "Tabel A5.4"}}, {"type": "Feature", "geometry": {"type": "Point", "coordinates": [108.252592, -2.8676044]}, "properties": {"id": "GI-SMT-0109", "name": "Manggar", "voltage": "70/20", "trafo_count": 1, "capacity_mva": 30.0, "province": "Kepulauan Bangka Belitung", "system": "Babel", "osm_id": "way/953023895", "osm_name": "Gardu Induk Manggar", "match_score": 1.0, "match_source": "osm_fuzzy", "review_flag": "", "source_id": "RUPTL-2025-2034", "source_table": "Tabel A5.4"}}, {"type": "Feature", "geometry": {"type": "Point", "coordinates": [100.3226356, -0.7823331]}, "properties": {"id": "GI-SMT-0110", "name": "PIP", "voltage": "150/20", "trafo_count": 3, "capacity_mva": 120.0, "province": "Sumatera Barat", "system": "Sumatera", "osm_id": "way/930242899", "osm_name": "Gardu Induk PIP", "match_score": 1.0, "match_source": "osm_fuzzy", "review_flag": "", "source_id": "RUPTL-2025-2034", "source_table": "Tabel A6.4"}}, {"type": "Feature", "geometry": {"type": "Point", "coordinates": [100.4328692, -0.9337503]}, "properties": {"id": "GI-SMT-0111", "name": "Pauh Limo", "voltage": "150/20", "trafo_count": 2, "capacity_mva": 120.0, "province": "Sumatera Barat", "system": "Sumatera", "osm_id": "way/473523397", "osm_name": "Gardu Induk Pauh Limo", "match_score": 1.0, "match_source": "osm_fuzzy", "review_flag": "", "source_id": "RUPTL-2025-2034", "source_table": "Tabel A6.4"}}, {"type": "Feature", "geometry": {"type": "Point", "coordinates": [100.2767726, -0.6826315]}, "properties": {"id": "GI-SMT-0113", "name": "Lubuk Alung", "voltage": "150/20", "trafo_count": 2, "capacity_mva": 90.0, "province": "Sumatera Barat", "system": "Sumatera", "osm_id": "way/930242898", "osm_name": "Gardu Induk Lubuk Alung", "match_score": 1.0, "match_source": "osm_fuzzy", "review_flag": "", "source_id": "RUPTL-2025-2034", "source_table": "Tabel A6.4"}}, {"type": "Feature", "geometry": {"type": "Point", "coordinates": [100.1166728, -0.3107109]}, "properties": {"id": "GI-SMT-0114", "name": "Maninjau", "voltage": "150/20", "trafo_count": 2, "capacity_mva": 80.0, "province": "Sumatera Barat", "system": "Sumatera", "osm_id": "way/930242896", "osm_name": "PLTA Maninjau", "match_score": 1.0, "match_source": "override:osm_plant", "review_flag": "", "source_id": "RUPTL-2025-2034", "source_table": "Tabel A6.4"}}, {"type": "Feature", "geometry": {"type": "Point", "coordinates": [100.3783196, -0.3440073]}, "properties": {"id": "GI-SMT-0115", "name": "Padang Luar", "voltage": "150/20", "trafo_count": 2, "capacity_mva": 90.0, "province": "Sumatera Barat", "system": "Sumatera", "osm_id": "way/928928123", "osm_name": "Gardu Induk Padang Luar", "match_score": 1.0, "match_source": "osm_fuzzy", "review_flag": "", "source_id": "RUPTL-2025-2034", "source_table": "Tabel A6.4"}}, {"type": "Feature", "geometry": {"type": "Point", "coordinates": [99.8279384, 0.0777491]}, "properties": {"id": "GI-SMT-0116", "name": "Simpang Empat", "voltage": "150/20", "trafo_count": 3, "capacity_mva": 80.0, "province": "Sumatera Barat", "system": "Sumatera", "osm_id": "way/196526544", "osm_name": "Gardu Induk Simpang Empat", "match_score": 1.0, "match_source": "osm_fuzzy", "review_flag": "", "source_id": "RUPTL-2025-2034", "source_table": "Tabel A6.4"}}, {"type": "Feature", "geometry": {"type": "Point", "coordinates": [100.3991215, -0.4508022]}, "properties": {"id": "GI-SMT-0117", "name": "Padang Panjang", "voltage": "150/20", "trafo_count": 2, "capacity_mva": 70.0, "province": "Sumatera Barat", "system": "Sumatera", "osm_id": "way/930242888", "osm_name": "Gardu Induk Padang Panjang", "match_score": 1.0, "match_source": "osm_fuzzy", "review_flag": "", "source_id": "RUPTL-2025-2034", "source_table": "Tabel A6.4"}}, {"type": "Feature", "geometry": {"type": "Point", "coordinates": [100.6320633, -0.7933948]}, "properties": {"id": "GI-SMT-0118", "name": "Solok", "voltage": "150/20", "trafo_count": 2, "capacity_mva": 80.0, "province": "Sumatera Barat", "system": "Sumatera", "osm_id": "way/930242875", "osm_name": "Gardu Induk Solok", "match_score": 1.0, "match_source": "osm_fuzzy", "review_flag": "", "source_id": "RUPTL-2025-2034", "source_table": "Tabel A6.4"}}, {"type": "Feature", "geometry": {"type": "Point", "coordinates": [100.7694487, -0.6209447]}, "properties": {"id": "GI-SMT-0119", "name": "Salak", "voltage": "150/20", "trafo_count": 2, "capacity_mva": 80.0, "province": "Sumatera Barat", "system": "Sumatera", "osm_id": "way/930242871", "osm_name": "Gardu Induk Salak", "match_score": 1.0, "match_source": "osm_fuzzy", "review_flag": "", "source_id": "RUPTL-2025-2034", "source_table": "Tabel A6.4"}}, {"type": "Feature", "geometry": {"type": "Point", "coordinates": [100.642375, -0.2532212]}, "properties": {"id": "GI-SMT-0121", "name": "Payakumbuh", "voltage": "150/20", "trafo_count": 2, "capacity_mva": 90.0, "province": "Sumatera Barat", "system": "Sumatera", "osm_id": "way/928928132", "osm_name": "Gardu Induk Payakumbuh", "match_score": 1.0, "match_source": "osm_fuzzy", "review_flag": "", "source_id": "RUPTL-2025-2034", "source_table": "Tabel A6.4"}}, {"type": "Feature", "geometry": {"type": "Point", "coordinates": [100.5721602, -0.4038046]}, "properties": {"id": "GI-SMT-0122", "name": "Batu Sangkar", "voltage": "150/20", "trafo_count": 2, "capacity_mva": 50.0, "province": "Sumatera Barat", "system": "Sumatera", "osm_id": "way/930242891", "osm_name": "Gardu Induk Batusangkar", "match_score": 0.96, "match_source": "osm_fuzzy", "review_flag": "", "source_id": "RUPTL-2025-2034", "source_table": "Tabel A6.4"}}, {"type": "Feature", "geometry": {"type": "Point", "coordinates": [100.4159229, -1.0293729]}, "properties": {"id": "GI-SMT-0123", "name": "Bungus", "voltage": "150/20", "trafo_count": 2, "capacity_mva": 60.0, "province": "Sumatera Barat", "system": "Sumatera", "osm_id": "way/450722292", "osm_name": "Gardu Induk Bungus", "match_score": 1.0, "match_source": "osm_fuzzy", "review_flag": "", "source_id": "RUPTL-2025-2034", "source_table": "Tabel A6.4"}}, {"type": "Feature", "geometry": {"type": "Point", "coordinates": [100.1596056, -0.6260084]}, "properties": {"id": "GI-SMT-0124", "name": "Pariaman", "voltage": "150/20", "trafo_count": 2, "capacity_mva": 60.0, "province": "Sumatera Barat", "system": "Sumatera", "osm_id": "way/930242894", "osm_name": "Gardu Induk Pariaman", "match_score": 1.0, "match_source": "osm_fuzzy", "review_flag": "", "source_id": "RUPTL-2025-2034", "source_table": "Tabel A6.4"}}, {"type": "Feature", "geometry": {"type": "Point", "coordinates": [100.6924895, -1.6606422]}, "properties": {"id": "GI-SMT-0125", "name": "Kambang", "voltage": "150/20", "trafo_count": 2, "capacity_mva": 90.0, "province": "Sumatera Barat", "system": "Sumatera", "osm_id": "way/930242879", "osm_name": "Gardu Induk Kambang", "match_score": 1.0, "match_source": "osm_fuzzy", "review_flag": "", "source_id": "RUPTL-2025-2034", "source_table": "Tabel A6.4"}}, {"type": "Feature", "geometry": {"type": "Point", "coordinates": [101.7114612, -1.2157395]}, "properties": {"id": "GI-SMT-0126", "name": "S. Rumbai", "voltage": "150/20", "trafo_count": 1, "capacity_mva": 30.0, "province": "Sumatera Barat", "system": "Sumatera", "osm_id": "way/1312287191", "osm_name": "Gardu Induk Sungai Rumbai", "match_score": 1.0, "match_source": "override:osm_substation", "review_flag": "", "source_id": "RUPTL-2025-2034", "source_table": "Tabel A6.4"}}, {"type": "Feature", "geometry": {"type": "Point", "coordinates": [101.146979, -1.6013056]}, "properties": {"id": "GI-SMT-0127", "name": "Muaralabuh", "voltage": "150/20", "trafo_count": 1, "capacity_mva": 30.0, "province": "Sumatera Barat", "system": "Sumatera", "osm_id": "way/1312349205", "osm_name": "PLTP Muara Laboh", "match_score": 1.0, "match_source": "override:osm_plant", "review_flag": "", "source_id": "RUPTL-2025-2034", "source_table": "Tabel A6.4"}}, {"type": "Feature", "geometry": {"type": "Point", "coordinates": [100.1031303, 0.2820345]}, "properties": {"id": "GI-SMT-0128", "name": "Pasaman", "voltage": "150/20", "trafo_count": 1, "capacity_mva": 60.0, "province": "Sumatera Barat", "system": "Sumatera", "osm_id": "way/1191242851", "osm_name": "Gardu Induk Pasaman", "match_score": 1.0, "match_source": "osm_fuzzy", "review_flag": "", "source_id": "RUPTL-2025-2034", "source_table": "Tabel A6.4"}}, {"type": "Feature", "geometry": {"type": "Point", "coordinates": [101.0794229, -2.1304584]}, "properties": {"id": "GI-SMT-0129", "name": "Tapan", "voltage": "150/20", "trafo_count": 1, "capacity_mva": 30.0, "province": "Sumatera Barat", "system": "Sumatera", "osm_id": "way/1278388652", "osm_name": "Gardu Induk Tapan", "match_score": 1.0, "match_source": "osm_fuzzy", "review_flag": "", "source_id": "RUPTL-2025-2034", "source_table": "Tabel A6.4"}}, {"type": "Feature", "geometry": {"type": "Point", "coordinates": [103.54202, -1.6898014]}, "properties": {"id": "GI-SMT-0130", "name": "Aur Duri", "voltage": "150/20", "trafo_count": 3, "capacity_mva": 150.0, "province": "Jambi", "system": "Sumatera", "osm_id": "way/943539373", "osm_name": "GITET Aur Duri Baru", "match_score": 0.95, "match_source": "osm_fuzzy", "review_flag": "", "source_id": "RUPTL-2025-2034", "source_table": "Tabel A7.4"}}, {"type": "Feature", "geometry": {"type": "Point", "coordinates": [103.1501248, -1.7269425]}, "properties": {"id": "GI-SMT-0132", "name": "Muara Bulian", "voltage": "150/20", "trafo_count": 2, "capacity_mva": 90.0, "province": "Jambi", "system": "Sumatera", "osm_id": "way/624460456", "osm_name": "Gardu Induk Muara Bulian", "match_score": 1.0, "match_source": "osm_fuzzy", "review_flag": "", "source_id": "RUPTL-2025-2034", "source_table": "Tabel A7.4"}}, {"type": "Feature", "geometry": {"type": "Point", "coordinates": [103.7701526, -1.2556161]}, "properties": {"id": "GI-SMT-0134", "name": "Muara Sabak", "voltage": "150/20", "trafo_count": 2, "capacity_mva": 90.0, "province": "Jambi", "system": "Sumatera", "osm_id": "way/623182765", "osm_name": "Gardu Induk Muara Sabak", "match_score": 1.0, "match_source": "osm_fuzzy", "review_flag": "", "source_id": "RUPTL-2025-2034", "source_table": "Tabel A7.4"}}, {"type": "Feature", "geometry": {"type": "Point", "coordinates": [102.7461496, -2.32879]}, "properties": {"id": "GI-SMT-0135", "name": "Sarolangun", "voltage": "150/20", "trafo_count": 1, "capacity_mva": 30.0, "province": "Jambi", "system": "Sumatera", "osm_id": "way/930719083", "osm_name": "Gardu Induk Sarolangun", "match_score": 1.0, "match_source": "osm_fuzzy", "review_flag": "", "source_id": "RUPTL-2025-2034", "source_table": "Tabel A7.4"}}, {"type": "Feature", "geometry": {"type": "Point", "coordinates": [103.5433813, -1.6036804]}, "properties": {"id": "GI-SMT-0136", "name": "New Aurduri", "voltage": "150/20", "trafo_count": 1, "capacity_mva": 60.0, "province": "Jambi", "system": "Sumatera", "osm_id": "way/623185705", "osm_name": "Gardu Induk Aurduri", "match_score": 0.92, "match_source": "osm_fuzzy", "review_flag": "", "source_id": "RUPTL-2025-2034", "source_table": "Tabel A7.4"}}, {"type": "Feature", "geometry": {"type": "Point", "coordinates": [102.1026809, -1.4318772]}, "properties": {"id": "GI-SMT-0137", "name": "Muara Bungo", "voltage": "150/20", "trafo_count": 3, "capacity_mva": 150.0, "province": "Jambi", "system": "Sumatera", "osm_id": "way/930719092", "osm_name": "GITET Muaro Bungo", "match_score": 0.91, "match_source": "osm_fuzzy", "review_flag": "", "source_id": "RUPTL-2025-2034", "source_table": "Tabel A7.4"}}, {"type": "Feature", "geometry": {"type": "Point", "coordinates": [102.2754957, -2.0437664]}, "properties": {"id": "GI-SMT-0138", "name": "Bangko", "voltage": "150/20", "trafo_count": 2, "capacity_mva": 90.0, "province": "Jambi", "system": "Sumatera", "osm_id": "way/841499143", "osm_name": "GITET Bangko", "match_score": 1.0, "match_source": "osm_fuzzy", "review_flag": "", "source_id": "RUPTL-2025-2034", "source_table": "Tabel A7.4"}}, {"type": "Feature", "geometry": {"type": "Point", "coordinates": [103.3896976, -0.9086439]}, "properties": {"id": "GI-SMT-0141", "name": "Kuala Tungkal", "voltage": "150/20", "trafo_count": 1, "capacity_mva": 30.0, "province": "Jambi", "system": "Sumatera", "osm_id": "way/939542524", "osm_name": "Gardu Induk Kuala Tungkal", "match_score": 1.0, "match_source": "osm_fuzzy", "review_flag": "", "source_id": "RUPTL-2025-2034", "source_table": "Tabel A7.4"}}, {"type": "Feature", "geometry": {"type": "Point", "coordinates": [104.7703732, -3.0041652]}, "properties": {"id": "GI-SMT-0142", "name": "Bungaran", "voltage": "70/20", "trafo_count": 2, "capacity_mva": 60.0, "province": "Sumatera Selatan", "system": "Sumatera", "osm_id": "way/940047530", "osm_name": "Gardu Induk Bungaran", "match_score": 1.0, "match_source": "osm_fuzzy", "review_flag": "", "source_id": "RUPTL-2025-2034", "source_table": "Tabel A8.4"}}, {"type": "Feature", "geometry": {"type": "Point", "coordinates": [104.8336378, -3.0174425]}, "properties": {"id": "GI-SMT-0143", "name": "Sungai Kedukan", "voltage": "70/20", "trafo_count": 2, "capacity_mva": 45.0, "province": "Sumatera Selatan", "system": "Sumatera", "osm_id": "way/610136436", "osm_name": "Gardu Induk Sungai Kedukan", "match_score": 1.0, "match_source": "osm_fuzzy", "review_flag": "", "source_id": "RUPTL-2025-2034", "source_table": "Tabel A8.4"}}, {"type": "Feature", "geometry": {"type": "Point", "coordinates": [104.8962735, -2.9494665]}, "properties": {"id": "GI-SMT-0144", "name": "Mariana", "voltage": "150/20", "trafo_count": 2, "capacity_mva": 90.0, "province": "Sumatera Selatan", "system": "Sumatera", "osm_id": "way/610136435", "osm_name": "Gardu Induk Mariana", "match_score": 1.0, "match_source": "osm_fuzzy", "review_flag": "", "source_id": "RUPTL-2025-2034", "source_table": "Tabel A8.4"}}, {"type": "Feature", "geometry": {"type": "Point", "coordinates": [104.7924551, -3.0306568]}, "properties": {"id": "GI-SMT-0145", "name": "New Jakabaring", "voltage": "150/20", "trafo_count": 2, "capacity_mva": 120.0, "province": "Sumatera Selatan", "system": "Sumatera", "osm_id": "way/610136448", "osm_name": "Gardu Induk Jakabaring", "match_score": 0.92, "match_source": "osm_fuzzy", "review_flag": "", "source_id": "RUPTL-2025-2034", "source_table": "Tabel A8.4"}}, {"type": "Feature", "geometry": {"type": "Point", "coordinates": [104.8641504, -3.3914683]}, "properties": {"id": "GI-SMT-0146", "name": "Kayu Agung", "voltage": "150/20", "trafo_count": 1, "capacity_mva": 60.0, "province": "Sumatera Selatan", "system": "Sumatera", "osm_id": "way/940299189", "osm_name": "Gardu Induk Kayu Agung", "match_score": 1.0, "match_source": "osm_fuzzy", "review_flag": "", "source_id": "RUPTL-2025-2034", "source_table": "Tabel A8.4"}}, {"type": "Feature", "geometry": {"type": "Point", "coordinates": [104.7331949, -3.0040518]}, "properties": {"id": "GI-SMT-0147", "name": "Bukit Siguntang", "voltage": "70/20", "trafo_count": 3, "capacity_mva": 90.0, "province": "Sumatera Selatan", "system": "Sumatera", "osm_id": "way/940047521", "osm_name": "Gardu Induk Bukit Siguntang", "match_score": 1.0, "match_source": "osm_fuzzy", "review_flag": "", "source_id": "RUPTL-2025-2034", "source_table": "Tabel A8.4"}}, {"type": "Feature", "geometry": {"type": "Point", "coordinates": [104.7811804, -2.9758783]}, "properties": {"id": "GI-SMT-0148", "name": "Boom Baru", "voltage": "70/20", "trafo_count": 2, "capacity_mva": 60.0, "province": "Sumatera Selatan", "system": "Sumatera", "osm_id": "way/940047532", "osm_name": "Gardu Induk Boom Baru", "match_score": 1.0, "match_source": "osm_fuzzy", "review_flag": "", "source_id": "RUPTL-2025-2034", "source_table": "Tabel A8.4"}}, {"type": "Feature", "geometry": {"type": "Point", "coordinates": [104.8092793, -2.9682375]}, "properties": {"id": "GI-SMT-0149", "name": "Sungai Juaro", "voltage": "70/20", "trafo_count": 2, "capacity_mva": 50.0, "province": "Sumatera Selatan", "system": "Sumatera", "osm_id": "way/940047526", "osm_name": "Gardu Induk Sungai Juaro", "match_score": 1.0, "match_source": "osm_fuzzy", "review_flag": "", "source_id": "RUPTL-2025-2034", "source_table": "Tabel A8.4"}}, {"type": "Feature", "geometry": {"type": "Point", "coordinates": [104.7313099, -2.9516876]}, "properties": {"id": "GI-SMT-0150", "name": "Talang Ratu", "voltage": "70/20", "trafo_count": 2, "capacity_mva": 40.0, "province": "Sumatera Selatan", "system": "Sumatera", "osm_id": "way/940047539", "osm_name": "Gardu Induk Talang Ratu", "match_score": 1.0, "match_source": "osm_fuzzy", "review_flag": "", "source_id": "RUPTL-2025-2034", "source_table": "Tabel A8.4"}}, {"type": "Feature", "geometry": {"type": "Point", "coordinates": [104.7669299, -2.9473857]}, "properties": {"id": "GI-SMT-0151", "name": "Seduduk Putih", "voltage": "70/20", "trafo_count": 2, "capacity_mva": 60.0, "province": "Sumatera Selatan", "system": "Sumatera", "osm_id": "way/940047537", "osm_name": "Gardu Induk Seduduk Putih", "match_score": 1.0, "match_source": "osm_fuzzy", "review_flag": "", "source_id": "RUPTL-2025-2034", "source_table": "Tabel A8.4"}}, {"type": "Feature", "geometry": {"type": "Point", "coordinates": [104.8715414, -2.9242807]}, "properties": {"id": "GI-SMT-0154", "name": "Borang", "voltage": "150/20", "trafo_count": 2, "capacity_mva": 90.0, "province": "Sumatera Selatan", "system": "Sumatera", "osm_id": "way/610136434", "osm_name": "Gardu Induk Borang", "match_score": 1.0, "match_source": "osm_fuzzy", "review_flag": "", "source_id": "RUPTL-2025-2034", "source_table": "Tabel A8.4"}}, {"type": "Feature", "geometry": {"type": "Point", "coordinates": [104.6470298, -2.9279317]}, "properties": {"id": "GI-SMT-0155", "name": "Talang Kelapa", "voltage": "150/20", "trafo_count": 2, "capacity_mva": 120.0, "province": "Sumatera Selatan", "system": "Sumatera", "osm_id": "way/610168631", "osm_name": "Gardu Induk Talang Kelapa", "match_score": 1.0, "match_source": "osm_fuzzy", "review_flag": "", "source_id": "RUPTL-2025-2034", "source_table": "Tabel A8.4"}}, {"type": "Feature", "geometry": {"type": "Point", "coordinates": [104.1816987, -2.8436404]}, "properties": {"id": "GI-SMT-0156", "name": "Betung", "voltage": "150/20", "trafo_count": 2, "capacity_mva": 120.0, "province": "Sumatera Selatan", "system": "Sumatera", "osm_id": "way/610198177", "osm_name": "GITET Betung", "match_score": 1.0, "match_source": "osm_fuzzy", "review_flag": "", "source_id": "RUPTL-2025-2034", "source_table": "Tabel A8.4"}}, {"type": "Feature", "geometry": {"type": "Point", "coordinates": [104.8179442, -2.4274263]}, "properties": {"id": "GI-SMT-0157", "name": "Tanjung Api-api", "voltage": "150/20", "trafo_count": 1, "capacity_mva": 30.0, "province": "Sumatera Selatan", "system": "Sumatera", "osm_id": "way/610168613", "osm_name": "Gardu Induk Tanjung Api-Api", "match_score": 1.0, "match_source": "osm_fuzzy", "review_flag": "", "source_id": "RUPTL-2025-2034", "source_table": "Tabel A8.4"}}, {"type": "Feature", "geometry": {"type": "Point", "coordinates": [103.9283614, -2.4246045]}, "properties": {"id": "GI-SMT-0158", "name": "Sungai Lilin", "voltage": "150/20", "trafo_count": 1, "capacity_mva": 30.0, "province": "Sumatera Selatan", "system": "Sumatera", "osm_id": "way/753733608", "osm_name": "GITET Sungai Lilin", "match_score": 1.0, "match_source": "osm_fuzzy", "review_flag": "", "source_id": "RUPTL-2025-2034", "source_table": "Tabel A8.4"}}, {"type": "Feature", "geometry": {"type": "Point", "coordinates": [104.6947222, -2.9756639]}, "properties": {"id": "GI-SMT-0159", "name": "Gandus", "voltage": "150/20", "trafo_count": 2, "capacity_mva": 120.0, "province": "Sumatera Selatan", "system": "Sumatera", "osm_id": "way/558191050", "osm_name": "Gardu Induk Gandus", "match_score": 1.0, "match_source": "osm_fuzzy", "review_flag": "", "source_id": "RUPTL-2025-2034", "source_table": "Tabel A8.4"}}, {"type": "Feature", "geometry": {"type": "Point", "coordinates": [103.8494357, -2.8493671]}, "properties": {"id": "GI-SMT-0160", "name": "Sekayu", "voltage": "150/20", "trafo_count": 1, "capacity_mva": 30.0, "province": "Sumatera Selatan", "system": "Sumatera", "osm_id": "way/946191121", "osm_name": "Gardu Induk Sekayu", "match_score": 1.0, "match_source": "osm_fuzzy", "review_flag": "", "source_id": "RUPTL-2025-2034", "source_table": "Tabel A8.4"}}, {"type": "Feature", "geometry": {"type": "Point", "coordinates": [104.7387382, -2.8838557]}, "properties": {"id": "GI-SMT-0161", "name": "Kenten", "voltage": "150/20", "trafo_count": 2, "capacity_mva": 120.0, "province": "Sumatera Selatan", "system": "Sumatera", "osm_id": "way/610168632", "osm_name": "Gardu Induk Kenten", "match_score": 1.0, "match_source": "osm_fuzzy", "review_flag": "", "source_id": "RUPTL-2025-2034", "source_table": "Tabel A8.4"}}, {"type": "Feature", "geometry": {"type": "Point", "coordinates": [104.243254, -3.4440345]}, "properties": {"id": "GI-SMT-0162", "name": "Prabumulih", "voltage": "150/20", "trafo_count": 3, "capacity_mva": 150.0, "province": "Sumatera Selatan", "system": "Sumatera", "osm_id": "way/662978700", "osm_name": "Gardu Induk Prabumulih", "match_score": 1.0, "match_source": "osm_fuzzy", "review_flag": "", "source_id": "RUPTL-2025-2034", "source_table": "Tabel A8.4"}}, {"type": "Feature", "geometry": {"type": "Point", "coordinates": [102.8558895, -3.2394246]}, "properties": {"id": "GI-SMT-0165", "name": "Lubuk Linggau", "voltage": "150/20", "trafo_count": 3, "capacity_mva": 150.0, "province": "Sumatera Selatan", "system": "Sumatera", "osm_id": "way/528189342", "osm_name": "GITET Lubuk Linggau", "match_score": 1.0, "match_source": "osm_fuzzy", "review_flag": "", "source_id": "RUPTL-2025-2034", "source_table": "Tabel A8.4"}}, {"type": "Feature", "geometry": {"type": "Point", "coordinates": [104.7833284, -4.053895]}, "properties": {"id": "GI-SMT-0166", "name": "Gumawang", "voltage": "150/20", "trafo_count": 3, "capacity_mva": 120.0, "province": "Sumatera Selatan", "system": "Sumatera", "osm_id": "way/931931121", "osm_name": "GITET Gumawang", "match_score": 1.0, "match_source": "osm_fuzzy", "review_flag": "", "source_id": "RUPTL-2025-2034", "source_table": "Tabel A8.4"}}, {"type": "Feature", "geometry": {"type": "Point", "coordinates": [103.510205, -3.7689918]}, "properties": {"id": "GI-SMT-0167", "name": "Lahat", "voltage": "150/20", "trafo_count": 2, "capacity_mva": 90.0, "province": "Sumatera Selatan", "system": "Sumatera", "osm_id": "way/527900241", "osm_name": "GITET Lahat", "match_score": 1.0, "match_source": "osm_fuzzy", "review_flag": "", "source_id": "RUPTL-2025-2034", "source_table": "Tabel A8.4"}}, {"type": "Feature", "geometry": {"type": "Point", "coordinates": [103.797662, -3.7314036]}, "properties": {"id": "GI-SMT-0168", "name": "Bukit Asam", "voltage": "150/20", "trafo_count": 2, "capacity_mva": 120.0, "province": "Sumatera Selatan", "system": "Sumatera", "osm_id": "way/719550864", "osm_name": "PLTU Bukit Asam", "match_score": 1.0, "match_source": "override:osm_plant", "review_flag": "", "source_id": "RUPTL-2025-2034", "source_table": "Tabel A8.4"}}, {"type": "Feature", "geometry": {"type": "Point", "coordinates": [104.1696073, -4.106283]}, "properties": {"id": "GI-SMT-0169", "name": "Baturaja", "voltage": "150/20", "trafo_count": 3, "capacity_mva": 180.0, "province": "Sumatera Selatan", "system": "Sumatera", "osm_id": "way/753522706", "osm_name": "Gardu Induk Baturaja", "match_score": 1.0, "match_source": "osm_fuzzy", "review_flag": "", "source_id": "RUPTL-2025-2034", "source_table": "Tabel A8.4"}}, {"type": "Feature", "geometry": {"type": "Point", "coordinates": [104.3581621, -4.3787828]}, "properties": {"id": "GI-SMT-0170", "name": "Martapura", "voltage": "150/20", "trafo_count": 1, "capacity_mva": 60.0, "province": "Sumatera Selatan", "system": "Sumatera", "osm_id": "way/931931129", "osm_name": "Gardu Induk Martapura", "match_score": 1.0, "match_source": "osm_fuzzy", "review_flag": "", "source_id": "RUPTL-2025-2034", "source_table": "Tabel A8.4"}}, {"type": "Feature", "geometry": {"type": "Point", "coordinates": [104.0564494, -4.5884308]}, "properties": {"id": "GI-SMT-0171", "name": "Muara Dua", "voltage": "150/20", "trafo_count": 1, "capacity_mva": 60.0, "province": "Sumatera Selatan", "system": "Sumatera", "osm_id": "way/931931135", "osm_name": "Gardu Induk Muaradua", "match_score": 0.94, "match_source": "osm_fuzzy", "review_flag": "", "source_id": "RUPTL-2025-2034", "source_table": "Tabel A8.4"}}, {"type": "Feature", "geometry": {"type": "Point", "coordinates": [103.6060835, -4.0399623]}, "properties": {"id": "GI-SMT-0172", "name": "Lumut Balai", "voltage": "150/20", "trafo_count": 1, "capacity_mva": 60.0, "province": "Sumatera Selatan", "system": "Sumatera", "osm_id": "way/931931133", "osm_name": "GITET Lumut Balai", "match_score": 1.0, "match_source": "osm_fuzzy", "review_flag": "", "source_id": "RUPTL-2025-2034", "source_table": "Tabel A8.4"}}, {"type": "Feature", "geometry": {"type": "Point", "coordinates": [103.225234, -3.9806403]}, "properties": {"id": "GI-SMT-0173", "name": "Pagar Alam", "voltage": "150/20", "trafo_count": 3, "capacity_mva": 105.0, "province": "Sumatera Selatan", "system": "Sumatera", "osm_id": "way/956594064", "osm_name": "Gardu Induk Pagar Alam", "match_score": 1.0, "match_source": "osm_fuzzy", "review_flag": "", "source_id": "RUPTL-2025-2034", "source_table": "Tabel A8.4"}}, {"type": "Feature", "geometry": {"type": "Point", "coordinates": [103.9787457, -3.4356952]}, "properties": {"id": "GI-SMT-0174", "name": "Pendopo", "voltage": "150/20", "trafo_count": 1, "capacity_mva": 60.0, "province": "Sumatera Selatan", "system": "Sumatera", "osm_id": "way/1314442987", "osm_name": "Gardu Induk Pendopo", "match_score": 1.0, "match_source": "osm_fuzzy", "review_flag": "", "source_id": "RUPTL-2025-2034", "source_table": "Tabel A8.4"}}, {"type": "Feature", "geometry": {"type": "Point", "coordinates": [103.0785316, -3.5489062]}, "properties": {"id": "GI-SMT-0175", "name": "Tebing Tinggi", "voltage": "150/20", "trafo_count": 1, "capacity_mva": 30.0, "province": "Sumatera Selatan", "system": "Sumatera", "osm_id": "way/1228701035", "osm_name": "Gardu Induk Tebing Tinggi", "match_score": 1.0, "match_source": "osm_fuzzy", "review_flag": "", "source_id": "RUPTL-2025-2034", "source_table": "Tabel A8.4"}}, {"type": "Feature", "geometry": {"type": "Point", "coordinates": [102.2694393, -3.7878141]}, "properties": {"id": "GI-SMT-0176", "name": "Sukamerindu", "voltage": "70/20", "trafo_count": 3, "capacity_mva": 120.0, "province": "Bengkulu", "system": "Sumatera", "osm_id": "way/956594056", "osm_name": "Gardu Induk Sukamerindu", "match_score": 1.0, "match_source": "osm_fuzzy", "review_flag": "", "source_id": "RUPTL-2025-2034", "source_table": "Tabel A9.4"}}, {"type": "Feature", "geometry": {"type": "Point", "coordinates": [102.3181629, -3.2067037]}, "properties": {"id": "GI-SMT-0177", "name": "Tes", "voltage": "70/20", "trafo_count": 1, "capacity_mva": 30.0, "province": "Bengkulu", "system": "Sumatera", "osm_id": "way/956594058", "osm_name": "PLTA Tes", "match_score": 1.0, "match_source": "override:osm_plant", "review_flag": "", "source_id": "RUPTL-2025-2034", "source_table": "Tabel A9.4"}}, {"type": "Feature", "geometry": {"type": "Point", "coordinates": [102.9334228, -4.4136571]}, "properties": {"id": "GI-SMT-0178", "name": "Manna", "voltage": "150/20", "trafo_count": 2, "capacity_mva": 60.0, "province": "Bengkulu", "system": "Sumatera", "osm_id": "way/956594063", "osm_name": "Gardu Induk Manna", "match_score": 1.0, "match_source": "osm_fuzzy", "review_flag": "", "source_id": "RUPTL-2025-2034", "source_table": "Tabel A9.4"}}, {"type": "Feature", "geometry": {"type": "Point", "coordinates": [102.3651043, -3.8383227]}, "properties": {"id": "GI-SMT-0179", "name": "P. Baai", "voltage": "150/20", "trafo_count": 2, "capacity_mva": 120.0, "province": "Bengkulu", "system": "Sumatera", "osm_id": "way/930719090", "osm_name": "Gardu Induk Pulau Baai", "match_score": 1.0, "match_source": "override:osm_substation", "review_flag": "", "source_id": "RUPTL-2025-2034", "source_table": "Tabel A9.4"}}, {"type": "Feature", "geometry": {"type": "Point", "coordinates": [102.1024556, -3.4923529]}, "properties": {"id": "GI-SMT-0181", "name": "Argamakmur", "voltage": "150/20", "trafo_count": 1, "capacity_mva": 60.0, "province": "Bengkulu", "system": "Sumatera", "osm_id": "way/1311638728", "osm_name": "Gardu Induk Argamakmur", "match_score": 1.0, "match_source": "osm_fuzzy", "review_flag": "", "source_id": "RUPTL-2025-2034", "source_table": "Tabel A9.4"}}, {"type": "Feature", "geometry": {"type": "Point", "coordinates": [105.3501629, -5.518204]}, "properties": {"id": "GI-SMT-0182", "name": "Tarahan", "voltage": "150/20", "trafo_count": 2, "capacity_mva": 90.0, "province": "Lampung", "system": "Sumatera", "osm_id": "way/557586719", "osm_name": "Gardu Induk Tarahan", "match_score": 1.0, "match_source": "osm_fuzzy", "review_flag": "", "source_id": "RUPTL-2025-2034", "source_table": "Tabel A10.4"}}, {"type": "Feature", "geometry": {"type": "Point", "coordinates": [105.2536839, -5.4396945]}, "properties": {"id": "GI-SMT-0183", "name": "Teluk Betung", "voltage": "150/20", "trafo_count": 3, "capacity_mva": 180.0, "province": "Lampung", "system": "Sumatera", "osm_id": "way/931931127", "osm_name": "Gardu Induk Teluk Betung", "match_score": 1.0, "match_source": "osm_fuzzy", "review_flag": "", "source_id": "RUPTL-2025-2034", "source_table": "Tabel A10.4"}}, {"type": "Feature", "geometry": {"type": "Point", "coordinates": [105.3771396, -5.3905409]}, "properties": {"id": "GI-SMT-0184", "name": "Sutami", "voltage": "150/20", "trafo_count": 2, "capacity_mva": 90.0, "province": "Lampung", "system": "Sumatera", "osm_id": "way/557549676", "osm_name": "Gardu Induk Sutami", "match_score": 1.0, "match_source": "osm_fuzzy", "review_flag": "", "source_id": "RUPTL-2025-2034", "source_table": "Tabel A10.4"}}, {"type": "Feature", "geometry": {"type": "Point", "coordinates": [105.6264317, -5.7233666]}, "properties": {"id": "GI-SMT-0185", "name": "Kalianda", "voltage": "150/20", "trafo_count": 2, "capacity_mva": 90.0, "province": "Lampung", "system": "Sumatera", "osm_id": "way/556355551", "osm_name": "Gardu Induk Kalianda", "match_score": 1.0, "match_source": "osm_fuzzy", "review_flag": "", "source_id": "RUPTL-2025-2034", "source_table": "Tabel A10.4"}}, {"type": "Feature", "geometry": {"type": "Point", "coordinates": [105.3501629, -5.518204]}, "properties": {"id": "GI-SMT-0186", "name": "New Tarahan", "voltage": "150/20", "trafo_count": 2, "capacity_mva": 90.0, "province": "Lampung", "system": "Sumatera", "osm_id": "way/557586719", "osm_name": "Gardu Induk Tarahan", "match_score": 0.92, "match_source": "osm_fuzzy", "review_flag": "", "source_id": "RUPTL-2025-2034", "source_table": "Tabel A10.4"}}, {"type": "Feature", "geometry": {"type": "Point", "coordinates": [105.3057012, -5.3622699]}, "properties": {"id": "GI-SMT-0187", "name": "Sukarame", "voltage": "150/20", "trafo_count": 2, "capacity_mva": 120.0, "province": "Lampung", "system": "Sumatera", "osm_id": "way/405026507", "osm_name": "Gardu Induk Sukarame", "match_score": 1.0, "match_source": "osm_fuzzy", "review_flag": "", "source_id": "RUPTL-2025-2034", "source_table": "Tabel A10.4"}}, {"type": "Feature", "geometry": {"type": "Point", "coordinates": [105.1887945, -4.9378365]}, "properties": {"id": "GI-SMT-0188", "name": "Adijaya", "voltage": "150/20", "trafo_count": 2, "capacity_mva": 90.0, "province": "Lampung", "system": "Sumatera", "osm_id": "way/931931110", "osm_name": "Gardu Induk Adijaya", "match_score": 1.0, "match_source": "osm_fuzzy", "review_flag": "", "source_id": "RUPTL-2025-2034", "source_table": "Tabel A10.4"}}, {"type": "Feature", "geometry": {"type": "Point", "coordinates": [105.1740647, -5.1846139]}, "properties": {"id": "GI-SMT-0189", "name": "Tegineneng", "voltage": "150/20", "trafo_count": 3, "capacity_mva": 150.0, "province": "Lampung", "system": "Sumatera", "osm_id": "way/931931105", "osm_name": "Gardu Induk Tegineneng", "match_score": 1.0, "match_source": "osm_fuzzy", "review_flag": "", "source_id": "RUPTL-2025-2034", "source_table": "Tabel A10.4"}}, {"type": "Feature", "geometry": {"type": "Point", "coordinates": [105.2052931, -5.3349265]}, "properties": {"id": "GI-SMT-0190", "name": "Natar", "voltage": "150/20", "trafo_count": 3, "capacity_mva": 150.0, "province": "Lampung", "system": "Sumatera", "osm_id": "way/931931126", "osm_name": "Gardu Induk Natar", "match_score": 1.0, "match_source": "osm_fuzzy", "review_flag": "", "source_id": "RUPTL-2025-2034", "source_table": "Tabel A10.4"}}, {"type": "Feature", "geometry": {"type": "Point", "coordinates": [105.7148534, -5.3122098]}, "properties": {"id": "GI-SMT-0191", "name": "Sribawono", "voltage": "150/20", "trafo_count": 2, "capacity_mva": 90.0, "province": "Lampung", "system": "Sumatera", "osm_id": "way/662978701", "osm_name": "Gardu Induk Sribawono", "match_score": 1.0, "match_source": "osm_fuzzy", "review_flag": "", "source_id": "RUPTL-2025-2034", "source_table": "Tabel A10.4"}}, {"type": "Feature", "geometry": {"type": "Point", "coordinates": [105.3262648, -5.1495333]}, "properties": {"id": "GI-SMT-0192", "name": "Metro", "voltage": "150/20", "trafo_count": 2, "capacity_mva": 120.0, "province": "Lampung", "system": "Sumatera", "osm_id": "way/931931112", "osm_name": "Gardu Induk Metro", "match_score": 1.0, "match_source": "osm_fuzzy", "review_flag": "", "source_id": "RUPTL-2025-2034", "source_table": "Tabel A10.4"}}, {"type": "Feature", "geometry": {"type": "Point", "coordinates": [105.5083106, -4.8834927]}, "properties": {"id": "GI-SMT-0193", "name": "Seputih Banyak", "voltage": "150/20", "trafo_count": 3, "capacity_mva": 150.0, "province": "Lampung", "system": "Sumatera", "osm_id": "way/557379214", "osm_name": "Gardu Induk Seputih Banyak", "match_score": 1.0, "match_source": "osm_fuzzy", "review_flag": "", "source_id": "RUPTL-2025-2034", "source_table": "Tabel A10.4"}}, {"type": "Feature", "geometry": {"type": "Point", "coordinates": [104.930845, -5.3694267]}, "properties": {"id": "GI-SMT-0194", "name": "Pagelaran", "voltage": "150/20", "trafo_count": 2, "capacity_mva": 120.0, "province": "Lampung", "system": "Sumatera", "osm_id": "way/931931158", "osm_name": "Gardu Induk Pagelaran", "match_score": 1.0, "match_source": "osm_fuzzy", "review_flag": "", "source_id": "RUPTL-2025-2034", "source_table": "Tabel A10.4"}}, {"type": "Feature", "geometry": {"type": "Point", "coordinates": [104.5748938, -5.3076656]}, "properties": {"id": "GI-SMT-0195", "name": "Ulubelu", "voltage": "150/20", "trafo_count": 1, "capacity_mva": 30.0, "province": "Lampung", "system": "Sumatera", "osm_id": "way/531143189", "osm_name": "PLTP Ulubelu", "match_score": 1.0, "match_source": "override:osm_plant", "review_flag": "", "source_id": "RUPTL-2025-2034", "source_table": "Tabel A10.4"}}, {"type": "Feature", "geometry": {"type": "Point", "coordinates": [104.6548189, -5.4986261]}, "properties": {"id": "GI-SMT-0196", "name": "Kota Agung", "voltage": "150/20", "trafo_count": 2, "capacity_mva": 90.0, "province": "Lampung", "system": "Sumatera", "osm_id": "way/931931153", "osm_name": "Gardu Induk Kota Agung", "match_score": 1.0, "match_source": "osm_fuzzy", "review_flag": "", "source_id": "RUPTL-2025-2034", "source_table": "Tabel A10.4"}}, {"type": "Feature", "geometry": {"type": "Point", "coordinates": [104.8629022, -4.8514328]}, "properties": {"id": "GI-SMT-0197", "name": "Kotabumi", "voltage": "150/20", "trafo_count": 2, "capacity_mva": 120.0, "province": "Lampung", "system": "Sumatera", "osm_id": "way/931931113", "osm_name": "Gardu Induk Kotabumi", "match_score": 1.0, "match_source": "osm_fuzzy", "review_flag": "", "source_id": "RUPTL-2025-2034", "source_table": "Tabel A10.4"}}, {"type": "Feature", "geometry": {"type": "Point", "coordinates": [105.2009412, -4.5099406]}, "properties": {"id": "GI-SMT-0198", "name": "Menggala", "voltage": "150/20", "trafo_count": 3, "capacity_mva": 150.0, "province": "Lampung", "system": "Sumatera", "osm_id": "way/931931128", "osm_name": "Gardu Induk Menggala", "match_score": 1.0, "match_source": "osm_fuzzy", "review_flag": "", "source_id": "RUPTL-2025-2034", "source_table": "Tabel A10.4"}}, {"type": "Feature", "geometry": {"type": "Point", "coordinates": [104.5764635, -4.8318679]}, "properties": {"id": "GI-SMT-0199", "name": "Bukit Kemuning", "voltage": "150/20", "trafo_count": 2, "capacity_mva": 90.0, "province": "Lampung", "system": "Sumatera", "osm_id": "way/931931107", "osm_name": "Gardu Induk Bukit Kemuning", "match_score": 1.0, "match_source": "osm_fuzzy", "review_flag": "", "source_id": "RUPTL-2025-2034", "source_table": "Tabel A10.4"}}, {"type": "Feature", "geometry": {"type": "Point", "coordinates": [104.1665, -5.0186419]}, "properties": {"id": "GI-SMT-0200", "name": "Liwa", "voltage": "150/20", "trafo_count": 2, "capacity_mva": 60.0, "province": "Lampung", "system": "Sumatera", "osm_id": "way/654007323", "osm_name": "Gardu Induk Liwa", "match_score": 1.0, "match_source": "osm_fuzzy", "review_flag": "", "source_id": "RUPTL-2025-2034", "source_table": "Tabel A10.4"}}, {"type": "Feature", "geometry": {"type": "Point", "coordinates": [105.2637472, -4.019877]}, "properties": {"id": "GI-SMT-0201", "name": "Mesuji", "voltage": "150/20", "trafo_count": 1, "capacity_mva": 60.0, "province": "Lampung", "system": "Sumatera", "osm_id": "way/931931119", "osm_name": "Gardu Induk Mesuji", "match_score": 1.0, "match_source": "osm_fuzzy", "review_flag": "", "source_id": "RUPTL-2025-2034", "source_table": "Tabel A10.4"}}, {"type": "Feature", "geometry": {"type": "Point", "coordinates": [104.4953115, -4.5831222]}, "properties": {"id": "GI-SMT-0202", "name": "Blambangan Umpu", "voltage": "150/20", "trafo_count": 2, "capacity_mva": 90.0, "province": "Lampung", "system": "Sumatera", "osm_id": "way/931931130", "osm_name": "Gardu Induk Blambangan Umpu", "match_score": 1.0, "match_source": "osm_fuzzy", "review_flag": "", "source_id": "RUPTL-2025-2034", "source_table": "Tabel A10.4"}}, {"type": "Feature", "geometry": {"type": "Point", "coordinates": [105.7812429, -5.7277002]}, "properties": {"id": "GI-SMT-0203", "name": "Ketapang", "voltage": "150/20", "trafo_count": 1, "capacity_mva": 60.0, "province": "Lampung", "system": "Sumatera", "osm_id": "way/957141002", "osm_name": "Gardu Induk Ketapang", "match_score": 1.0, "match_source": "osm_fuzzy", "review_flag": "", "source_id": "RUPTL-2025-2034", "source_table": "Tabel A10.4"}}, {"type": "Feature", "geometry": {"type": "Point", "coordinates": [105.3819483, -5.3079341]}, "properties": {"id": "GI-SMT-0204", "name": "Jati Agung", "voltage": "150/20", "trafo_count": 1, "capacity_mva": 60.0, "province": "Lampung", "system": "Sumatera", "osm_id": "way/931931159", "osm_name": "Gardu Induk Jati Agung", "match_score": 1.0, "match_source": "osm_fuzzy", "review_flag": "", "source_id": "RUPTL-2025-2034", "source_table": "Tabel A10.4"}}, {"type": "Feature", "geometry": {"type": "Point", "coordinates": [105.1938182, -5.4078051]}, "properties": {"id": "GI-SMT-0205", "name": "Langka Pura", "voltage": "150/20", "trafo_count": 1, "capacity_mva": 60.0, "province": "Lampung", "system": "Sumatera", "osm_id": "way/1311677134", "osm_name": "Gardu Induk Langkapura", "match_score": 0.95, "match_source": "osm_fuzzy", "review_flag": "", "source_id": "RUPTL-2025-2034", "source_table": "Tabel A10.4"}}, {"type": "Feature", "geometry": {"type": "Point", "coordinates": [105.8181533, -4.4690161]}, "properties": {"id": "GI-SMT-0208", "name": "Dente Teladas", "voltage": "150/20", "trafo_count": 1, "capacity_mva": 60.0, "province": "Lampung", "system": "Sumatera", "osm_id": "way/1311774299", "osm_name": "Gardu Induk Dente Teladas", "match_score": 1.0, "match_source": "osm_fuzzy", "review_flag": "", "source_id": "RUPTL-2025-2034", "source_table": "Tabel A10.4"}}, {"type": "Feature", "geometry": {"type": "Point", "coordinates": [105.494484, -5.5825911]}, "properties": {"id": "GI-SMT-0209", "name": "Sidomulyo", "voltage": "150/20", "trafo_count": 1, "capacity_mva": 60.0, "province": "Lampung", "system": "Sumatera", "osm_id": "way/1314409722", "osm_name": "Gardu Induk Sidomulyo", "match_score": 1.0, "match_source": "osm_fuzzy", "review_flag": "", "source_id": "RUPTL-2025-2034", "source_table": "Tabel A10.4"}}, {"type": "Feature", "geometry": {"type": "Point", "coordinates": [105.0620265, -5.4009664]}, "properties": {"id": "GI-SMT-0210", "name": "Gedong Tataan", "voltage": "150/20", "trafo_count": 1, "capacity_mva": 60.0, "province": "Lampung", "system": "Sumatera", "osm_id": "way/1311677143", "osm_name": "Gardu Induk Gedong Tataan", "match_score": 1.0, "match_source": "osm_fuzzy", "review_flag": "", "source_id": "RUPTL-2025-2034", "source_table": "Tabel A10.4"}}]}