{"type": "FeatureCollection", "features": [{"type": "Feature", "geometry": {"type": "Point", "coordinates": [116.0768772, -8.5983687]}, "properties": {"id": "GI-NTB-0001", "name": "Ampenan", "voltage": "150/20", "trafo_count": 3, "capacity_mva": 150.0, "province": "Nusa Tenggara Barat", "system": "NTB", "osm_id": "way/614195177", "osm_name": "Gardu Induk Ampenan", "match_score": 1.0, "match_source": "osm_fuzzy", "review_flag": "", "source_id": "RUPTL-2025-2034", "source_table": "Tabel C11.4", "match_tier": "BASELINE", "source": "RUPTL-2025-2034", "target_cod_year_ruptl": "", "action_norm": "", "status_norm": ""}}, {"type": "Feature", "geometry": {"type": "Point", "coordinates": [116.0740629, -8.6580249]}, "properties": {"id": "GI-NTB-0002", "name": "Jeranjang", "voltage": "150/20", "trafo_count": 2, "capacity_mva": 60.0, "province": "Nusa Tenggara Barat", "system": "NTB", "osm_id": "way/614195176", "osm_name": "Gardu Induk Jeranjang", "match_score": 1.0, "match_source": "osm_fuzzy", "review_flag": "", "source_id": "RUPTL-2025-2034", "source_table": "Tabel C11.15", "match_tier": "PLANNED_EXISTING_UPRATE", "source": "RUPTL-2025-2034", "target_cod_year_ruptl": "2027", "action_norm": "UPRATE", "status_norm": "COMMITTED", "ruptl_id": "RUPTL-NTB-GI-0005", "action_type_ruptl": "Uprate", "status_ruptl": "Committed", "capacity_mva_ruptl": "60.0", "voltage_kv_ruptl": "150/20", "source_page": "1163"}}, {"type": "Feature", "geometry": {"type": "Point", "coordinates": [116.2911884, -8.8134664]}, "properties": {"id": "GI-NTB-0003", "name": "Sengkol", "voltage": "150/20", "trafo_count": 3, "capacity_mva": 120.0, "province": "Nusa Tenggara Barat", "system": "NTB", "osm_id": "way/614195178", "osm_name": "Gardu Induk Sengkol", "match_score": 1.0, "match_source": "osm_fuzzy", "review_flag": "", "source_id": "RUPTL-2025-2034", "source_table": "Tabel C11.4", "match_tier": "BASELINE", "source": "RUPTL-2025-2034", "target_cod_year_ruptl": "", "action_norm": "", "status_norm": ""}}, {"type": "Feature", "geometry": {"type": "Point", "coordinates": [116.3079932, -8.6199585]}, "properties": {"id": "GI-NTB-0004", "name": "Mantang", "voltage": "150/20", "trafo_count": 2, "capacity_mva": 90.0, "province": "Nusa Tenggara Barat", "system": "NTB", "osm_id": "way/614195173", "osm_name": "Gardu Induk Mantang", "match_score": 1.0, "match_source": "osm_fuzzy", "review_flag": "", "source_id": "RUPTL-2025-2034", "source_table": "Tabel C11.15", "match_tier": "PLANNED_EXISTING_EXT", "source": "RUPTL-2025-2034", "target_cod_year_ruptl": "2025", "action_norm": "EXTENSION", "status_norm": "COMMITTED", "ruptl_id": "RUPTL-NTB-GI-0002", "action_type_ruptl": "Extension", "status_ruptl": "Committed", "capacity_mva_ruptl": "2.0", "voltage_kv_ruptl": "150", "source_page": "1163"}}, {"type": "Feature", "geometry": {"type": "Point", "coordinates": [116.3060037, -8.88956]}, "properties": {"id": "GI-NTB-0006", "name": "Kuta", "voltage": "150/20", "trafo_count": 1, "capacity_mva": 30.0, "province": "Nusa Tenggara Barat", "system": "NTB", "osm_id": "way/614195181", "osm_name": "Gardu Induk Kuta", "match_score": 1.0, "match_source": "osm_fuzzy", "review_flag": "", "source_id": "RUPTL-2025-2034", "source_table": "Tabel C11.4", "match_tier": "BASELINE", "source": "RUPTL-2025-2034", "target_cod_year_ruptl": "", "action_norm": "", "status_norm": ""}}, {"type": "Feature", "geometry": {"type": "Point", "coordinates": [116.1533108, -8.3659874]}, "properties": {"id": "GI-NTB-0007", "name": "Tanjung", "voltage": "150/20", "trafo_count": 1, "capacity_mva": 30.0, "province": "Nusa Tenggara Barat", "system": "NTB", "osm_id": "way/614635876", "osm_name": "Gardu Induk Tanjung", "match_score": 1.0, "match_source": "osm_fuzzy", "review_flag": "", "source_id": "RUPTL-2025-2034", "source_table": "Tabel C11.15", "match_tier": "PLANNED_EXISTING_EXT", "source": "RUPTL-2025-2034", "target_cod_year_ruptl": "2028", "action_norm": "EXTENSION", "status_norm": "PLANNED", "ruptl_id": "RUPTL-NTB-GI-0009", "action_type_ruptl": "Extension", "status_ruptl": "Planned", "capacity_mva_ruptl": "60.0", "voltage_kv_ruptl": "150/20", "source_page": "1163"}}, {"type": "Feature", "geometry": {"type": "Point", "coordinates": [116.6296981, -8.5432138]}, "properties": {"id": "GI-NTB-0008", "name": "Pringgabaya", "voltage": "150/20", "trafo_count": 1, "capacity_mva": 30.0, "province": "Nusa Tenggara Barat", "system": "NTB", "osm_id": "way/614215740", "osm_name": "Gardu Induk Pringgabaya", "match_score": 1.0, "match_source": "osm_fuzzy", "review_flag": "", "source_id": "RUPTL-2025-2034", "source_table": "Tabel C11.15", "match_tier": "PLANNED_EXISTING_EXT", "source": "RUPTL-2025-2034", "target_cod_year_ruptl": "2029", "action_norm": "EXTENSION", "status_norm": "PLANNED", "ruptl_id": "RUPTL-NTB-GI-0010", "action_type_ruptl": "Extension", "status_ruptl": "Planned", "capacity_mva_ruptl": "30.0", "voltage_kv_ruptl": "150/20", "source_page": "1163"}}, {"type": "Feature", "geometry": {"type": "Point", "coordinates": [116.3977148, -8.2281655]}, "properties": {"id": "GI-NTB-0009", "name": "Bayan", "voltage": "150/20", "trafo_count": 1, "capacity_mva": 30.0, "province": "Nusa Tenggara Barat", "system": "NTB", "osm_id": "way/929160637", "osm_name": "Gardu Induk Bayan", "match_score": 1.0, "match_source": "osm_fuzzy", "review_flag": "", "source_id": "RUPTL-2025-2034", "source_table": "Tabel C11.4", "match_tier": "BASELINE", "source": "RUPTL-2025-2034", "target_cod_year_ruptl": "", "action_norm": "", "status_norm": ""}}, {"type": "Feature", "geometry": {"type": "Point", "coordinates": [116.7081165, -8.4224238]}, "properties": {"id": "GI-NTB-0010", "name": "Sambelia", "voltage": "150/20", "trafo_count": 1, "capacity_mva": 20.0, "province": "Nusa Tenggara Barat", "system": "NTB", "osm_id": "way/614625442", "osm_name": "Gardu Induk Sambelia", "match_score": 1.0, "match_source": "osm_fuzzy", "review_flag": "", "source_id": "RUPTL-2025-2034", "source_table": "Tabel C11.4", "match_tier": "BASELINE", "source": "RUPTL-2025-2034", "target_cod_year_ruptl": "", "action_norm": "", "status_norm": ""}}, {"type": "Feature", "geometry": {"type": "Point", "coordinates": [116.1660969, -8.5921297]}, "properties": {"id": "GI-NTB-0011", "name": "Mataram", "voltage": "150/20", "trafo_count": 2, "capacity_mva": 120.0, "province": "Nusa Tenggara Barat", "system": "NTB", "osm_id": "way/929160638", "osm_name": "Gardu Induk Mataram", "match_score": 1.0, "match_source": "osm_fuzzy", "review_flag": "", "source_id": "RUPTL-2025-2034", "source_table": "Tabel C11.15", "match_tier": "PLANNED_EXISTING_EXT", "source": "RUPTL-2025-2034", "target_cod_year_ruptl": "2025", "action_norm": "EXTENSION", "status_norm": "COMMITTED", "ruptl_id": "RUPTL-NTB-GI-0003", "action_type_ruptl": "Extension", "status_ruptl": "Committed", "capacity_mva_ruptl": "2.0", "voltage_kv_ruptl": "150", "source_page": "1163"}}, {"type": "Feature", "geometry": {"type": "Point", "coordinates": [115.9549361, -8.74747]}, "properties": {"id": "GI-NTB-0012", "name": "Sekotong", "voltage": "150/20", "trafo_count": 1, "capacity_mva": 30.0, "province": "Nusa Tenggara Barat", "system": "NTB", "osm_id": "way/1411184750", "osm_name": "Gardu Induk Sekotong", "match_score": 1.0, "match_source": "osm_fuzzy", "review_flag": "", "source_id": "RUPTL-2025-2034", "source_table": "Tabel C11.4", "match_tier": "BASELINE", "source": "RUPTL-2025-2034", "target_cod_year_ruptl": "", "action_norm": "", "status_norm": ""}}, {"type": "Feature", "geometry": {"type": "Point", "coordinates": [117.4364131, -8.5149344]}, "properties": {"id": "GI-NTB-0013", "name": "Sumbawa", "voltage": "150/20", "trafo_count": 1, "capacity_mva": 30.0, "province": "Nusa Tenggara Barat", "system": "NTB", "osm_id": "way/707531067", "osm_name": "Gardu Induk Seketeng", "match_score": 1.0, "match_source": "override:osm_substation", "review_flag": "", "source_id": "RUPTL-2025-2034", "source_table": "Tabel C11.4", "match_tier": "BASELINE", "source": "RUPTL-2025-2034", "target_cod_year_ruptl": "", "action_norm": "", "status_norm": ""}}, {"type": "Feature", "geometry": {"type": "Point", "coordinates": [117.9792667, -8.774577]}, "properties": {"id": "GI-NTB-0015", "name": "Empang", "voltage": "150/20", "trafo_count": 1, "capacity_mva": 20.0, "province": "Nusa Tenggara Barat", "system": "NTB", "osm_id": "way/707531069", "osm_name": "Gardu Induk Empang", "match_score": 1.0, "match_source": "osm_fuzzy", "review_flag": "", "source_id": "RUPTL-2025-2034", "source_table": "Tabel C11.15", "match_tier": "PLANNED_EXISTING_EXT", "source": "RUPTL-2025-2034", "target_cod_year_ruptl": "2027", "action_norm": "EXTENSION", "status_norm": "COMMITTED", "ruptl_id": "RUPTL-NTB-GI-0004", "action_type_ruptl": "Extension", "status_ruptl": "Committed", "capacity_mva_ruptl": "30.0", "voltage_kv_ruptl": "150/20", "source_page": "1163"}}, {"type": "Feature", "geometry": {"type": "Point", "coordinates": [118.7668044, -8.4706724]}, "properties": {"id": "GI-NTB-0017", "name": "Bima", "voltage": "70/20", "trafo_count": 2, "capacity_mva": 60.0, "province": "Nusa Tenggara Barat", "system": "NTB", "osm_id": "way/707533370", "osm_name": "Gardu Induk Bima", "match_score": 1.0, "match_source": "osm_fuzzy", "review_flag": "", "source_id": "RUPTL-2025-2034", "source_table": "Tabel C11.4", "match_tier": "BASELINE", "source": "RUPTL-2025-2034", "target_cod_year_ruptl": "", "action_norm": "", "status_norm": ""}}, {"type": "Feature", "geometry": {"type": "Point", "coordinates": [118.6369418, -8.5539067]}, "properties": {"id": "GI-NTB-0018", "name": "Woha", "voltage": "70/20", "trafo_count": 2, "capacity_mva": 50.0, "province": "Nusa Tenggara Barat", "system": "NTB", "osm_id": "way/355766825", "osm_name": "Gardu Induk Woha", "match_score": 1.0, "match_source": "osm_fuzzy", "review_flag": "", "source_id": "RUPTL-2025-2034", "source_table": "Tabel C11.4", "match_tier": "BASELINE", "source": "RUPTL-2025-2034", "target_cod_year_ruptl": "", "action_norm": "", "status_norm": ""}}, {"type": "Feature", "geometry": {"type": "Point", "coordinates": [118.4550431, -8.5329739]}, "properties": {"id": "GI-NTB-0019", "name": "Dompu 150 kV", "voltage": "150/20", "trafo_count": 1, "capacity_mva": 60.0, "province": "Nusa Tenggara Barat", "system": "NTB", "osm_id": "way/707533375", "osm_name": "Gardu Induk Dompu", "match_score": 0.92, "match_source": "osm_fuzzy", "review_flag": "", "source_id": "RUPTL-2025-2034", "source_table": "Tabel C11.4", "match_tier": "BASELINE", "source": "RUPTL-2025-2034", "target_cod_year_ruptl": "", "action_norm": "", "status_norm": ""}}, {"type": "Feature", "geometry": {"type": "Point", "coordinates": [118.4550431, -8.5329739]}, "properties": {"id": "GI-NTB-0020", "name": "Dompu 70kV", "voltage": "70/20", "trafo_count": 1, "capacity_mva": 10.0, "province": "Nusa Tenggara Barat", "system": "NTB", "osm_id": "way/707533375", "osm_name": "Gardu Induk Dompu", "match_score": 0.92, "match_source": "osm_fuzzy", "review_flag": "", "source_id": "RUPTL-2025-2034", "source_table": "Tabel C11.4", "match_tier": "BASELINE", "source": "RUPTL-2025-2034", "target_cod_year_ruptl": "", "action_norm": "", "status_norm": ""}}, {"type": "Feature", "geometry": {"type": "Point", "coordinates": [116.8950892, -8.5400202]}, "properties": {"id": "GI-NTB-0021", "name": "Alas", "voltage": "70/20", "trafo_count": 1, "capacity_mva": 20.0, "province": "Nusa Tenggara Barat", "system": "NTB", "osm_id": "way/707043778", "osm_name": "Gardu Induk Alas", "match_score": 1.0, "match_source": "osm_fuzzy", "review_flag": "", "source_id": "RUPTL-2025-2034", "source_table": "Tabel C11.15", "match_tier": "PLANNED_EXISTING_EXT", "source": "RUPTL-2025-2034", "target_cod_year_ruptl": "2028", "action_norm": "EXTENSION", "status_norm": "PLANNED", "ruptl_id": "RUPTL-NTB-GI-0007", "action_type_ruptl": "Extension", "status_ruptl": "Planned", "capacity_mva_ruptl": "30.0", "voltage_kv_ruptl": "70/20", "source_page": "1163"}}, {"type": "Feature", "geometry": {"type": "Point", "coordinates": [116.8202179, -8.7640451]}, "properties": {"id": "GI-NTB-0022", "name": "Taliwang", "voltage": "70/20", "trafo_count": 1, "capacity_mva": 30.0, "province": "Nusa Tenggara Barat", "system": "NTB", "osm_id": "way/707043781", "osm_name": "Gardu Induk Taliwang", "match_score": 1.0, "match_source": "osm_fuzzy", "review_flag": "", "source_id": "RUPTL-2025-2034", "source_table": "Tabel C11.15", "match_tier": "PLANNED_EXISTING_EXT", "source": "RUPTL-2025-2034", "target_cod_year_ruptl": "2028", "action_norm": "EXTENSION", "status_norm": "PLANNED", "ruptl_id": "RUPTL-NTB-GI-0008", "action_type_ruptl": "Extension", "status_ruptl": "Planned", "capacity_mva_ruptl": "30.0", "voltage_kv_ruptl": "70/20", "source_page": "1163"}}, {"type": "Feature", "geometry": {"type": "Point", "coordinates": [118.9591201, -8.5746308]}, "properties": {"id": "GI-NTB-0024", "name": "Sape", "voltage": "70/20", "trafo_count": 1, "capacity_mva": 10.0, "province": "Nusa Tenggara Barat", "system": "NTB", "osm_id": "way/707533367", "osm_name": "Gardu Induk Sape", "match_score": 1.0, "match_source": "osm_fuzzy", "review_flag": "", "source_id": "RUPTL-2025-2034", "source_table": "Tabel C11.15", "match_tier": "PLANNED_EXISTING_EXT", "source": "RUPTL-2025-2034", "target_cod_year_ruptl": "2029", "action_norm": "EXTENSION", "status_norm": "PLANNED", "ruptl_id": "RUPTL-NTB-GI-0011", "action_type_ruptl": "Extension", "status_ruptl": "Planned", "capacity_mva_ruptl": "30.0", "voltage_kv_ruptl": "70/20", "source_page": "1163"}}, {"type": "Feature", "geometry": {"type": "Point", "coordinates": [118.4550431, -8.5329739]}, "properties": {"id": "GI-NTB-0026", "name": "Dompu IBT", "voltage": "150/70", "trafo_count": 1, "capacity_mva": 60.0, "province": "Nusa Tenggara Barat", "system": "NTB", "osm_id": "way/707533375", "osm_name": "Gardu Induk Dompu", "match_score": 0.92, "match_source": "osm_fuzzy", "review_flag": "", "source_id": "RUPTL-2025-2034", "source_table": "Tabel C11.4", "match_tier": "BASELINE", "source": "RUPTL-2025-2034", "target_cod_year_ruptl": "", "action_norm": "", "status_norm": ""}}, {"type": "Feature", "geometry": {"type": "Point", "coordinates": [117.4364131, -8.5149344]}, "properties": {"id": "RUPTL:RUPTL-NTB-GI-0013", "ruptl_id": "RUPTL-NTB-GI-0013", "name": "Labuhan/ Sumbawa", "voltage": "150/20", "capacity_mva": "60.0", "province": "Nusa Tenggara Barat", "system": "", "source_id": "RUPTL-2025-2034", "source_table": "Tabel C11.15", "source_page": "1163", "source": "ruptl", "match_tier": "PLANNED_RUPTL", "match_source": "gazetteer_substation:GI-NTB-0013", "coord_source": "gazetteer_substation:GI-NTB-0013", "coord_confidence": "medium", "is_placeholder": false, "target_cod_year": "2033", "target_cod_year_ruptl": "", "action_type_ruptl": "Extension", "action_norm": "EXTENSION", "status_ruptl": "Planned", "status_norm": "PLANNED"}}]}