{"type": "FeatureCollection", "features": [{"type": "Feature", "geometry": {"type": "Point", "coordinates": [128.2623042, -3.6155882]}, "properties": {"id": "GI-MLK-0001", "name": "Passo", "voltage": "150/70/20", "trafo_count": 4, "capacity_mva": 160.0, "province": "Maluku", "system": "Maluku", "osm_id": "way/611723635", "osm_name": "Gardu Induk Passo", "match_score": 1.0, "match_source": "osm_fuzzy", "review_flag": "", "source_id": "RUPTL-2025-2034", "source_table": "Tabel C7.4", "match_tier": "BASELINE", "source": "RUPTL-2025-2034", "target_cod_year_ruptl": "", "action_norm": "", "status_norm": ""}}, {"type": "Feature", "geometry": {"type": "Point", "coordinates": [128.222381, -3.6893878]}, "properties": {"id": "GI-MLK-0002", "name": "Sirimau", "voltage": "150/70/20", "trafo_count": 4, "capacity_mva": 160.0, "province": "Maluku", "system": "Maluku", "osm_id": "way/611723633", "osm_name": "Gardu Induk Sirimau", "match_score": 1.0, "match_source": "osm_fuzzy", "review_flag": "", "source_id": "RUPTL-2025-2034", "source_table": "Tabel C7.4", "match_tier": "BASELINE", "source": "RUPTL-2025-2034", "target_cod_year_ruptl": "", "action_norm": "", "status_norm": ""}}, {"type": "Feature", "geometry": {"type": "Point", "coordinates": [128.1602396, -3.6627925]}, "properties": {"id": "GI-MLK-0003", "name": "Hative Besar", "voltage": "150/20", "trafo_count": 2, "capacity_mva": 60.0, "province": "Maluku", "system": "Maluku", "osm_id": "way/949578855", "osm_name": "Gardu Induk Wayame", "match_score": 1.0, "match_source": "override:osm_substation", "review_flag": "", "source_id": "RUPTL-2025-2034", "source_table": "Tabel C7.4", "match_tier": "BASELINE", "source": "RUPTL-2025-2034", "target_cod_year_ruptl": "", "action_norm": "", "status_norm": ""}}, {"type": "Feature", "geometry": {"type": "Point", "coordinates": [128.9851972, -3.2953174]}, "properties": {"id": "GI-MLK-0004", "name": "Masohi", "voltage": "150/20", "trafo_count": 1, "capacity_mva": 30.0, "province": "Maluku", "system": "Maluku", "osm_id": "way/1313323076", "osm_name": "Gardu Induk Masohi", "match_score": 1.0, "match_source": "osm_fuzzy", "review_flag": "", "source_id": "RUPTL-2025-2034", "source_table": "Tabel C7.19", "match_tier": "PLANNED_ORPHAN", "source": "RUPTL-2025-2034", "target_cod_year_ruptl": "2026", "action_norm": "", "status_norm": "COMMITTED", "ruptl_id": "RUPTL-MALUKU-GI-0002", "action_type_ruptl": "", "status_ruptl": "Committed", "capacity_mva_ruptl": "4.0", "voltage_kv_ruptl": "150", "source_page": "1080"}}, {"type": "Feature", "geometry": {"type": "Point", "coordinates": [128.1874949, -3.0606966]}, "properties": {"id": "GI-MLK-0005", "name": "Piru", "voltage": "150/20", "trafo_count": 1, "capacity_mva": 30.0, "province": "Maluku", "system": "Maluku", "osm_id": "way/1313323065", "osm_name": "Gardu Induk Piru", "match_score": 1.0, "match_source": "osm_fuzzy", "review_flag": "", "source_id": "RUPTL-2025-2034", "source_table": "Tabel C7.19", "match_tier": "PLANNED_ORPHAN", "source": "RUPTL-2025-2034", "target_cod_year_ruptl": "2029", "action_norm": "", "status_norm": "PLANNED", "ruptl_id": "RUPTL-MALUKU-GI-0004", "action_type_ruptl": "", "status_ruptl": "Planned", "capacity_mva_ruptl": "2.0", "voltage_kv_ruptl": "150", "source_page": "1080"}}, {"type": "Feature", "geometry": {"type": "Point", "coordinates": [127.0914566, -3.2143205]}, "properties": {"id": "GI-MLK-0006", "name": "Namlea", "voltage": "70/20", "trafo_count": 1, "capacity_mva": 30.0, "province": "Maluku", "system": "Maluku", "osm_id": "way/1313305449", "osm_name": "Gardu Induk Namlea", "match_score": 1.0, "match_source": "osm_fuzzy", "review_flag": "", "source_id": "RUPTL-2025-2034", "source_table": "Tabel C7.4", "match_tier": "BASELINE", "source": "RUPTL-2025-2034", "target_cod_year_ruptl": "", "action_norm": "", "status_norm": ""}}, {"type": "Feature", "geometry": {"type": "Point", "coordinates": [126.7510613, -3.8340224]}, "properties": {"id": "GI-MLK-0007", "name": "Namrole", "voltage": "70/20", "trafo_count": 1, "capacity_mva": 20.0, "province": "Maluku", "system": "Maluku", "osm_id": "way/1313305446", "osm_name": "Gardu Induk Namrole", "match_score": 1.0, "match_source": "osm_fuzzy", "review_flag": "", "source_id": "RUPTL-2025-2034", "source_table": "Tabel C7.4", "match_tier": "BASELINE", "source": "RUPTL-2025-2034", "target_cod_year_ruptl": "", "action_norm": "", "status_norm": ""}}, {"type": "Feature", "geometry": {"type": "Point", "coordinates": [127.3068904, 0.7658522]}, "properties": {"id": "GI-MLK-0008", "name": "Ternate", "voltage": "150/20", "trafo_count": 2, "capacity_mva": 120.0, "province": "Maluku Utara", "system": "Maluku", "osm_id": "way/951367597", "osm_name": "Gardu Induk Ternate", "match_score": 1.0, "match_source": "osm_fuzzy", "review_flag": "", "source_id": "RUPTL-2025-2034", "source_table": "Tabel C8.4", "match_tier": "BASELINE", "source": "RUPTL-2025-2034", "target_cod_year_ruptl": "", "action_norm": "", "status_norm": ""}}, {"type": "Feature", "geometry": {"type": "Point", "coordinates": [127.4918142, 1.0793923]}, "properties": {"id": "GI-MLK-0009", "name": "Jailolo", "voltage": "150/20", "trafo_count": 1, "capacity_mva": 30.0, "province": "Maluku Utara", "system": "Maluku", "osm_id": "way/1180198692", "osm_name": "Gardu Induk Jailolo", "match_score": 1.0, "match_source": "osm_fuzzy", "review_flag": "", "source_id": "RUPTL-2025-2034", "source_table": "Tabel C8.4", "match_tier": "BASELINE", "source": "RUPTL-2025-2034", "target_cod_year_ruptl": "", "action_norm": "", "status_norm": ""}}, {"type": "Feature", "geometry": {"type": "Point", "coordinates": [127.8290295, 1.1709163]}, "properties": {"id": "GI-MLK-0010", "name": "Malifut", "voltage": "150/20", "trafo_count": 1, "capacity_mva": 20.0, "province": "Maluku Utara", "system": "Maluku", "osm_id": "way/1180198690", "osm_name": "Gardu Induk Malifut", "match_score": 1.0, "match_source": "osm_fuzzy", "review_flag": "", "source_id": "RUPTL-2025-2034", "source_table": "Tabel C8.4", "match_tier": "BASELINE", "source": "RUPTL-2025-2034", "target_cod_year_ruptl": "", "action_norm": "", "status_norm": ""}}, {"type": "Feature", "geometry": {"type": "Point", "coordinates": [127.5536934, 0.7017663]}, "properties": {"id": "GI-MLK-0011", "name": "Sofifi", "voltage": "150/20", "trafo_count": 1, "capacity_mva": 30.0, "province": "Maluku Utara", "system": "Maluku", "osm_id": "way/1193554287", "osm_name": "Gardu Induk Sofifi", "match_score": 1.0, "match_source": "osm_fuzzy", "review_flag": "", "source_id": "RUPTL-2025-2034", "source_table": "Tabel C8.4", "match_tier": "BASELINE", "source": "RUPTL-2025-2034", "target_cod_year_ruptl": "", "action_norm": "", "status_norm": ""}}, {"type": "Feature", "geometry": {"type": "Point", "coordinates": [127.9627404, 1.765177]}, "properties": {"id": "GI-MLK-0012", "name": "Tobelo", "voltage": "150/20", "trafo_count": 1, "capacity_mva": 30.0, "province": "Maluku Utara", "system": "Maluku", "osm_id": "way/1180198691", "osm_name": "Gardu Induk Tobelo", "match_score": 1.0, "match_source": "osm_fuzzy", "review_flag": "", "source_id": "RUPTL-2025-2034", "source_table": "Tabel C8.18", "match_tier": "PLANNED_ORPHAN", "source": "RUPTL-2025-2034", "target_cod_year_ruptl": "2025", "action_norm": "", "status_norm": "CONSTRUCTION", "ruptl_id": "RUPTL-MALUKU-GI-0005", "action_type_ruptl": "", "status_ruptl": "Construction", "capacity_mva_ruptl": "4.0", "voltage_kv_ruptl": "150", "source_page": "1100"}}]}