{"type": "FeatureCollection", "features": [{"type": "Feature", "geometry": {"type": "Point", "coordinates": [140.6785694, -2.5855277]}, "properties": {"id": "GI-PAP-0001", "name": "Skyland/Jayapura", "voltage": "150/70/20", "trafo_count": 4, "capacity_mva": 200.0, "province": "Papua", "system": "Papua", "osm_id": "way/611223231", "osm_name": "Gardu Induk Jayapura", "match_score": 0.92, "match_source": "osm_fuzzy", "review_flag": "", "source_id": "RUPTL-2025-2034", "source_table": "Tabel C9.4"}}, {"type": "Feature", "geometry": {"type": "Point", "coordinates": [140.5680379, -2.5809621]}, "properties": {"id": "GI-PAP-0002", "name": "Sentani/Wamena", "voltage": "70/20", "trafo_count": 2, "capacity_mva": 60.0, "province": "Papua", "system": "Papua", "osm_id": "way/692489064", "osm_name": "Gardu Induk Sentani", "match_score": 0.92, "match_source": "osm_fuzzy", "review_flag": "", "source_id": "RUPTL-2025-2034", "source_table": "Tabel C9.4"}}, {"type": "Feature", "geometry": {"type": "Point", "coordinates": [140.166206, -2.5941876]}, "properties": {"id": "GI-PAP-0003", "name": "Genyem", "voltage": "70/20", "trafo_count": 2, "capacity_mva": 25.0, "province": "Papua", "system": "Papua", "osm_id": "way/540362502", "osm_name": "PLN Genyem", "match_score": 0.95, "match_source": "osm_fuzzy", "review_flag": "", "source_id": "RUPTL-2025-2034", "source_table": "Tabel C9.4"}}, {"type": "Feature", "geometry": {"type": "Point", "coordinates": [140.7903099, -2.6164165]}, "properties": {"id": "GI-PAP-0004", "name": "Holtekamp", "voltage": "150/70/20", "trafo_count": 2, "capacity_mva": 90.0, "province": "Papua", "system": "Papua", "osm_id": "way/736937944", "osm_name": "Gardu Induk Holtekamp", "match_score": 1.0, "match_source": "osm_fuzzy", "review_flag": "", "source_id": "RUPTL-2025-2034", "source_table": "Tabel C9.4"}}, {"type": "Feature", "geometry": {"type": "Point", "coordinates": [136.8854225, -4.5973768]}, "properties": {"id": "GI-PAP-0005", "name": "Timika", "voltage": "150/20", "trafo_count": 2, "capacity_mva": 120.0, "province": "Papua", "system": "Papua", "osm_id": "way/1121717385", "osm_name": "Gardu Induk Timika", "match_score": 1.0, "match_source": "osm_fuzzy", "review_flag": "", "source_id": "RUPTL-2025-2034", "source_table": "Tabel C9.4"}}, {"type": "Feature", "geometry": {"type": "Point", "coordinates": [131.3336317, -0.9852926]}, "properties": {"id": "GI-PAP-0006", "name": "Aimas", "voltage": "150/20", "trafo_count": 2, "capacity_mva": 60.0, "province": "Papua Barat", "system": "Papua", "osm_id": "way/940979316", "osm_name": "Gardu Induk Aimas", "match_score": 1.0, "match_source": "osm_fuzzy", "review_flag": "", "source_id": "RUPTL-2025-2034", "source_table": "Tabel C10.4"}}, {"type": "Feature", "geometry": {"type": "Point", "coordinates": [131.3466995, -0.8940215]}, "properties": {"id": "GI-PAP-0007", "name": "Sorong", "voltage": "150/20", "trafo_count": 2, "capacity_mva": 60.0, "province": "Papua Barat", "system": "Papua", "osm_id": "way/940979318", "osm_name": "Gardu Induk Sorong", "match_score": 1.0, "match_source": "osm_fuzzy", "review_flag": "", "source_id": "RUPTL-2025-2034", "source_table": "Tabel C10.4"}}, {"type": "Feature", "geometry": {"type": "Point", "coordinates": [131.246961, -0.8375871]}, "properties": {"id": "GI-PAP-0008", "name": "Rufey", "voltage": "150/20", "trafo_count": 2, "capacity_mva": 60.0, "province": "Papua Barat", "system": "Papua", "osm_id": "way/940979317", "osm_name": "Gardu Induk Rufey", "match_score": 1.0, "match_source": "osm_fuzzy", "review_flag": "", "source_id": "RUPTL-2025-2034", "source_table": "Tabel C10.4"}}]}