{"type": "FeatureCollection", "features": [{"type": "Feature", "geometry": {"type": "Point", "coordinates": [109.3809627, -0.0734118]}, "properties": {"id": "GI-KLM-0001", "name": "GI SEI RAYA", "voltage": "150/20", "trafo_count": 3, "capacity_mva": 180.0, "province": "Kalimantan Barat", "system": "Khatulistiwa", "osm_id": "way/563399563", "osm_name": "Gardu Induk Sei Raya", "match_score": 0.92, "match_source": "osm_fuzzy", "review_flag": "", "source_id": "RUPTL-2025-2034", "source_table": "Tabel A11.4"}}, {"type": "Feature", "geometry": {"type": "Point", "coordinates": [109.3281223, -0.0001191]}, "properties": {"id": "GI-KLM-0002", "name": "GI SIANTAN", "voltage": "150/20", "trafo_count": 3, "capacity_mva": 165.0, "province": "Kalimantan Barat", "system": "Khatulistiwa", "osm_id": "way/284402708", "osm_name": "Gardu Induk Siantan", "match_score": 0.92, "match_source": "osm_fuzzy", "review_flag": "", "source_id": "RUPTL-2025-2034", "source_table": "Tabel A11.4"}}, {"type": "Feature", "geometry": {"type": "Point", "coordinates": [109.2053844, 0.0592546]}, "properties": {"id": "GI-KLM-0003", "name": "GI PARIT BARU", "voltage": "150/20", "trafo_count": 2, "capacity_mva": 60.0, "province": "Kalimantan Barat", "system": "Khatulistiwa", "osm_id": "way/563122287", "osm_name": "Gardu Induk Parit Baru", "match_score": 0.92, "match_source": "osm_fuzzy", "review_flag": "", "source_id": "RUPTL-2025-2034", "source_table": "Tabel A11.4"}}, {"type": "Feature", "geometry": {"type": "Point", "coordinates": [109.2994078, -0.0750087]}, "properties": {"id": "GI-KLM-0004", "name": "GI KOTA BARU", "voltage": "150/20", "trafo_count": 3, "capacity_mva": 150.0, "province": "Kalimantan Barat", "system": "Khatulistiwa", "osm_id": "way/691239967", "osm_name": "Gardu Induk Kota Baru", "match_score": 0.92, "match_source": "osm_fuzzy", "review_flag": "", "source_id": "RUPTL-2025-2034", "source_table": "Tabel A11.4"}}, {"type": "Feature", "geometry": {"type": "Point", "coordinates": [110.0934067, 0.0016321]}, "properties": {"id": "GI-KLM-0005", "name": "GI TAYAN", "voltage": "150/20", "trafo_count": 2, "capacity_mva": 60.0, "province": "Kalimantan Barat", "system": "Khatulistiwa", "osm_id": "way/691239965", "osm_name": "Gardu Induk Tayan", "match_score": 0.92, "match_source": "osm_fuzzy", "review_flag": "", "source_id": "RUPTL-2025-2034", "source_table": "Tabel A11.4"}}, {"type": "Feature", "geometry": {"type": "Point", "coordinates": [110.5462146, 0.1237476]}, "properties": {"id": "GI-KLM-0006", "name": "GI SANGGAU", "voltage": "150/20", "trafo_count": 2, "capacity_mva": 60.0, "province": "Kalimantan Barat", "system": "Khatulistiwa", "osm_id": "way/934342719", "osm_name": "Gardu Induk Sanggau", "match_score": 0.92, "match_source": "osm_fuzzy", "review_flag": "", "source_id": "RUPTL-2025-2034", "source_table": "Tabel A11.4"}}, {"type": "Feature", "geometry": {"type": "Point", "coordinates": [109.256592, -0.0311776]}, "properties": {"id": "GI-KLM-0007", "name": "GI CENDANA", "voltage": "150/20", "trafo_count": 1, "capacity_mva": 30.0, "province": "Kalimantan Barat", "system": "Khatulistiwa", "osm_id": "way/1432434025", "osm_name": "Gardu Induk Cendana", "match_score": 0.92, "match_source": "osm_fuzzy", "review_flag": "", "source_id": "RUPTL-2025-2034", "source_table": "Tabel A11.4"}}, {"type": "Feature", "geometry": {"type": "Point", "coordinates": [108.9876559, 0.9259135]}, "properties": {"id": "GI-KLM-0009", "name": "GI SINGKAWANG", "voltage": "150/20", "trafo_count": 3, "capacity_mva": 150.0, "province": "Kalimantan Barat", "system": "Khatulistiwa", "osm_id": "way/563399568", "osm_name": "Gardu Induk Singkawang", "match_score": 0.92, "match_source": "osm_fuzzy", "review_flag": "", "source_id": "RUPTL-2025-2034", "source_table": "Tabel A11.4"}}, {"type": "Feature", "geometry": {"type": "Point", "coordinates": [109.2686395, 1.3429382]}, "properties": {"id": "GI-KLM-0010", "name": "GI SAMBAS", "voltage": "150/20", "trafo_count": 3, "capacity_mva": 120.0, "province": "Kalimantan Barat", "system": "Khatulistiwa", "osm_id": "way/563399566", "osm_name": "Gardu Induk Sambas", "match_score": 0.92, "match_source": "osm_fuzzy", "review_flag": "", "source_id": "RUPTL-2025-2034", "source_table": "Tabel A11.4"}}, {"type": "Feature", "geometry": {"type": "Point", "coordinates": [109.4966031, 0.9059682]}, "properties": {"id": "GI-KLM-0011", "name": "GI BENGKAYANG", "voltage": "150/20", "trafo_count": 2, "capacity_mva": 60.0, "province": "Kalimantan Barat", "system": "Khatulistiwa", "osm_id": "way/562061281", "osm_name": "GITET Bengkayang", "match_score": 0.92, "match_source": "osm_fuzzy", "review_flag": "", "source_id": "RUPTL-2025-2034", "source_table": "Tabel A11.4"}}, {"type": "Feature", "geometry": {"type": "Point", "coordinates": [109.4966031, 0.9059682]}, "properties": {"id": "GI-KLM-0012", "name": "GITET BENGKAYANG", "voltage": "275/150", "trafo_count": 2, "capacity_mva": 500.0, "province": "Kalimantan Barat", "system": "Khatulistiwa", "osm_id": "way/562061281", "osm_name": "GITET Bengkayang", "match_score": 1.0, "match_source": "osm_fuzzy", "review_flag": "", "source_id": "RUPTL-2025-2034", "source_table": "Tabel A11.4"}}, {"type": "Feature", "geometry": {"type": "Point", "coordinates": [110.001954, 0.350304]}, "properties": {"id": "GI-KLM-0013", "name": "GI NGABANG", "voltage": "150/20", "trafo_count": 2, "capacity_mva": 60.0, "province": "Kalimantan Barat", "system": "Khatulistiwa", "osm_id": "way/934342724", "osm_name": "Gardu Induk Ngabang", "match_score": 0.92, "match_source": "osm_fuzzy", "review_flag": "", "source_id": "RUPTL-2025-2034", "source_table": "Tabel A11.4"}}, {"type": "Feature", "geometry": {"type": "Point", "coordinates": [109.4966031, 0.9059682]}, "properties": {"id": "GI-KLM-0014", "name": "GI PLTU BENGKAYANG", "voltage": "150/20", "trafo_count": 1, "capacity_mva": 30.0, "province": "Kalimantan Barat", "system": "Khatulistiwa", "osm_id": "way/562061281", "osm_name": "GITET Bengkayang", "match_score": 0.92, "match_source": "osm_fuzzy", "review_flag": "", "source_id": "RUPTL-2025-2034", "source_table": "Tabel A11.4"}}, {"type": "Feature", "geometry": {"type": "Point", "coordinates": [108.8468753, 0.8146375]}, "properties": {"id": "GI-KLM-0015", "name": "GIS PLTU Kalbar1", "voltage": "150/20", "trafo_count": 1, "capacity_mva": 30.0, "province": "Kalimantan Barat", "system": "Khatulistiwa", "osm_id": "way/1444757080", "osm_name": "Gardu Induk PLTU Kalbar 1", "match_score": 0.96, "match_source": "osm_fuzzy", "review_flag": "", "source_id": "RUPTL-2025-2034", "source_table": "Tabel A11.4"}}, {"type": "Feature", "geometry": {"type": "Point", "coordinates": [109.9747217, -1.8033094]}, "properties": {"id": "GI-KLM-0016", "name": "GI KETAPANG", "voltage": "150/20", "trafo_count": 1, "capacity_mva": 60.0, "province": "Kalimantan Barat", "system": "Khatulistiwa", "osm_id": "way/934342726", "osm_name": "Gardu Induk Ketapang", "match_score": 0.92, "match_source": "osm_fuzzy", "review_flag": "", "source_id": "RUPTL-2025-2034", "source_table": "Tabel A11.4"}}, {"type": "Feature", "geometry": {"type": "Point", "coordinates": [110.137808, -2.2956756]}, "properties": {"id": "GI-KLM-0017", "name": "GI KENDAWANGAN", "voltage": "150/20", "trafo_count": 1, "capacity_mva": 30.0, "province": "Kalimantan Barat", "system": "Khatulistiwa", "osm_id": "way/934342727", "osm_name": "Gardu Induk Kendawangan", "match_score": 0.92, "match_source": "osm_fuzzy", "review_flag": "", "source_id": "RUPTL-2025-2034", "source_table": "Tabel A11.4"}}, {"type": "Feature", "geometry": {"type": "Point", "coordinates": [109.9779738, -1.223325]}, "properties": {"id": "GI-KLM-0018", "name": "GI SUKADANA", "voltage": "150/20", "trafo_count": 1, "capacity_mva": 30.0, "province": "Kalimantan Barat", "system": "Khatulistiwa", "osm_id": "way/934342721", "osm_name": "Gardu Induk Sukadana", "match_score": 0.92, "match_source": "osm_fuzzy", "review_flag": "", "source_id": "RUPTL-2025-2034", "source_table": "Tabel A11.4"}}, {"type": "Feature", "geometry": {"type": "Point", "coordinates": [111.4416735, 0.0432104]}, "properties": {"id": "GI-KLM-0019", "name": "GI SINTANG", "voltage": "150/20", "trafo_count": 1, "capacity_mva": 60.0, "province": "Kalimantan Barat", "system": "Khatulistiwa", "osm_id": "way/1175895909", "osm_name": "Gardu Induk Sintang", "match_score": 0.92, "match_source": "osm_fuzzy", "review_flag": "", "source_id": "RUPTL-2025-2034", "source_table": "Tabel A11.4"}}, {"type": "Feature", "geometry": {"type": "Point", "coordinates": [110.919577, -0.0026494]}, "properties": {"id": "GI-KLM-0020", "name": "GI SEKADAU", "voltage": "150/20", "trafo_count": 1, "capacity_mva": 30.0, "province": "Kalimantan Barat", "system": "Khatulistiwa", "osm_id": "way/1175895908", "osm_name": "Gardu Induk Sekadau", "match_score": 0.92, "match_source": "osm_fuzzy", "review_flag": "", "source_id": "RUPTL-2025-2034", "source_table": "Tabel A11.4"}}, {"type": "Feature", "geometry": {"type": "Point", "coordinates": [110.5393557, -1.1992664]}, "properties": {"id": "GI-KLM-0021", "name": "GI SANDAI", "voltage": "150/20", "trafo_count": 1, "capacity_mva": 30.0, "province": "Kalimantan Barat", "system": "Khatulistiwa", "osm_id": "way/1175895912", "osm_name": "Gardu Induk Sandai", "match_score": 0.92, "match_source": "osm_fuzzy", "review_flag": "", "source_id": "RUPTL-2025-2034", "source_table": "Tabel A11.4"}}, {"type": "Feature", "geometry": {"type": "Point", "coordinates": [114.3736947, -3.0122131]}, "properties": {"id": "GI-KLM-0022", "name": "GI SELAT", "voltage": "150/20", "trafo_count": 2, "capacity_mva": 50.0, "province": "Kalimantan Selatan", "system": "Kalselteng", "osm_id": "way/613866772", "osm_name": "Gardu Induk Selat", "match_score": 0.92, "match_source": "osm_fuzzy", "review_flag": "", "source_id": "RUPTL-2025-2034", "source_table": "Tabel A12.4"}}, {"type": "Feature", "geometry": {"type": "Point", "coordinates": [114.570886, -3.3098903]}, "properties": {"id": "GI-KLM-0024", "name": "GI TRISAKTI 70 kV", "voltage": "70/20", "trafo_count": 3, "capacity_mva": 35.0, "province": "Kalimantan Selatan", "system": "Kalselteng", "osm_id": "way/756074059", "osm_name": "Gardu Induk Trisakti", "match_score": 0.92, "match_source": "osm_fuzzy", "review_flag": "", "source_id": "RUPTL-2025-2034", "source_table": "Tabel A12.4"}}, {"type": "Feature", "geometry": {"type": "Point", "coordinates": [114.570886, -3.3098903]}, "properties": {"id": "GI-KLM-0025", "name": "GI TRISAKTI 150 kV", "voltage": "150/20", "trafo_count": 2, "capacity_mva": 120.0, "province": "Kalimantan Selatan", "system": "Kalselteng", "osm_id": "way/756074059", "osm_name": "Gardu Induk Trisakti", "match_score": 0.92, "match_source": "osm_fuzzy", "review_flag": "", "source_id": "RUPTL-2025-2034", "source_table": "Tabel A12.4"}}, {"type": "Feature", "geometry": {"type": "Point", "coordinates": [114.62025, -3.2302071]}, "properties": {"id": "GI-KLM-0026", "name": "GI KAYUTANGI", "voltage": "150/20", "trafo_count": 2, "capacity_mva": 90.0, "province": "Kalimantan Selatan", "system": "Kalselteng", "osm_id": "way/611547069", "osm_name": "Gardu Induk Kayutangi", "match_score": 0.92, "match_source": "osm_fuzzy", "review_flag": "", "source_id": "RUPTL-2025-2034", "source_table": "Tabel A12.4"}}, {"type": "Feature", "geometry": {"type": "Point", "coordinates": [114.6188248, -3.3376407]}, "properties": {"id": "GI-KLM-0027", "name": "GI ULIN", "voltage": "70/20", "trafo_count": 3, "capacity_mva": 80.0, "province": "Kalimantan Selatan", "system": "Kalselteng", "osm_id": "way/720463590", "osm_name": "Gardu Induk Ulin", "match_score": 0.92, "match_source": "osm_fuzzy", "review_flag": "", "source_id": "RUPTL-2025-2034", "source_table": "Tabel A12.4"}}, {"type": "Feature", "geometry": {"type": "Point", "coordinates": [114.6188248, -3.3376407]}, "properties": {"id": "GI-KLM-0028", "name": "GIS ULIN", "voltage": "150/20", "trafo_count": 2, "capacity_mva": 120.0, "province": "Kalimantan Selatan", "system": "Kalselteng", "osm_id": "way/720463590", "osm_name": "Gardu Induk Ulin", "match_score": 1.0, "match_source": "osm_fuzzy", "review_flag": "", "source_id": "RUPTL-2025-2034", "source_table": "Tabel A12.4"}}, {"type": "Feature", "geometry": {"type": "Point", "coordinates": [114.6269126, -3.4238908]}, "properties": {"id": "GI-KLM-0029", "name": "GI MANTUIL", "voltage": "150/20", "trafo_count": 3, "capacity_mva": 110.0, "province": "Kalimantan Selatan", "system": "Kalselteng", "osm_id": "way/611478869", "osm_name": "Gardu Induk Mantuil", "match_score": 0.92, "match_source": "osm_fuzzy", "review_flag": "", "source_id": "RUPTL-2025-2034", "source_table": "Tabel A12.4"}}, {"type": "Feature", "geometry": {"type": "Point", "coordinates": [114.7867559, -3.0115328]}, "properties": {"id": "GI-KLM-0030", "name": "GI MARABAHAN", "voltage": "150/20", "trafo_count": 1, "capacity_mva": 30.0, "province": "Kalimantan Selatan", "system": "Kalselteng", "osm_id": "way/1193130895", "osm_name": "Gardu Induk Marabahan", "match_score": 0.92, "match_source": "osm_fuzzy", "review_flag": "", "source_id": "RUPTL-2025-2034", "source_table": "Tabel A12.4"}}, {"type": "Feature", "geometry": {"type": "Point", "coordinates": [114.7040557, -3.3918538]}, "properties": {"id": "GI-KLM-0031", "name": "GI SEI TABUK", "voltage": "150/20", "trafo_count": 1, "capacity_mva": 60.0, "province": "Kalimantan Selatan", "system": "Kalselteng", "osm_id": "way/1191574020", "osm_name": "Gardu Induk Sungai Tabuk", "match_score": 1.0, "match_source": "override:osm_substation", "review_flag": "", "source_id": "RUPTL-2025-2034", "source_table": "Tabel A12.4"}}, {"type": "Feature", "geometry": {"type": "Point", "coordinates": [114.8503661, -3.4658438]}, "properties": {"id": "GI-KLM-0032", "name": "GI CEMPAKA 70", "voltage": "70/20", "trafo_count": 2, "capacity_mva": 20.0, "province": "Kalimantan Selatan", "system": "Kalselteng", "osm_id": "way/612650468", "osm_name": "Gardu Induk Cempaka", "match_score": 0.92, "match_source": "osm_fuzzy", "review_flag": "", "source_id": "RUPTL-2025-2034", "source_table": "Tabel A12.4"}}, {"type": "Feature", "geometry": {"type": "Point", "coordinates": [114.8503661, -3.4658438]}, "properties": {"id": "GI-KLM-0033", "name": "GI CEMPAKA 150", "voltage": "150/20", "trafo_count": 3, "capacity_mva": 150.0, "province": "Kalimantan Selatan", "system": "Kalselteng", "osm_id": "way/612650468", "osm_name": "Gardu Induk Cempaka", "match_score": 0.92, "match_source": "osm_fuzzy", "review_flag": "", "source_id": "RUPTL-2025-2034", "source_table": "Tabel A12.4"}}, {"type": "Feature", "geometry": {"type": "Point", "coordinates": [114.7574034, -3.7296143]}, "properties": {"id": "GI-KLM-0034", "name": "GI PELAIHARI", "voltage": "150/20", "trafo_count": 2, "capacity_mva": 60.0, "province": "Kalimantan Selatan", "system": "Kalselteng", "osm_id": "way/613094692", "osm_name": "Gardu Induk Pelaihari", "match_score": 0.92, "match_source": "osm_fuzzy", "review_flag": "", "source_id": "RUPTL-2025-2034", "source_table": "Tabel A12.4"}}, {"type": "Feature", "geometry": {"type": "Point", "coordinates": [115.0064707, -3.5147851]}, "properties": {"id": "GI-KLM-0035", "name": "GI PLTA", "voltage": "70/20", "trafo_count": 1, "capacity_mva": 6.0, "province": "Kalimantan Selatan", "system": "Kalselteng", "osm_id": "way/613098761", "osm_name": "PLTA Riam Kanan", "match_score": 1.0, "match_source": "override:osm_plant", "review_flag": "", "source_id": "RUPTL-2025-2034", "source_table": "Tabel A12.4"}}, {"type": "Feature", "geometry": {"type": "Point", "coordinates": [114.7487292, -3.5626569]}, "properties": {"id": "GI-KLM-0037", "name": "GI BATI BATI", "voltage": "150/20", "trafo_count": 1, "capacity_mva": 30.0, "province": "Kalimantan Selatan", "system": "Kalselteng", "osm_id": "way/1028155967", "osm_name": "Gardu Induk Bati Bati", "match_score": 0.92, "match_source": "osm_fuzzy", "review_flag": "", "source_id": "RUPTL-2025-2034", "source_table": "Tabel A12.4"}}, {"type": "Feature", "geometry": {"type": "Point", "coordinates": [115.2735569, -2.7723664]}, "properties": {"id": "GI-KLM-0038", "name": "GI KANDANGAN", "voltage": "150/20", "trafo_count": 1, "capacity_mva": 30.0, "province": "Kalimantan Selatan", "system": "Kalselteng", "osm_id": "way/1317494888", "osm_name": "Gardu Induk Kandangan", "match_score": 0.92, "match_source": "osm_fuzzy", "review_flag": "", "source_id": "RUPTL-2025-2034", "source_table": "Tabel A12.4"}}, {"type": "Feature", "geometry": {"type": "Point", "coordinates": [115.3278691, -2.6838904]}, "properties": {"id": "GI-KLM-0039", "name": "GI BARIKIN", "voltage": "150/20", "trafo_count": 3, "capacity_mva": 120.0, "province": "Kalimantan Selatan", "system": "Kalselteng", "osm_id": "way/611647729", "osm_name": "Gardu Induk Barikin", "match_score": 0.92, "match_source": "osm_fuzzy", "review_flag": "", "source_id": "RUPTL-2025-2034", "source_table": "Tabel A12.4"}}, {"type": "Feature", "geometry": {"type": "Point", "coordinates": [115.1259121, -3.0288703]}, "properties": {"id": "GI-KLM-0040", "name": "GI RANTAU", "voltage": "150/20", "trafo_count": 2, "capacity_mva": 60.0, "province": "Kalimantan Selatan", "system": "Kalselteng", "osm_id": "way/612650470", "osm_name": "Gardu Induk Rantau", "match_score": 0.92, "match_source": "osm_fuzzy", "review_flag": "", "source_id": "RUPTL-2025-2034", "source_table": "Tabel A12.4"}}, {"type": "Feature", "geometry": {"type": "Point", "coordinates": [115.2949402, -2.4166522]}, "properties": {"id": "GI-KLM-0041", "name": "GI AMUNTAI", "voltage": "150/20", "trafo_count": 2, "capacity_mva": 90.0, "province": "Kalimantan Selatan", "system": "Kalselteng", "osm_id": "way/612605788", "osm_name": "Gardu Induk Amuntai", "match_score": 0.92, "match_source": "osm_fuzzy", "review_flag": "", "source_id": "RUPTL-2025-2034", "source_table": "Tabel A12.4"}}, {"type": "Feature", "geometry": {"type": "Point", "coordinates": [115.4510039, -2.194764]}, "properties": {"id": "GI-KLM-0042", "name": "GI TANJUNG", "voltage": "150/20", "trafo_count": 2, "capacity_mva": 120.0, "province": "Kalimantan Selatan", "system": "Kalselteng", "osm_id": "way/611647731", "osm_name": "Gardu Induk Tanjung", "match_score": 0.92, "match_source": "osm_fuzzy", "review_flag": "", "source_id": "RUPTL-2025-2034", "source_table": "Tabel A12.4"}}, {"type": "Feature", "geometry": {"type": "Point", "coordinates": [115.4530089, -2.357056]}, "properties": {"id": "GI-KLM-0043", "name": "GI PARINGIN", "voltage": "150/20", "trafo_count": 1, "capacity_mva": 60.0, "province": "Kalimantan Selatan", "system": "Kalselteng", "osm_id": "way/1193130889", "osm_name": "Gardu Induk Paringin", "match_score": 0.92, "match_source": "osm_fuzzy", "review_flag": "", "source_id": "RUPTL-2025-2034", "source_table": "Tabel A12.4"}}, {"type": "Feature", "geometry": {"type": "Point", "coordinates": [115.1052189, -3.9271515]}, "properties": {"id": "GI-KLM-0044", "name": "GI ASAM ASAM", "voltage": "150/20", "trafo_count": 2, "capacity_mva": 90.0, "province": "Kalimantan Selatan", "system": "Kalselteng", "osm_id": "way/611478867", "osm_name": "PLTU Asam Asam", "match_score": 1.0, "match_source": "override:osm_plant", "review_flag": "", "source_id": "RUPTL-2025-2034", "source_table": "Tabel A12.4"}}, {"type": "Feature", "geometry": {"type": "Point", "coordinates": [115.9858981, -3.4826465]}, "properties": {"id": "GI-KLM-0045", "name": "GI BATULICIN", "voltage": "150/20", "trafo_count": 2, "capacity_mva": 60.0, "province": "Kalimantan Selatan", "system": "Kalselteng", "osm_id": "way/613982410", "osm_name": "Gardu Induk Batulicin", "match_score": 0.92, "match_source": "osm_fuzzy", "review_flag": "", "source_id": "RUPTL-2025-2034", "source_table": "Tabel A12.4"}}, {"type": "Feature", "geometry": {"type": "Point", "coordinates": [115.5195439, -3.712594]}, "properties": {"id": "GI-KLM-0046", "name": "GI SATUI", "voltage": "150/20", "trafo_count": 1, "capacity_mva": 30.0, "province": "Kalimantan Selatan", "system": "Kalselteng", "osm_id": "way/945982537", "osm_name": "Gardu Induk Satui", "match_score": 0.92, "match_source": "osm_fuzzy", "review_flag": "", "source_id": "RUPTL-2025-2034", "source_table": "Tabel A12.4"}}, {"type": "Feature", "geometry": {"type": "Point", "coordinates": [116.1085205, -3.2465336]}, "properties": {"id": "GI-KLM-0048", "name": "GI TARJUN", "voltage": "150/20", "trafo_count": 1, "capacity_mva": 30.0, "province": "Kalimantan Selatan", "system": "Kalselteng", "osm_id": "way/1313244320", "osm_name": "Gardu Induk Tarjun", "match_score": 0.92, "match_source": "osm_fuzzy", "review_flag": "", "source_id": "RUPTL-2025-2034", "source_table": "Tabel A12.4"}}, {"type": "Feature", "geometry": {"type": "Point", "coordinates": [114.9805954, -1.7494672]}, "properties": {"id": "GI-KLM-0049", "name": "GI BUNTOK", "voltage": "150/20", "trafo_count": 1, "capacity_mva": 30.0, "province": "Kalimantan Tengah", "system": "Kalselteng", "osm_id": "way/614102422", "osm_name": "Gardu Induk Buntok", "match_score": 0.92, "match_source": "osm_fuzzy", "review_flag": "", "source_id": "RUPTL-2025-2034", "source_table": "Tabel A13.4"}}, {"type": "Feature", "geometry": {"type": "Point", "coordinates": [114.8658961, -0.8675515]}, "properties": {"id": "GI-KLM-0050", "name": "GI MUARA TEWEH", "voltage": "150/20", "trafo_count": 1, "capacity_mva": 30.0, "province": "Kalimantan Tengah", "system": "Kalselteng", "osm_id": "way/945128887", "osm_name": "Gardu Induk Muara Teweh", "match_score": 0.92, "match_source": "osm_fuzzy", "review_flag": "", "source_id": "RUPTL-2025-2034", "source_table": "Tabel A13.4"}}, {"type": "Feature", "geometry": {"type": "Point", "coordinates": [115.1358886, -0.6232573]}, "properties": {"id": "GI-KLM-0051", "name": "GI BANGKANAI", "voltage": "150/20", "trafo_count": 1, "capacity_mva": 10.0, "province": "Kalimantan Tengah", "system": "Kalselteng", "osm_id": "way/1222892239", "osm_name": "Gardu Induk Bangkanai", "match_score": 0.92, "match_source": "osm_fuzzy", "review_flag": "", "source_id": "RUPTL-2025-2034", "source_table": "Tabel A13.4"}}, {"type": "Feature", "geometry": {"type": "Point", "coordinates": [114.5459576, -0.7017628]}, "properties": {"id": "GI-KLM-0052", "name": "GI PURUK CAHU", "voltage": "150/20", "trafo_count": 1, "capacity_mva": 30.0, "province": "Kalimantan Tengah", "system": "Kalselteng", "osm_id": "way/945128882", "osm_name": "Gardu Induk Puruk Cahu", "match_score": 0.92, "match_source": "osm_fuzzy", "review_flag": "", "source_id": "RUPTL-2025-2034", "source_table": "Tabel A13.4"}}, {"type": "Feature", "geometry": {"type": "Point", "coordinates": [113.8736782, -2.1749099]}, "properties": {"id": "GI-KLM-0053", "name": "GI PALANGKARAYA", "voltage": "150/20", "trafo_count": 2, "capacity_mva": 90.0, "province": "Kalimantan Tengah", "system": "Kalselteng", "osm_id": "way/613865134", "osm_name": "Gardu Induk Palangkaraya", "match_score": 0.92, "match_source": "osm_fuzzy", "review_flag": "", "source_id": "RUPTL-2025-2034", "source_table": "Tabel A13.4"}}, {"type": "Feature", "geometry": {"type": "Point", "coordinates": [113.434204, -1.8990947]}, "properties": {"id": "GI-KLM-0055", "name": "GI KASONGAN", "voltage": "150/20", "trafo_count": 2, "capacity_mva": 60.0, "province": "Kalimantan Tengah", "system": "Kalselteng", "osm_id": "way/613865136", "osm_name": "Gardu Induk Kasongan", "match_score": 0.92, "match_source": "osm_fuzzy", "review_flag": "", "source_id": "RUPTL-2025-2034", "source_table": "Tabel A13.4"}}, {"type": "Feature", "geometry": {"type": "Point", "coordinates": [114.2546153, -2.731843]}, "properties": {"id": "GI-KLM-0056", "name": "GI PULANG PISAU", "voltage": "150/20", "trafo_count": 1, "capacity_mva": 30.0, "province": "Kalimantan Tengah", "system": "Kalselteng", "osm_id": "way/613966297", "osm_name": "Gardu Induk Pulang Pisau", "match_score": 0.92, "match_source": "osm_fuzzy", "review_flag": "", "source_id": "RUPTL-2025-2034", "source_table": "Tabel A13.4"}}, {"type": "Feature", "geometry": {"type": "Point", "coordinates": [112.7559724, -1.9758278]}, "properties": {"id": "GI-KLM-0057", "name": "GI PARENGGEAN", "voltage": "150/20", "trafo_count": 1, "capacity_mva": 30.0, "province": "Kalimantan Tengah", "system": "Kalselteng", "osm_id": "way/1313922555", "osm_name": "Gardu Induk Parenggean", "match_score": 0.92, "match_source": "osm_fuzzy", "review_flag": "", "source_id": "RUPTL-2025-2034", "source_table": "Tabel A13.4"}}, {"type": "Feature", "geometry": {"type": "Point", "coordinates": [113.8081591, -1.1150087]}, "properties": {"id": "GI-KLM-0061", "name": "GI KUALA KURUN", "voltage": "150/20", "trafo_count": 1, "capacity_mva": 30.0, "province": "Kalimantan Tengah", "system": "Kalselteng", "osm_id": "way/1186199864", "osm_name": "Gardu Induk Kuala Kurun", "match_score": 0.92, "match_source": "osm_fuzzy", "review_flag": "", "source_id": "RUPTL-2025-2034", "source_table": "Tabel A13.4"}}, {"type": "Feature", "geometry": {"type": "Point", "coordinates": [112.920845, -2.4816979]}, "properties": {"id": "GI-KLM-0062", "name": "GI SAMPIT", "voltage": "150/20", "trafo_count": 3, "capacity_mva": 120.0, "province": "Kalimantan Tengah", "system": "Kalselteng", "osm_id": "way/945757584", "osm_name": "Gardu Induk Sampit", "match_score": 0.92, "match_source": "osm_fuzzy", "review_flag": "", "source_id": "RUPTL-2025-2034", "source_table": "Tabel A13.4"}}, {"type": "Feature", "geometry": {"type": "Point", "coordinates": [111.7035569, -2.6159503]}, "properties": {"id": "GI-KLM-0063", "name": "GI PANGKALAN BUN", "voltage": "150/20", "trafo_count": 2, "capacity_mva": 120.0, "province": "Kalimantan Tengah", "system": "Kalselteng", "osm_id": "way/945757582", "osm_name": "Gardu Induk Pangkalan Bun", "match_score": 0.92, "match_source": "osm_fuzzy", "review_flag": "", "source_id": "RUPTL-2025-2034", "source_table": "Tabel A13.4"}}, {"type": "Feature", "geometry": {"type": "Point", "coordinates": [112.9096805, -2.7624787]}, "properties": {"id": "GI-KLM-0064", "name": "GI BAGENDANG", "voltage": "150/20", "trafo_count": 1, "capacity_mva": 30.0, "province": "Kalimantan Tengah", "system": "Kalselteng", "osm_id": "way/949915680", "osm_name": "Gardu Induk Bagendang", "match_score": 0.92, "match_source": "osm_fuzzy", "review_flag": "", "source_id": "RUPTL-2025-2034", "source_table": "Tabel A13.4"}}, {"type": "Feature", "geometry": {"type": "Point", "coordinates": [112.5626081, -3.3746881]}, "properties": {"id": "GI-KLM-0066", "name": "GI KUALA PEMBUANG", "voltage": "150/20", "trafo_count": 1, "capacity_mva": 30.0, "province": "Kalimantan Tengah", "system": "Kalselteng", "osm_id": "way/1193123287", "osm_name": "Gardu Induk Kuala Pembuang", "match_score": 0.92, "match_source": "osm_fuzzy", "review_flag": "", "source_id": "RUPTL-2025-2034", "source_table": "Tabel A13.4"}}, {"type": "Feature", "geometry": {"type": "Point", "coordinates": [111.4678679, -2.2142342]}, "properties": {"id": "GI-KLM-0067", "name": "GI NANGABULIK", "voltage": "150/20", "trafo_count": 1, "capacity_mva": 30.0, "province": "Kalimantan Tengah", "system": "Kalselteng", "osm_id": "way/1193123288", "osm_name": "Gardu Induk Nanga Bulik", "match_score": 1.0, "match_source": "override:osm_substation", "review_flag": "", "source_id": "RUPTL-2025-2034", "source_table": "Tabel A13.4"}}, {"type": "Feature", "geometry": {"type": "Point", "coordinates": [111.2007091, -2.7704381]}, "properties": {"id": "GI-KLM-0068", "name": "GI SUKAMARA", "voltage": "150/20", "trafo_count": 1, "capacity_mva": 30.0, "province": "Kalimantan Tengah", "system": "Kalselteng", "osm_id": "way/1121246707", "osm_name": "Gardu Induk Sukamara", "match_score": 0.92, "match_source": "osm_fuzzy", "review_flag": "", "source_id": "RUPTL-2025-2034", "source_table": "Tabel A13.4"}}, {"type": "Feature", "geometry": {"type": "Point", "coordinates": [116.9484552, -1.2382347]}, "properties": {"id": "GI-KLM-0069", "name": "GI Manggarsari", "voltage": "150/20", "trafo_count": 4, "capacity_mva": 170.0, "province": "Kalimantan Timur", "system": "Mahakam", "osm_id": "way/510478920", "osm_name": "Gardu Induk Manggarsari", "match_score": 0.92, "match_source": "osm_fuzzy", "review_flag": "", "source_id": "RUPTL-2025-2034", "source_table": "Tabel A14.4"}}, {"type": "Feature", "geometry": {"type": "Point", "coordinates": [116.8786257, -1.1486891]}, "properties": {"id": "GI-KLM-0070", "name": "GI Karang Joang", "voltage": "150/20", "trafo_count": 2, "capacity_mva": 90.0, "province": "Kalimantan Timur", "system": "Mahakam", "osm_id": "way/609209387", "osm_name": "Gardu Induk Karang Joang", "match_score": 0.92, "match_source": "osm_fuzzy", "review_flag": "", "source_id": "RUPTL-2025-2034", "source_table": "Tabel A14.4"}}, {"type": "Feature", "geometry": {"type": "Point", "coordinates": [116.8411206, -1.2619016]}, "properties": {"id": "GI-KLM-0071", "name": "GI Industri", "voltage": "150/20", "trafo_count": 3, "capacity_mva": 150.0, "province": "Kalimantan Timur", "system": "Mahakam", "osm_id": "way/945128876", "osm_name": "Gardu Induk Industri", "match_score": 0.92, "match_source": "osm_fuzzy", "review_flag": "", "source_id": "RUPTL-2025-2034", "source_table": "Tabel A14.4"}}, {"type": "Feature", "geometry": {"type": "Point", "coordinates": [117.1351388, -0.9868809]}, "properties": {"id": "GI-KLM-0072", "name": "GI Senipah", "voltage": "150/20", "trafo_count": 1, "capacity_mva": 30.0, "province": "Kalimantan Timur", "system": "Mahakam", "osm_id": "way/945128874", "osm_name": "Gardu Induk Senipah", "match_score": 0.92, "match_source": "osm_fuzzy", "review_flag": "", "source_id": "RUPTL-2025-2034", "source_table": "Tabel A14.4"}}, {"type": "Feature", "geometry": {"type": "Point", "coordinates": [116.7925268, -1.1653207]}, "properties": {"id": "GI-KLM-0073", "name": "GI Kariangau", "voltage": "150/20", "trafo_count": 1, "capacity_mva": 60.0, "province": "Kalimantan Timur", "system": "Mahakam", "osm_id": "way/609209385", "osm_name": "Gardu Induk Kariangau", "match_score": 0.92, "match_source": "osm_fuzzy", "review_flag": "", "source_id": "RUPTL-2025-2034", "source_table": "Tabel A14.4"}}, {"type": "Feature", "geometry": {"type": "Point", "coordinates": [116.8905811, -1.2256008]}, "properties": {"id": "GI-KLM-0074", "name": "GI New Balikpapan", "voltage": "150/20", "trafo_count": 2, "capacity_mva": 120.0, "province": "Kalimantan Timur", "system": "Mahakam", "osm_id": "way/1184644804", "osm_name": "Gardu Induk New Balikpapan", "match_score": 0.92, "match_source": "osm_fuzzy", "review_flag": "", "source_id": "RUPTL-2025-2034", "source_table": "Tabel A14.4"}}, {"type": "Feature", "geometry": {"type": "Point", "coordinates": [117.106702, -0.547173]}, "properties": {"id": "GI-KLM-0075", "name": "GI Harapan Baru", "voltage": "150/20", "trafo_count": 2, "capacity_mva": 90.0, "province": "Kalimantan Timur", "system": "Mahakam", "osm_id": "way/609209382", "osm_name": "Gardu Induk Harapan Baru", "match_score": 0.92, "match_source": "osm_fuzzy", "review_flag": "", "source_id": "RUPTL-2025-2034", "source_table": "Tabel A14.4"}}, {"type": "Feature", "geometry": {"type": "Point", "coordinates": [117.1936674, -0.5831827]}, "properties": {"id": "GI-KLM-0076", "name": "GI Bukuan", "voltage": "150/20", "trafo_count": 1, "capacity_mva": 60.0, "province": "Kalimantan Timur", "system": "Mahakam", "osm_id": "way/399284355", "osm_name": "Gardu Induk Bukuan", "match_score": 0.92, "match_source": "osm_fuzzy", "review_flag": "", "source_id": "RUPTL-2025-2034", "source_table": "Tabel A14.4"}}, {"type": "Feature", "geometry": {"type": "Point", "coordinates": [117.062746, -0.3715316]}, "properties": {"id": "GI-KLM-0077", "name": "GI Embalut", "voltage": "150/20", "trafo_count": 2, "capacity_mva": 60.0, "province": "Kalimantan Timur", "system": "Mahakam", "osm_id": "way/450527118", "osm_name": "PLTU Embalut", "match_score": 1.0, "match_source": "override:osm_plant", "review_flag": "", "source_id": "RUPTL-2025-2034", "source_table": "Tabel A14.4"}}, {"type": "Feature", "geometry": {"type": "Point", "coordinates": [117.1137951, -0.5023847]}, "properties": {"id": "GI-KLM-0079", "name": "GI Tengkawang", "voltage": "150/20", "trafo_count": 4, "capacity_mva": 180.0, "province": "Kalimantan Timur", "system": "Mahakam", "osm_id": "way/609209384", "osm_name": "Gardu Induk Tengkawang", "match_score": 0.92, "match_source": "osm_fuzzy", "review_flag": "", "source_id": "RUPTL-2025-2034", "source_table": "Tabel A14.4"}}, {"type": "Feature", "geometry": {"type": "Point", "coordinates": [117.1883726, -0.7802248]}, "properties": {"id": "GI-KLM-0080", "name": "GI Muara Jawa", "voltage": "150/20", "trafo_count": 1, "capacity_mva": 30.0, "province": "Kalimantan Timur", "system": "Mahakam", "osm_id": "way/945128872", "osm_name": "PLTU Muara Jawa", "match_score": 1.0, "match_source": "override:osm_plant", "review_flag": "", "source_id": "RUPTL-2025-2034", "source_table": "Tabel A14.4"}}, {"type": "Feature", "geometry": {"type": "Point", "coordinates": [116.5955106, -0.2711524]}, "properties": {"id": "GI-KLM-0081", "name": "GI Kota Bangun", "voltage": "150/20", "trafo_count": 1, "capacity_mva": 30.0, "province": "Kalimantan Timur", "system": "Mahakam", "osm_id": "way/944537207", "osm_name": "Gardu Induk Kota Bangun", "match_score": 0.92, "match_source": "osm_fuzzy", "review_flag": "", "source_id": "RUPTL-2025-2034", "source_table": "Tabel A14.4"}}, {"type": "Feature", "geometry": {"type": "Point", "coordinates": [117.2140406, -0.5246457]}, "properties": {"id": "GI-KLM-0082", "name": "GI Sambutan", "voltage": "150/20", "trafo_count": 2, "capacity_mva": 90.0, "province": "Kalimantan Timur", "system": "Mahakam", "osm_id": "way/355885478", "osm_name": "Gardu Induk Sambutan", "match_score": 0.92, "match_source": "osm_fuzzy", "review_flag": "", "source_id": "RUPTL-2025-2034", "source_table": "Tabel A14.4"}}, {"type": "Feature", "geometry": {"type": "Point", "coordinates": [117.5707079, 0.4706811]}, "properties": {"id": "GI-KLM-0085", "name": "GI Sangatta", "voltage": "150/20", "trafo_count": 2, "capacity_mva": 60.0, "province": "Kalimantan Timur", "system": "Mahakam", "osm_id": "way/944504861", "osm_name": "Gardu Induk Sangatta", "match_score": 0.92, "match_source": "osm_fuzzy", "review_flag": "", "source_id": "RUPTL-2025-2034", "source_table": "Tabel A14.4"}}, {"type": "Feature", "geometry": {"type": "Point", "coordinates": [117.1660695, -0.4072293]}, "properties": {"id": "GI-KLM-0086", "name": "GI New Samarinda", "voltage": "150/20", "trafo_count": 1, "capacity_mva": 60.0, "province": "Kalimantan Timur", "system": "Mahakam", "osm_id": "way/944537206", "osm_name": "Gardu Induk New Samarinda", "match_score": 0.92, "match_source": "osm_fuzzy", "review_flag": "", "source_id": "RUPTL-2025-2034", "source_table": "Tabel A14.4"}}, {"type": "Feature", "geometry": {"type": "Point", "coordinates": [117.4350903, 0.1616096]}, "properties": {"id": "GI-KLM-0087", "name": "GI Bontang Lestari", "voltage": "150/20", "trafo_count": 1, "capacity_mva": 30.0, "province": "Kalimantan Timur", "system": "Mahakam", "osm_id": "way/612348762", "osm_name": "Gardu Induk Bontang", "match_score": 0.92, "match_source": "osm_fuzzy", "review_flag": "", "source_id": "RUPTL-2025-2034", "source_table": "Tabel A14.4"}}, {"type": "Feature", "geometry": {"type": "Point", "coordinates": [116.6719839, -1.3407863]}, "properties": {"id": "GI-KLM-0088", "name": "GI Petung", "voltage": "150/20", "trafo_count": 2, "capacity_mva": 90.0, "province": "Kalimantan Timur", "system": "Mahakam", "osm_id": "way/879894611", "osm_name": "Gardu Induk Petung", "match_score": 0.92, "match_source": "osm_fuzzy", "review_flag": "", "source_id": "RUPTL-2025-2034", "source_table": "Tabel A14.4"}}, {"type": "Feature", "geometry": {"type": "Point", "coordinates": [116.0941788, -1.8035091]}, "properties": {"id": "GI-KLM-0090", "name": "GI Kuaro", "voltage": "150/20", "trafo_count": 1, "capacity_mva": 20.0, "province": "Kalimantan Timur", "system": "Mahakam", "osm_id": "way/611647725", "osm_name": "Gardu Induk Kuaro", "match_score": 0.92, "match_source": "osm_fuzzy", "review_flag": "", "source_id": "RUPTL-2025-2034", "source_table": "Tabel A14.4"}}, {"type": "Feature", "geometry": {"type": "Point", "coordinates": [116.1656444, -1.8988187]}, "properties": {"id": "GI-KLM-0091", "name": "GI Grogot", "voltage": "150/20", "trafo_count": 2, "capacity_mva": 60.0, "province": "Kalimantan Timur", "system": "Mahakam", "osm_id": "way/945128879", "osm_name": "Gardu Induk Grogot", "match_score": 0.92, "match_source": "osm_fuzzy", "review_flag": "", "source_id": "RUPTL-2025-2034", "source_table": "Tabel A14.4"}}, {"type": "Feature", "geometry": {"type": "Point", "coordinates": [115.869298, -1.8288913]}, "properties": {"id": "GI-KLM-0092", "name": "GI Muara Komam", "voltage": "150/20", "trafo_count": 1, "capacity_mva": 30.0, "province": "Kalimantan Timur", "system": "Mahakam", "osm_id": "way/1193130885", "osm_name": "Gardu Induk Muara Komam", "match_score": 0.92, "match_source": "osm_fuzzy", "review_flag": "", "source_id": "RUPTL-2025-2034", "source_table": "Tabel A14.4"}}, {"type": "Feature", "geometry": {"type": "Point", "coordinates": [115.4510039, -2.194764]}, "properties": {"id": "GI-KLM-0093", "name": "GI Tanjung Selor", "voltage": "150/20", "trafo_count": 1, "capacity_mva": 60.0, "province": "Kalimantan Timur", "system": "Mahakam", "osm_id": "way/611647731", "osm_name": "Gardu Induk Tanjung", "match_score": 0.92, "match_source": "osm_fuzzy", "review_flag": "", "source_id": "RUPTL-2025-2034", "source_table": "Tabel A14.4"}}, {"type": "Feature", "geometry": {"type": "Point", "coordinates": [115.4510039, -2.194764]}, "properties": {"id": "GI-KLM-0094", "name": "GI Tanjung Redeb", "voltage": "150/20", "trafo_count": 1, "capacity_mva": 60.0, "province": "Kalimantan Timur", "system": "Mahakam", "osm_id": "way/611647731", "osm_name": "Gardu Induk Tanjung", "match_score": 0.92, "match_source": "osm_fuzzy", "review_flag": "", "source_id": "RUPTL-2025-2034", "source_table": "Tabel A14.4"}}, {"type": "Feature", "geometry": {"type": "Point", "coordinates": [117.847953, 0.9180499]}, "properties": {"id": "GI-KLM-0096", "name": "GI Maloy", "voltage": "150/20", "trafo_count": 1, "capacity_mva": 30.0, "province": "Kalimantan Timur", "system": "Mahakam", "osm_id": "way/1193140427", "osm_name": "Gardu Induk Maloy", "match_score": 0.92, "match_source": "osm_fuzzy", "review_flag": "", "source_id": "RUPTL-2025-2034", "source_table": "Tabel A14.4"}}, {"type": "Feature", "geometry": {"type": "Point", "coordinates": [116.7112751, -0.9855107]}, "properties": {"id": "GI-KLM-0097", "name": "GIS 4 KPIKN/Sepaku", "voltage": "150/20", "trafo_count": 2, "capacity_mva": 120.0, "province": "Kalimantan Timur", "system": "Mahakam", "osm_id": "way/1308758959", "osm_name": "GIS IKN", "match_score": 0.92, "match_source": "osm_fuzzy", "review_flag": "", "source_id": "RUPTL-2025-2034", "source_table": "Tabel A14.4"}}, {"type": "Feature", "geometry": {"type": "Point", "coordinates": [117.3679924, 2.8104314]}, "properties": {"id": "GI-KLM-0098", "name": "Bulungan/Tj. Selor", "voltage": "150/20", "trafo_count": 1, "capacity_mva": 60.0, "province": "Kalimantan Utara", "system": "Mahakam", "osm_id": "way/943966222", "osm_name": "Gardu Induk Tanjung Selor", "match_score": 1.0, "match_source": "override:osm_substation", "review_flag": "", "source_id": "RUPTL-2025-2034", "source_table": "Tabel A15.4"}}, {"type": "Feature", "geometry": {"type": "Point", "coordinates": [116.6287557, 3.5115567]}, "properties": {"id": "GI-KLM-0100", "name": "Malinau", "voltage": "150/20", "trafo_count": 1, "capacity_mva": 30.0, "province": "Kalimantan Utara", "system": "Mahakam", "osm_id": "way/943966221", "osm_name": "Gardu Induk Malinau", "match_score": 1.0, "match_source": "osm_fuzzy", "review_flag": "", "source_id": "RUPTL-2025-2034", "source_table": "Tabel A15.4"}}]}