{"type": "FeatureCollection", "features": [{"type": "Feature", "geometry": {"type": "LineString", "coordinates": [[116.6298079, -8.5435228], [116.6301379, -8.5436554], [116.6307521, -8.544658], [116.6321782, -8.5465384], [116.6323275, -8.5467353], [116.6326028, -8.5470983], [116.6354245, -8.5498939], [116.637345, -8.5519946], [116.6391635, -8.553846], [116.6392922, -8.5564347], [116.6394103, -8.5586839], [116.6395336, -8.5620046], [116.6376561, -8.5641529], [116.6360307, -8.566052], [116.6340887, -8.5683648], [116.6320503, -8.5708367], [116.6291803, -8.5720779], [116.6262299, -8.5733616], [116.6232741, -8.5746135], [116.6204202, -8.5758282], [116.6174054, -8.5769421], [116.6144228, -8.5783213], [116.6115367, -8.5796421], [116.6083395, -8.5812069], [116.6072613, -8.5825489], [116.6051198, -8.5851374], [116.6030288, -8.5875774], [116.6015696, -8.5892641], [116.5996063, -8.5914813], [116.5976429, -8.5937409], [116.596334, -8.5953533], [116.5949231, -8.5968915], [116.5932954, -8.5988887], [116.5912539, -8.601225], [116.5890022, -8.6043581], [116.5865546, -8.6066245], [116.5851958, -8.6082075], [116.5834755, -8.6101252], [116.5801871, -8.6110215], [116.5771679, -8.6117987], [116.5743376, -8.6125348], [116.5712017, -8.6133234], [116.5681377, -8.6141535], [116.5650118, -8.6149218], [116.561633, -8.6158133], [116.5601295, -8.6161769], [116.5570552, -8.6169782], [116.5548724, -8.6177151], [116.5521547, -8.6186584], [116.5493309, -8.6195767], [116.5461099, -8.6206116], [116.5433389, -8.621502], [116.5403697, -8.6224583], [116.5377223, -8.6233477], [116.535016, -8.6241751], [116.5328407, -8.6249176], [116.5307432, -8.6265247], [116.5283829, -8.6285798], [116.5255234, -8.6310002], [116.5248799, -8.6317912]]}, "properties": {"id": "TRM-NTB-0001", "province": "Nusa Tenggara Barat", "system": "NTB", "voltage_class": "150 kV", "voltage_kv_max": 150.0, "voltage_kv_all": "150", "length_km": 17.788, "osm_id": "way/329341484", "osm_voltage": "150000", "source_id": "OSM-overpass", "color": "#1f77b4", "weight": 1.8}}, {"type": "Feature", "geometry": {"type": "LineString", "coordinates": [[116.204014, -8.699643], [116.2062202, -8.6981724], [116.2083896, -8.6969721], [116.2107342, -8.6957161], [116.2131107, -8.6944434], [116.2159002, -8.6929851], [116.2194782, -8.6910549], [116.2218761, -8.689586], [116.2239361, -8.6881861], [116.2260604, -8.6868392], [116.228351, -8.6853384], [116.2312961, -8.6833657], [116.2343216, -8.6815734], [116.2366855, -8.6800514], [116.2386829, -8.6787654], [116.2413812, -8.6770022], [116.2439346, -8.6753795], [116.2462145, -8.6739635], [116.2490898, -8.6721022], [116.2515789, -8.6704688], [116.2539312, -8.6689574], [116.2568334, -8.6671199], [116.2594083, -8.6654812], [116.2618679, -8.6640149], [116.2642845, -8.6616019], [116.2666529, -8.6592897], [116.2688631, -8.6572532], [116.2709123, -8.6551637], [116.2728274, -8.653228], [116.275, -8.6511862], [116.2770116, -8.6491974], [116.2794363, -8.6469276], [116.2816063, -8.6448168], [116.2838137, -8.6425177], [116.2858951, -8.6404732], [116.2870753, -8.6395239], [116.2881482, -8.6382855], [116.2904012, -8.636119], [116.2928715, -8.6339843], [116.2951782, -8.6321784], [116.2969297, -8.630932], [116.2992858, -8.6289426], [116.3013232, -8.627177], [116.304279, -8.625021], [116.3065267, -8.6232522], [116.3067114, -8.6229853], [116.3087127, -8.6200938], [116.3080448, -8.6197279]]}, "properties": {"id": "TRM-NTB-0002", "province": "Nusa Tenggara Barat", "system": "NTB", "voltage_class": "150 kV", "voltage_kv_max": 150.0, "voltage_kv_all": "150", "length_km": 14.699, "osm_id": "way/614195172", "osm_voltage": "150000", "source_id": "OSM-overpass", "color": "#1f77b4", "weight": 1.8}}, {"type": "Feature", "geometry": {"type": "LineString", "coordinates": [[116.0741508, -8.6583828], [116.0744593, -8.6583722], [116.0763985, -8.6578684], [116.077761, -8.6564736], [116.0794401, -8.6547341], [116.0790968, -8.6518809], [116.0787052, -8.6491232], [116.078276, -8.6459464], [116.077863, -8.6429977], [116.0774231, -8.6399853], [116.0769832, -8.6370789], [116.0765916, -8.6341513], [116.0761893, -8.631229], [116.075803, -8.6283226], [116.0753846, -8.6253631], [116.075744, -8.6224832], [116.0761517, -8.6196828], [116.0764521, -8.6170627], [116.0759693, -8.6141455], [116.0773158, -8.6114405], [116.0769671, -8.6080142], [116.076597, -8.6047257], [116.0762429, -8.6022752], [116.0772085, -8.5985411], [116.076884, -8.5984907]]}, "properties": {"id": "TRM-NTB-0003", "province": "Nusa Tenggara Barat", "system": "NTB", "voltage_class": "150 kV", "voltage_kv_max": 150.0, "voltage_kv_all": "150", "length_km": 7.119, "osm_id": "way/614195175", "osm_voltage": "150000", "source_id": "OSM-overpass", "color": "#1f77b4", "weight": 1.8}}, {"type": "Feature", "geometry": {"type": "LineString", "coordinates": [[116.2909403, -8.8130926], [116.2904012, -8.8129416], [116.2878102, -8.8114042], [116.2850422, -8.8097768], [116.2823439, -8.8081759], [116.2796295, -8.8065484], [116.2776768, -8.8054457], [116.2748659, -8.8037547], [116.2721997, -8.8021696], [116.2694049, -8.8005474], [116.2668407, -8.7990419], [116.2642068, -8.7974674], [116.2616426, -8.795983], [116.2589443, -8.7943714], [116.2563103, -8.7927916], [116.2531936, -8.7909414], [116.250565, -8.7893669], [116.2479043, -8.7878083], [116.245324, -8.7862761], [116.2426686, -8.7847175], [116.2399757, -8.7831324], [116.23739, -8.7816161], [116.23474, -8.7800469], [116.2321168, -8.7784935], [116.2303948, -8.775901], [116.2286836, -8.7733509], [116.2269938, -8.7707902], [116.2252879, -8.7682984], [116.2236893, -8.7658596], [116.2218869, -8.7631981], [116.2202024, -8.7606692], [116.2187594, -8.7585325], [116.2172252, -8.7562686], [116.2156427, -8.7538987], [116.2154657, -8.7506857], [116.2152618, -8.7474462], [116.2151062, -8.7443922], [116.2143606, -8.7414018], [116.213631, -8.7383849], [116.2128371, -8.7353415], [116.2121075, -8.7322132], [116.2113458, -8.7291803], [116.2105948, -8.7261314], [116.2098277, -8.7230826], [116.2091088, -8.7199754], [116.20839, -8.7169954], [116.2075746, -8.7136973], [116.2068558, -8.7107915], [116.2061048, -8.7077531], [116.2053215, -8.7046723], [116.2043807, -8.701669], [116.204014, -8.699643], [116.2037993, -8.6984743], [116.2030363, -8.6951752], [116.2023014, -8.691967], [116.2015128, -8.6884724], [116.2008744, -8.6853225], [116.2000376, -8.681743], [116.1993563, -8.6789007], [116.196894, -8.6766734], [116.1949736, -8.6750082], [116.1925167, -8.6728075], [116.1901188, -8.6706862], [116.1875868, -8.6684642], [116.1850387, -8.666221], [116.1834937, -8.6648793], [116.1830485, -8.6640414], [116.181618, -8.6613743], [116.180002, -8.6583611], [116.1785102, -8.6558276], [116.1771208, -8.6533128], [116.1758494, -8.6510722], [116.1726496, -8.651279], [116.1695623, -8.6514832], [116.1662525, -8.6516688], [116.1631626, -8.6518703], [116.1599976, -8.6520931], [116.1570471, -8.652284], [116.1543274, -8.6508256], [116.15179, -8.6494361], [116.1489952, -8.6479405], [116.1461574, -8.6464237], [116.1436897, -8.6450873], [116.1411256, -8.6436712], [116.1381751, -8.6420696], [116.1359274, -8.6408073], [116.1329073, -8.6392375], [116.1299783, -8.6387283], [116.1263949, -8.6380495], [116.1234981, -8.6374502], [116.1204082, -8.6369251], [116.1165887, -8.6361985], [116.113944, -8.6357106], [116.1111814, -8.6352863], [116.1109179, -8.6352369], [116.1092196, -8.6349187], [116.1082095, -8.6347294], [116.1053824, -8.6341673], [116.1017507, -8.6334778], [116.0993206, -8.6329421], [116.0960269, -8.6323004], [116.093291, -8.6317435], [116.0904425, -8.6312025], [116.0872024, -8.6305767], [116.0845953, -8.6300781], [116.0812426, -8.6294258], [116.0788554, -8.6289431], [116.075803, -8.6283226]]}, "properties": {"id": "TRM-NTB-0004", "province": "Nusa Tenggara Barat", "system": "NTB", "voltage_class": "150 kV", "voltage_kv_max": 150.0, "voltage_kv_all": "150", "length_km": 34.93, "osm_id": "way/614195179", "osm_voltage": "150000", "source_id": "OSM-overpass", "color": "#1f77b4", "weight": 1.8}}, {"type": "Feature", "geometry": {"type": "LineString", "coordinates": [[116.2911281, -8.8137897], [116.2914687, -8.8138798], [116.2945613, -8.8135644], [116.297949, -8.8140919], [116.3033134, -8.8148181], [116.3068002, -8.8153482], [116.3090184, -8.815722], [116.3117838, -8.8161911], [116.313949, -8.8166273], [116.3172099, -8.8169068], [116.3201737, -8.8173202], [116.3233709, -8.8177655], [116.3264394, -8.8181578], [116.3299657, -8.8187921], [116.3325307, -8.819112], [116.3356018, -8.8195413], [116.3391933, -8.8201642], [116.3424522, -8.8205273], [116.3461053, -8.8201245], [116.3487178, -8.8197799], [116.3516736, -8.8211343], [116.3542214, -8.8220814], [116.3581645, -8.8227272], [116.359908, -8.8230824], [116.3639474, -8.823586], [116.3660717, -8.823904], [116.3683784, -8.8242433], [116.3707441, -8.8228545], [116.3731688, -8.8213225], [116.3759744, -8.8196633], [116.378898, -8.8179351], [116.3811994, -8.8165463], [116.3841444, -8.8147386], [116.3869661, -8.8130264], [116.3895571, -8.8114519], [116.3923842, -8.8097185], [116.395061, -8.8081493], [116.3975394, -8.8066226], [116.4003879, -8.8048997], [116.4033973, -8.8030602], [116.4056289, -8.8016713], [116.4084935, -8.7998529], [116.4109343, -8.7983739], [116.412828, -8.7972977], [116.4150649, -8.7959406], [116.4169317, -8.7947743], [116.4196461, -8.7931203], [116.4223391, -8.7914185], [116.4250588, -8.7897433], [116.4276123, -8.7881741], [116.4306164, -8.7862761], [116.4333308, -8.7845956], [116.4360183, -8.7829309], [116.4387381, -8.7812291], [116.4415222, -8.7794584], [116.4439899, -8.777852], [116.4471012, -8.7760177], [116.4497727, -8.774353], [116.4524656, -8.7726405], [116.4552873, -8.7709016], [116.4577818, -8.7693588], [116.4604694, -8.7676463], [116.4631677, -8.765918], [116.4658499, -8.7642585], [116.4686662, -8.7625354], [116.4712733, -8.7609078], [116.4739662, -8.7592059], [116.4771205, -8.7572389], [116.4799046, -8.7555476], [116.4805967, -8.7532147], [116.481514, -8.7498639], [116.4821523, -8.7481248], [116.4829785, -8.7451928], [116.4838582, -8.7425736], [116.484911, -8.7389973], [116.4854997, -8.7372237], [116.4865673, -8.7336607], [116.4875114, -8.7305695], [116.488536, -8.727457], [116.489464, -8.7242597], [116.4902151, -8.7218312], [116.491127, -8.7188407], [116.4921623, -8.7157546], [116.4933103, -8.7118891], [116.4940292, -8.7095613], [116.4952522, -8.7058654], [116.4958155, -8.7038292], [116.4970869, -8.699603], [116.4976126, -8.6978743], [116.4984548, -8.6952309], [116.4997208, -8.6911981], [116.5004075, -8.6888383], [116.5013516, -8.6859005], [116.5024459, -8.6824324], [116.5033257, -8.6799241], [116.5042591, -8.6767848], [116.505096, -8.6738416], [116.5060401, -8.6707605], [116.5069789, -8.6677483], [116.5062332, -8.6645452], [116.5054339, -8.661517], [116.5047741, -8.6582821], [116.504007, -8.6550523], [116.5033364, -8.6519711], [116.5026391, -8.6487228], [116.5016627, -8.6450793], [116.5010995, -8.6419794], [116.5030897, -8.6394496], [116.5066409, -8.6381556], [116.5092748, -8.6373176], [116.5125766, -8.6362781], [116.5156106, -8.6352529], [116.5182817, -8.6342786], [116.5210658, -8.6333929], [116.5241691, -8.6321466], [116.5244079, -8.6318443]]}, "properties": {"id": "TRM-NTB-0005", "province": "Nusa Tenggara Barat", "system": "NTB", "voltage_class": "150 kV", "voltage_kv_max": 150.0, "voltage_kv_all": "150", "length_km": 39.07, "osm_id": "way/614625440", "osm_voltage": "150000", "source_id": "OSM-overpass", "color": "#1f77b4", "weight": 1.8}}, {"type": "Feature", "geometry": {"type": "LineString", "coordinates": [[116.7053015, -8.4336035], [116.7054823, -8.4332618], [116.7060525, -8.4307651], [116.7074936, -8.4279687], [116.7087955, -8.4253789], [116.707883, -8.4227607], [116.7084212, -8.4226003]]}, "properties": {"id": "TRM-NTB-0006", "province": "Nusa Tenggara Barat", "system": "NTB", "voltage_class": "150 kV", "voltage_kv_max": 150.0, "voltage_kv_all": "150", "length_km": 1.368, "osm_id": "way/614625441", "osm_voltage": "150000", "source_id": "OSM-overpass", "color": "#1f77b4", "weight": 1.8}}, {"type": "Feature", "geometry": {"type": "LineString", "coordinates": [[116.0760632, -8.5538062], [116.0766453, -8.5540104], [116.0783994, -8.5540051], [116.0806096, -8.5507586], [116.0822403, -8.5478993], [116.0842332, -8.5436846], [116.0845363, -8.5398624], [116.0859148, -8.538941], [116.0860383, -8.5378996], [116.0871434, -8.5341171], [116.0889673, -8.5321542], [116.0916334, -8.5318359], [116.0939294, -8.5292364], [116.0955334, -8.5263027], [116.0957962, -8.5245573], [116.0960001, -8.5223928], [116.0961959, -8.518772], [116.0964507, -8.5170292], [116.0973358, -8.5132837], [116.0980922, -8.5102438], [116.0987359, -8.5072356], [116.097765, -8.5046943], [116.095984, -8.5000547], [116.0949969, -8.4979617], [116.0941493, -8.4960305], [116.0918856, -8.4902739], [116.0912579, -8.4888414], [116.0897666, -8.4845278], [116.0885823, -8.48202], [116.0875675, -8.4794841], [116.086563, -8.476974], [116.0853839, -8.4740277], [116.0828304, -8.4690189], [116.0799738, -8.458777], [116.0816303, -8.4562471], [116.0818255, -8.4542101], [116.0818889, -8.4490833], [116.0819167, -8.4474444], [116.0820579, -8.4430721], [116.0833119, -8.4406511], [116.0850352, -8.4366833], [116.0867787, -8.4333722], [116.0881841, -8.430565], [116.0895807, -8.4275919], [116.0909195, -8.424605], [116.0944167, -8.4223056], [116.0971111, -8.4206111], [116.0997778, -8.4189444], [116.1013611, -8.418], [116.1058333, -8.41525], [116.1073889, -8.4118056], [116.1102319, -8.405661], [116.1116111, -8.4025556], [116.1130278, -8.3995], [116.1142778, -8.3965833], [116.1158056, -8.3926667], [116.1169722, -8.3896111], [116.1178333, -8.3873333], [116.1191111, -8.384], [116.12375, -8.3807778], [116.1264378, -8.3786353], [116.1314589, -8.3755226], [116.1340713, -8.3740153], [116.1378372, -8.3719376], [116.1408654, -8.3703188], [116.1432066, -8.3689941], [116.1461976, -8.3673016], [116.1495906, -8.3654228], [116.1526912, -8.3656803], [116.1530882, -8.3656404]]}, "properties": {"id": "TRM-NTB-0007", "province": "Nusa Tenggara Barat", "system": "NTB", "voltage_class": "150 kV", "voltage_kv_max": 150.0, "voltage_kv_all": "150", "length_km": 26.143, "osm_id": "way/614635875", "osm_voltage": "150000", "source_id": "OSM-overpass", "color": "#1f77b4", "weight": 1.8}}, {"type": "Feature", "geometry": {"type": "LineString", "coordinates": [[116.1534879, -8.3658793], [116.1538875, -8.3658395], [116.156339, -8.3650938], [116.1586672, -8.3648603], [116.1611295, -8.3645843], [116.163758, -8.3642446], [116.1662632, -8.3622809], [116.168592, -8.3604149], [116.1717168, -8.3581459], [116.1746532, -8.3557793], [116.1772764, -8.3537041], [116.1796367, -8.3518358], [116.1826944, -8.3494793], [116.1851406, -8.3475155], [116.1877262, -8.3454986], [116.1898506, -8.343832], [116.2035084, -8.3089964], [116.2045437, -8.3068466], [116.2054986, -8.3049038], [116.2080735, -8.3029398], [116.2102461, -8.3013208], [116.2123758, -8.299723], [116.2145895, -8.2980787], [116.2166566, -8.2965434], [116.2190705, -8.2946961], [116.2212968, -8.2930824], [116.2237376, -8.2912775], [116.2256688, -8.2895364], [116.2278199, -8.2876413], [116.230014, -8.2856825], [116.2322295, -8.2837609], [116.2342304, -8.2819719], [116.2362689, -8.2801883], [116.2386292, -8.2780702], [116.2406623, -8.2762971], [116.2435806, -8.2737224], [116.2463272, -8.2714026], [116.2485427, -8.2693853], [116.2508279, -8.2673043], [116.2529254, -8.2654197], [116.2556291, -8.2629459], [116.2583649, -8.2604561], [116.2617606, -8.2597447], [116.2628174, -8.2584228], [116.264019, -8.257738], [116.2669533, -8.2560392], [116.26948, -8.2549137], [116.2723312, -8.2534325], [116.2755579, -8.2518027], [116.2782671, -8.2515821], [116.2809706, -8.2513621], [116.2839065, -8.2503596], [116.2874079, -8.2491642], [116.290133, -8.2476617], [116.2927937, -8.2461062], [116.2952131, -8.2442215], [116.2986195, -8.2416042], [116.3006902, -8.240038], [116.3032137, -8.2380406], [116.3059151, -8.2359023], [116.3084418, -8.2339326], [116.3109523, -8.2320479], [116.3188863, -8.2281244], [116.321606, -8.2283739], [116.3230383, -8.2284429], [116.3261282, -8.2286765], [116.3309079, -8.2290588], [116.3349152, -8.2293667], [116.3390619, -8.2296481], [116.3427257, -8.2299295], [116.3463843, -8.2302427], [116.3494527, -8.230487], [116.353358, -8.2298074], [116.3564211, -8.2292499], [116.3589638, -8.2287615], [116.362499, -8.2281297], [116.3659161, -8.2274289], [116.369226, -8.2267865], [116.3717902, -8.2263458], [116.3744616, -8.2258892], [116.3779592, -8.225284], [116.3800782, -8.2248964], [116.3818914, -8.2245831], [116.3846165, -8.2240788], [116.3875294, -8.2252096], [116.3906354, -8.2263458], [116.3933712, -8.2273599], [116.3962546, -8.2284615], [116.3973463, -8.2283898], [116.3974053, -8.2280899]]}, "properties": {"id": "TRM-NTB-0008", "province": "Nusa Tenggara Barat", "system": "NTB", "voltage_class": "150 kV", "voltage_kv_max": 150.0, "voltage_kv_all": "150", "length_km": 33.639, "osm_id": "way/630346983", "osm_voltage": "150000", "source_id": "OSM-overpass", "color": "#1f77b4", "weight": 1.8}}, {"type": "Feature", "geometry": {"type": "LineString", "coordinates": [[116.8948504, -8.540239], [116.8947002, -8.5400322], [116.8935174, -8.5392576], [116.8911022, -8.5412328], [116.8872812, -8.5443185], [116.8852642, -8.545841], [116.883274, -8.5474431], [116.8795592, -8.5490743], [116.8767831, -8.5503024], [116.8739721, -8.5515888], [116.8718129, -8.5525304], [116.8688276, -8.5538592], [116.8665826, -8.5548751], [116.8644208, -8.5558512], [116.8620658, -8.5568697], [116.8598074, -8.5578829], [116.8574846, -8.5589332], [116.8552101, -8.5600525], [116.8543732, -8.5633095], [116.8537295, -8.565808], [116.8513316, -8.5678184], [116.848864, -8.5694787], [116.8469596, -8.5709003], [116.8444383, -8.5727463], [116.8439287, -8.5753826], [116.8431562, -8.5788411], [116.8427861, -8.5806658], [116.8424267, -8.5830263], [116.8419385, -8.5855034], [116.8414879, -8.5881078], [116.8410695, -8.5905849], [116.8405384, -8.5932317], [116.8401521, -8.5950404], [116.840761, -8.596804], [116.8415523, -8.5993208], [116.8425608, -8.602551], [116.8437517, -8.6057812], [116.8447548, -8.6088204], [116.8456668, -8.6115625], [116.8466002, -8.6144107], [116.8474799, -8.6169725], [116.8482631, -8.6192213], [116.8489444, -8.6218839], [116.8499958, -8.6248275], [116.8508595, -8.6276172], [116.8517071, -8.6300463], [116.8522382, -8.6321678], [116.8530321, -8.6348302], [116.8525708, -8.6376888], [116.852147, -8.6400118], [116.8516964, -8.6432045], [116.8512726, -8.6456653], [116.8508971, -8.647845], [116.8505591, -8.6504437], [116.8500709, -8.6530636], [116.8496954, -8.6554448], [116.8492931, -8.658176], [116.8481129, -8.6602761], [116.8469489, -8.6621746], [116.8456399, -8.664402], [116.8444598, -8.6663854], [116.8431669, -8.6686763], [116.8420672, -8.6706173], [116.8408281, -8.6729188], [116.8387949, -8.6744249], [116.8364668, -8.6761272], [116.835174, -8.6770181], [116.8336183, -8.6793673], [116.8325186, -8.6805181], [116.8299329, -8.6815627], [116.8289888, -8.6831165], [116.8277389, -8.6852907], [116.8264085, -8.687555], [116.8265533, -8.6909383], [116.8266821, -8.6935684], [116.8268055, -8.6960236], [116.8269074, -8.6985212], [116.8269932, -8.7008703], [116.8270898, -8.7038769], [116.8271863, -8.7056957], [116.8272829, -8.708066], [116.8274385, -8.7112793], [116.8275672, -8.7140738], [116.8277389, -8.7170697], [116.8278676, -8.7197845], [116.8279427, -8.7223827], [116.8280715, -8.7249278], [116.8268859, -8.7268791], [116.8256038, -8.7283637], [116.8231791, -8.7302354], [116.8205398, -8.7321972], [116.8202448, -8.7343977], [116.8196976, -8.7364549], [116.8193757, -8.7382736], [116.8188661, -8.7405641], [116.8183887, -8.742844], [116.8178791, -8.7455905], [116.8180346, -8.7479499], [116.8184584, -8.750797], [116.8187213, -8.7532147], [116.8190592, -8.7561361], [116.8193704, -8.7581296], [116.8195984, -8.7604783], [116.8198907, -8.7636806], [116.8202394, -8.763776]]}, "properties": {"id": "TRM-NTB-0009", "province": "Nusa Tenggara Barat", "system": "NTB", "voltage_class": "70 kV", "voltage_kv_max": 70.0, "voltage_kv_all": "70", "length_km": 29.9, "osm_id": "way/707043777", "osm_voltage": "70000", "source_id": "OSM-overpass", "color": "#2ca02c", "weight": 1.2}}, {"type": "Feature", "geometry": {"type": "LineString", "coordinates": [[116.8201697, -8.7640014], [116.8198559, -8.7639218], [116.8174231, -8.7631266], [116.8149742, -8.7620211], [116.8109912, -8.7599746], [116.8065816, -8.7595823], [116.803835, -8.7587287], [116.8012762, -8.7580978], [116.7984706, -8.7573767], [116.7935729, -8.7561732], [116.7920172, -8.7555953], [116.7899873, -8.7545683], [116.7875057, -8.7533128], [116.7862236, -8.7509031], [116.7856175, -8.7498268], [116.7846143, -8.7479923], [116.7833322, -8.7456223], [116.7820984, -8.7433636], [116.7809048, -8.7412719], [116.7787483, -8.7402884], [116.7783621, -8.7408186]]}, "properties": {"id": "TRM-NTB-0010", "province": "Nusa Tenggara Barat", "system": "NTB", "voltage_class": "70 kV", "voltage_kv_max": 70.0, "voltage_kv_all": "70", "length_km": 5.669, "osm_id": "way/707043780", "osm_voltage": "70000", "source_id": "OSM-overpass", "color": "#2ca02c", "weight": 1.2}}, {"type": "Feature", "geometry": {"type": "LineString", "coordinates": [[117.4367988, -8.5153369], [117.4368042, -8.5155862], [117.4348596, -8.5166313], [117.4321532, -8.518902], [117.4269605, -8.5233], [117.424466, -8.5254115], [117.4224544, -8.5272258], [117.4186617, -8.5285627], [117.4152446, -8.5283399], [117.4142522, -8.5269818], [117.4133295, -8.5247165], [117.4121118, -8.5221223], [117.4097729, -8.5195705], [117.4080187, -8.5175651], [117.4046069, -8.5137983], [117.4016726, -8.5105515], [117.3989743, -8.5075433], [117.3970914, -8.5054159], [117.3951387, -8.5032884], [117.393347, -8.5011503], [117.3910671, -8.4985506], [117.3869955, -8.4939188], [117.3854935, -8.492237], [117.3818725, -8.48821], [117.3785788, -8.4845385], [117.3773872, -8.4831947], [117.3756713, -8.4812595], [117.3693144, -8.4773598], [117.3634243, -8.4745954], [117.3586285, -8.4723617], [117.3560536, -8.4710299], [117.3518211, -8.4689659], [117.3489726, -8.4676129], [117.3455769, -8.4658937], [117.3433077, -8.4647477], [117.341398, -8.4638934], [117.3392576, -8.4628004], [117.3367739, -8.4616224], [117.3344994, -8.4601314], [117.3334426, -8.4595955], [117.3309749, -8.4584388], [117.3288345, -8.4574359], [117.3248166, -8.4554727], [117.3175478, -8.4520025], [117.3154235, -8.4509996], [117.3124462, -8.4497049], [117.3033276, -8.4455222], [117.2966963, -8.4422125], [117.2949099, -8.4413104], [117.279042, -8.4311116], [117.2775078, -8.4299548], [117.2751152, -8.42814], [117.2736025, -8.4270203], [117.2710437, -8.4251365], [117.2693163, -8.4238417], [117.2673047, -8.4222869], [117.2654861, -8.4209018], [117.2631633, -8.4208329], [117.2608244, -8.4206365], [117.2584909, -8.4204402], [117.25627, -8.4202863], [117.2538131, -8.4201218], [117.2505891, -8.4189755], [117.2491246, -8.4178028], [117.247628, -8.4166035], [117.2452301, -8.4146719], [117.240901, -8.4112862], [117.23912, -8.4098799], [117.2374517, -8.408532], [117.2351181, -8.4089353], [117.2327363, -8.4093121], [117.2303653, -8.4097048], [117.2273934, -8.4101983], [117.2221899, -8.4110792], [117.2201461, -8.4114029], [117.2176194, -8.4118222], [117.2148353, -8.4123051], [117.2131294, -8.4117797], [117.2104633, -8.4110527], [117.2087198, -8.4105751], [117.2060323, -8.4098693], [117.2036076, -8.40919], [117.2013277, -8.4085002], [117.1989137, -8.407858], [117.1964836, -8.4071841], [117.1945202, -8.4066587], [117.1924871, -8.4061174], [117.1907812, -8.405661], [117.1884692, -8.4065738], [117.1861249, -8.4075502], [117.183904, -8.4084524], [117.1814471, -8.4093705], [117.1786416, -8.4104212], [117.1742105, -8.4120822], [117.1715712, -8.4130799], [117.1692055, -8.4139714], [117.1669418, -8.4147939], [117.1646136, -8.415712], [117.1590722, -8.4177975], [117.1574628, -8.4184396], [117.1553171, -8.4192303], [117.1529674, -8.4201218], [117.1506554, -8.4210876], [117.1490622, -8.4212096], [117.1463478, -8.4214856], [117.1437085, -8.4217456], [117.1409833, -8.4220162], [117.1382582, -8.422255], [117.1357155, -8.4224885], [117.132588, -8.422791], [117.1299058, -8.4230298], [117.1247292, -8.4235286], [117.1220738, -8.4238523], [117.119633, -8.424834], [117.11797, -8.4254814], [117.1159744, -8.4262721], [117.1139842, -8.4270999], [117.1124178, -8.4277473], [117.1101057, -8.4286175], [117.1080244, -8.4294507], [117.1055299, -8.4304005], [117.1033466, -8.4312442], [117.1010238, -8.4321622], [117.0987493, -8.4330219], [117.0901555, -8.4363915], [117.0843887, -8.4387369], [117.082302, -8.4395487], [117.0797217, -8.4405728], [117.0778227, -8.4413317], [117.0753658, -8.4424035], [117.0728928, -8.4433693], [117.0704251, -8.4443615], [117.0674157, -8.4455024], [117.0636713, -8.447471], [117.0617402, -8.4488984], [117.0591921, -8.4508882], [117.057234, -8.452427], [117.0555925, -8.4536368], [117.0520037, -8.4564702], [117.0502603, -8.4578604], [117.0481199, -8.4595053], [117.0464355, -8.4608], [117.0426643, -8.4638032], [117.0408779, -8.4651615], [117.0370424, -8.4680904], [117.0352238, -8.46947], [117.0333356, -8.4709344], [117.0314258, -8.4723617], [117.0295054, -8.4738791], [117.0277888, -8.475195], [117.0258468, -8.4766488], [117.0238942, -8.4782087], [117.0220113, -8.4796041], [117.0202142, -8.4810844], [117.0174944, -8.4830529], [117.0147532, -8.4852494], [117.0139164, -8.4893401], [117.0136106, -8.4919239], [117.0128059, -8.4966459], [117.0122319, -8.5004606], [117.0117974, -8.5030337], [117.0113533, -8.5055761], [117.0105314, -8.5102995], [117.0100594, -8.5129972], [117.0097053, -8.5150981], [117.0092547, -8.5176234], [117.0090079, -8.5199153], [117.0093448, -8.5223905], [117.0087428, -8.5243333], [117.0077386, -8.5275666], [117.0071891, -8.5298476], [117.0053011, -8.529751], [117.0020717, -8.5296078], [116.9995719, -8.5295017], [116.997115, -8.5294062], [116.9919759, -8.5291516], [116.9895297, -8.5290561], [116.9871962, -8.5289553], [116.9844818, -8.5288492], [116.9820195, -8.5287165], [116.9797826, -8.5286158], [116.9775402, -8.5284884], [116.9747508, -8.5283452], [116.9717789, -8.5282338], [116.9694132, -8.5281701], [116.96679, -8.5280375], [116.9642097, -8.5279367], [116.9615114, -8.5278306], [116.9591027, -8.5277828], [116.9564259, -8.5277033], [116.9540441, -8.5276237], [116.9515336, -8.5275813], [116.9491517, -8.5274964], [116.9463676, -8.5274115], [116.9438517, -8.5273584], [116.9413251, -8.5272736], [116.9389057, -8.5272099], [116.9366795, -8.5271356], [116.934067, -8.527072], [116.9315404, -8.526934], [116.9289118, -8.5268916], [116.9258273, -8.5267643], [116.9238907, -8.5267059], [116.9169706, -8.5285309], [116.914224, -8.5293691], [116.9081354, -8.5314646], [116.9058341, -8.532775], [116.8955791, -8.5410063], [116.8951803, -8.5404088]]}, "properties": {"id": "TRM-NTB-0011", "province": "Nusa Tenggara Barat", "system": "NTB", "voltage_class": "70 kV", "voltage_kv_max": 70.0, "voltage_kv_all": "70", "length_km": 71.926, "osm_id": "way/707531065", "osm_voltage": "70000", "source_id": "OSM-overpass", "color": "#2ca02c", "weight": 1.2}}, {"type": "Feature", "geometry": {"type": "LineString", "coordinates": [[117.3354864, -8.4491265], [117.3352236, -8.4496465], [117.3357439, -8.4517425], [117.3359853, -8.4540931], [117.3362964, -8.4574731], [117.3366103, -8.4611396], [117.3392844, -8.462344], [117.3415375, -8.4633522], [117.3432594, -8.4641905], [117.3459102, -8.4655157], [117.3491925, -8.4671566], [117.3525177, -8.4686967], [117.356252, -8.4705789], [117.3590791, -8.4720115], [117.3636442, -8.4742983], [117.3696685, -8.4770892], [117.3758537, -8.4806918], [117.3786968, -8.4838646], [117.3819101, -8.487568], [117.3856705, -8.4918125], [117.3873603, -8.4936217], [117.3913354, -8.4980359], [117.3936045, -8.5004287], [117.3975259, -8.5047633], [117.3995632, -8.5069926], [117.4021895, -8.5098664], [117.4052882, -8.5132572], [117.4088877, -8.5172096], [117.4104005, -8.5189497], [117.4124873, -8.5219207], [117.4145526, -8.5251197], [117.415958, -8.5257828], [117.4183506, -8.5245361], [117.4226582, -8.5223292], [117.4249953, -8.5210792], [117.4285269, -8.5190267], [117.4304849, -8.5180266], [117.4322873, -8.5171513], [117.4331403, -8.5164669], [117.4359888, -8.5151989], [117.4360102, -8.5148647]]}, "properties": {"id": "TRM-NTB-0012", "province": "Nusa Tenggara Barat", "system": "NTB", "voltage_class": "150 kV", "voltage_kv_max": 150.0, "voltage_kv_all": "150", "length_km": 15.427, "osm_id": "way/707531066", "osm_voltage": "150000", "source_id": "OSM-overpass", "color": "#1f77b4", "weight": 1.8}}, {"type": "Feature", "geometry": {"type": "LineString", "coordinates": [[117.4370617, -8.5153103], [117.4370456, -8.5155438], [117.4387997, -8.517459], [117.4425334, -8.5191619], [117.4479246, -8.5216289], [117.4494964, -8.5225042], [117.4535251, -8.5261701], [117.455306, -8.5277935], [117.4575376, -8.5276874], [117.4599945, -8.5275706], [117.4622315, -8.5293903], [117.4645229, -8.5311506], [117.4666786, -8.5328068], [117.4693072, -8.5336131], [117.4718445, -8.5344778], [117.474044, -8.5361171], [117.4762648, -8.5376821], [117.4777079, -8.5387218], [117.4796927, -8.5410772], [117.4819082, -8.5426369], [117.4839842, -8.5441594], [117.4863768, -8.5457933], [117.4886405, -8.5473211], [117.4908614, -8.5488754], [117.4930608, -8.5504509], [117.4953461, -8.5519416], [117.4970519, -8.5544984], [117.5042778, -8.5617234], [117.506547, -8.5639938], [117.5082904, -8.565739], [117.5102645, -8.5678078], [117.5117505, -8.5693408], [117.513451, -8.5710383], [117.5159562, -8.5736534], [117.5177854, -8.5756107], [117.5197917, -8.5776847], [117.5215888, -8.5795254], [117.5235307, -8.5813819], [117.5254297, -8.5834665], [117.5272429, -8.5853071], [117.5333905, -8.5890413], [117.5400746, -8.5918738], [117.5427622, -8.5929718], [117.5480246, -8.5951889], [117.5507337, -8.5963452], [117.552799, -8.5972045], [117.5618595, -8.60105], [117.5643271, -8.6021108], [117.5668752, -8.6031822], [117.5694233, -8.6042642], [117.5718802, -8.6052879], [117.5745088, -8.6064495], [117.576389, -8.6074467], [117.5787467, -8.608701], [117.5811848, -8.6099475], [117.5836551, -8.6112231], [117.5861254, -8.6125278], [117.5883812, -8.6137265], [117.5905243, -8.6151162], [117.5925171, -8.6163838], [117.5948346, -8.6178954], [117.5970179, -8.6193327], [117.599051, -8.6206216], [117.6009554, -8.6218573], [117.6032031, -8.6233371], [117.604976, -8.6244801], [117.6077414, -8.6236898], [117.6099327, -8.6230772], [117.6126605, -8.6223029], [117.6148921, -8.6216982], [117.6170379, -8.6210671], [117.6191086, -8.6204677], [117.6211792, -8.6213747], [117.6233143, -8.6222923], [117.6257068, -8.6233106], [117.6281744, -8.6243819], [117.6312643, -8.6257291], [117.6340592, -8.6269436], [117.6380128, -8.6285825], [117.6417625, -8.6302213], [117.6442409, -8.6312449], [117.6468372, -8.6323693], [117.6491547, -8.6333028], [117.6511985, -8.6341673], [117.6529044, -8.6349098], [117.6548088, -8.6367395], [117.6568526, -8.6387177], [117.6591057, -8.640871], [117.6615357, -8.6431091], [117.663703, -8.6452092], [117.6654571, -8.6469169], [117.6676458, -8.6489482], [117.6697862, -8.6502316], [117.6718461, -8.6514567], [117.6747161, -8.6531272], [117.6770067, -8.6544743], [117.6801985, -8.6564047], [117.6817274, -8.6572797], [117.6843989, -8.6591889], [117.6868182, -8.6611458], [117.6897579, -8.6634262], [117.6923221, -8.6652187], [117.6951545, -8.6672339], [117.6970053, -8.6699491], [117.6985878, -8.6727544], [117.7009267, -8.6751302], [117.7020478, -8.6762757], [117.7056742, -8.67994], [117.7072459, -8.6815893], [117.7088767, -8.6832226], [117.7110654, -8.6837582], [117.7132434, -8.684315], [117.7153677, -8.6848241], [117.7176529, -8.6853968], [117.7196914, -8.685874], [117.7219444, -8.6864255], [117.7243638, -8.6871202], [117.7258766, -8.6883505], [117.7281511, -8.6903019], [117.7308333, -8.692598], [117.7330434, -8.6945176], [117.7356881, -8.6968668], [117.7368468, -8.6978955], [117.7387512, -8.6996136], [117.7391867, -8.7018873], [117.7396817, -8.7044109], [117.7400905, -8.7067184], [117.7406624, -8.7097682], [117.7411359, -8.7125406], [117.740548, -8.7152883], [117.739994, -8.7177203], [117.739405, -8.7204427], [117.7387867, -8.7230021], [117.7382657, -8.7256818], [117.7377182, -8.7282877], [117.7371557, -8.7308678], [117.736565, -8.7336337], [117.7357449, -8.7375303], [117.7354357, -8.738946], [117.7348924, -8.7416109], [117.7350649, -8.7449686], [117.7352325, -8.747672], [117.7353981, -8.750574], [117.7377064, -8.7518636], [117.7400698, -8.7532129], [117.7424092, -8.7545078], [117.7448628, -8.7559158], [117.7472796, -8.7573028], [117.7489864, -8.759246], [117.7507554, -8.7611716], [117.7530326, -8.7636341], [117.755199, -8.7660735], [117.7576061, -8.7685693], [117.7589484, -8.7699773], [117.7604656, -8.7716443], [117.7620357, -8.7732172], [117.7639076, -8.7752543], [117.7659022, -8.7775013], [117.7679223, -8.779546], [117.7694623, -8.7811677], [117.7711643, -8.7829173], [117.773671, -8.7852993], [117.7764898, -8.7863928], [117.7787536, -8.7872622], [117.7809155, -8.7880627], [117.7836245, -8.7891071], [117.7859044, -8.7900243], [117.7885169, -8.791005], [117.7912635, -8.7919911], [117.7935862, -8.7928923], [117.7961129, -8.793836], [117.7986824, -8.7948962], [117.8011823, -8.7936716], [117.8036338, -8.7923993], [117.8059781, -8.7912383], [117.8083974, -8.7899871], [117.8113747, -8.788577], [117.8132093, -8.7876492], [117.8155267, -8.7864723], [117.8180426, -8.7852477], [117.8202045, -8.7841555], [117.8227687, -8.782862], [117.8255582, -8.7815154], [117.8279936, -8.7803066], [117.8307831, -8.7788858], [117.8328752, -8.7778149], [117.8344202, -8.7753762], [117.8357935, -8.7730434], [117.8370488, -8.770997], [117.8385293, -8.7685264], [117.8398812, -8.7662891], [117.8415549, -8.763564], [117.8427136, -8.7605207], [117.8439367, -8.7576577], [117.8452241, -8.7546356], [117.8463614, -8.7518574], [117.8475416, -8.7490368], [117.8500414, -8.7475628], [117.8523695, -8.7461472], [117.8545314, -8.7448376], [117.8571922, -8.7433053], [117.8587693, -8.7423827], [117.8610867, -8.7410307], [117.8636134, -8.739509], [117.8666067, -8.7377062], [117.8687364, -8.7364814], [117.8707319, -8.7352725], [117.8734249, -8.7336766], [117.8753324, -8.7325454], [117.8781349, -8.7309058], [117.8796344, -8.7299847], [117.8819373, -8.7286197], [117.8844969, -8.7271097], [117.8861884, -8.7274054], [117.888741, -8.7301725], [117.8908088, -8.7325274], [117.8925914, -8.7344374], [117.8947425, -8.7363497], [117.8967674, -8.7381297], [117.8987803, -8.7399273], [117.9013977, -8.7422854], [117.9028913, -8.7436161], [117.9052456, -8.7451601], [117.9071793, -8.7463564], [117.909396, -8.7477891], [117.9112492, -8.7489693], [117.9140856, -8.7507185], [117.9163295, -8.7522551], [117.9186147, -8.7536389], [117.9208088, -8.7550121], [117.923829, -8.7569473], [117.9255402, -8.7580182], [117.9278622, -8.759517], [117.9297459, -8.7607328], [117.9324795, -8.762388], [117.935341, -8.7637919], [117.9377711, -8.7649636], [117.9401314, -8.7661406], [117.9427653, -8.7672858], [117.9453778, -8.7676198], [117.9480815, -8.7680227], [117.9511821, -8.7684045], [117.9534298, -8.7687279], [117.95623, -8.7690884], [117.9586923, -8.7693959], [117.9616964, -8.76982], [117.9643625, -8.770276], [117.9670177, -8.7706114], [117.9695652, -8.7709294], [117.9721621, -8.7712536], [117.9753166, -8.7716597], [117.9768401, -8.771999], [117.9788277, -8.7740773], [117.9790986, -8.7740773]]}, "properties": {"id": "TRM-NTB-0013", "province": "Nusa Tenggara Barat", "system": "NTB", "voltage_class": "150 kV", "voltage_kv_max": 150.0, "voltage_kv_all": "150", "length_km": 79.311, "osm_id": "way/707531068", "osm_voltage": "150000", "source_id": "OSM-overpass", "color": "#1f77b4", "weight": 1.8}}, {"type": "Feature", "geometry": {"type": "LineString", "coordinates": [[118.9591028, -8.5744535], [118.9591005, -8.5742227], [118.9589631, -8.5727841], [118.9580162, -8.5706215], [118.9568281, -8.569118], [118.9535105, -8.5673649], [118.95104, -8.5661052], [118.9480734, -8.5646834], [118.9459705, -8.5634952], [118.9420832, -8.5632127], [118.9393398, -8.563367], [118.9359869, -8.5635466], [118.9332177, -8.5637043], [118.9304388, -8.5638049], [118.9265192, -8.5639514], [118.9235634, -8.5659777], [118.9206505, -8.5679139], [118.9164501, -8.5689589], [118.9135694, -8.5696167], [118.9113486, -8.570163], [118.909227, -8.5706033], [118.9066225, -8.5710383], [118.9041656, -8.5717968], [118.9006519, -8.5727781], [118.897385, -8.573733], [118.8955235, -8.577027], [118.8944882, -8.578804], [118.8933737, -8.5807954], [118.892817, -8.5817682], [118.8908913, -8.5849429], [118.8862631, -8.5855205], [118.884135, -8.5840845], [118.8823736, -8.5829534], [118.8798575, -8.5813126], [118.8778361, -8.5797491], [118.8754053, -8.5747839], [118.8736904, -8.5714573], [118.8714105, -8.5669034], [118.869777, -8.5630629], [118.8682374, -8.5602753], [118.8671619, -8.5582277], [118.8649946, -8.5555541], [118.8630259, -8.5531192], [118.8589221, -8.5487958], [118.8570338, -8.5467322], [118.8559341, -8.5435387], [118.854939, -8.540865], [118.8538581, -8.5378492], [118.8529408, -8.5349341], [118.8521542, -8.5325272], [118.8512582, -8.5296842], [118.849808, -8.5250825], [118.849057, -8.5228066], [118.8481772, -8.5200426], [118.8471419, -8.5169656], [118.8460475, -8.5137347], [118.84498, -8.5103552], [118.8451892, -8.5069703], [118.8453984, -8.5037659], [118.8455701, -8.5009381], [118.8459027, -8.4965398], [118.8409245, -8.4925394], [118.8390526, -8.4909538], [118.8355011, -8.4881039], [118.8335001, -8.4864326], [118.8312262, -8.4846107], [118.8258451, -8.4802992], [118.8230985, -8.4806706], [118.8205451, -8.4811057], [118.8182652, -8.4815142], [118.8153094, -8.4820872], [118.812477, -8.482517], [118.8101113, -8.482952], [118.807252, -8.4833659], [118.8038832, -8.483992], [118.7995061, -8.4847415], [118.7964159, -8.4852706], [118.7945276, -8.4855041], [118.7918454, -8.4860134], [118.7896728, -8.4850584], [118.78785, -8.4843395], [118.7845445, -8.4830475], [118.7812883, -8.4818034], [118.7795877, -8.4789727], [118.7777316, -8.4757786], [118.7760901, -8.4729029], [118.7743145, -8.469974], [118.7716484, -8.4697618], [118.768993, -8.469523], [118.7672389, -8.4706107], [118.7670404, -8.4704675]]}, "properties": {"id": "TRM-NTB-0014", "province": "Nusa Tenggara Barat", "system": "NTB", "voltage_class": "150 kV", "voltage_kv_max": 150.0, "voltage_kv_all": "150", "length_km": 31.071, "osm_id": "way/707533368", "osm_voltage": "150000", "source_id": "OSM-overpass", "color": "#1f77b4", "weight": 1.8}}, {"type": "Feature", "geometry": {"type": "LineString", "coordinates": [[118.6367574, -8.5555037], [118.6368325, -8.5544003], [118.6369076, -8.5541775]]}, "properties": {"id": "TRM-NTB-0015", "province": "Nusa Tenggara Barat", "system": "NTB", "voltage_class": "70 kV", "voltage_kv_max": 70.0, "voltage_kv_all": "70", "length_km": 0.149, "osm_id": "way/707533372", "osm_voltage": "70000", "source_id": "OSM-overpass", "color": "#2ca02c", "weight": 1.2}}, {"type": "Feature", "geometry": {"type": "LineString", "coordinates": [[117.9793829, -8.7743848], [117.9796189, -8.7743927], [117.9810083, -8.7727466], [117.9834276, -8.7722959], [117.986404, -8.7718177], [117.9890066, -8.7714635], [117.9916137, -8.7710023], [117.9932606, -8.7691838], [117.9953849, -8.7665383], [117.9955351, -8.7644706], [117.9953688, -8.7612577], [117.9951435, -8.7586412], [117.9949558, -8.7564595], [117.9958919, -8.7543573], [117.9971605, -8.7506645], [117.9980028, -8.7483475], [117.9989791, -8.7457442], [117.9998857, -8.7431515], [118.0004328, -8.741476], [118.0017257, -8.7380986], [118.0026537, -8.7355429], [118.0035657, -8.7329396], [118.0043918, -8.7306702], [118.0053574, -8.7279766], [118.0063176, -8.7253414], [118.0072242, -8.7227644], [118.0083293, -8.7196466], [118.0095845, -8.7162054], [118.0109042, -8.7126315], [118.0118644, -8.7099961], [118.0124706, -8.7082038], [118.0146003, -8.7055419], [118.0163169, -8.7032724], [118.0182749, -8.7007537], [118.0197187, -8.6988758], [118.0213326, -8.6967766], [118.0231565, -8.694454], [118.0248141, -8.6929798], [118.0259621, -8.6918503], [118.0287301, -8.6877565], [118.0312568, -8.6856778], [118.0333328, -8.6847869], [118.0374742, -8.6826074], [118.0407625, -8.6814726], [118.0415189, -8.6798552], [118.0430961, -8.6773363], [118.0444908, -8.6751355], [118.0458909, -8.6727014], [118.0484819, -8.6719112], [118.0535942, -8.6703044], [118.0563515, -8.6694188], [118.0589426, -8.6686127], [118.0617535, -8.667743], [118.0648059, -8.6667831], [118.0670214, -8.6660301], [118.0740219, -8.6668733], [118.0807757, -8.6659081], [118.082428, -8.6643118], [118.0862635, -8.6604776], [118.0877334, -8.6590298], [118.0901688, -8.6566699], [118.091746, -8.6560388], [118.0950665, -8.6562933], [118.1004406, -8.6572409], [118.1030971, -8.6577093], [118.1058007, -8.6582078], [118.1087029, -8.6587753], [118.1112671, -8.6592101], [118.114593, -8.6597776], [118.1192843, -8.6606155], [118.1227842, -8.6607798], [118.12662, -8.659873], [118.1303322, -8.6589078], [118.1328642, -8.6582396], [118.1371665, -8.6600162], [118.1415439, -8.6619148], [118.1453419, -8.6612678], [118.1479812, -8.6608435], [118.1533617, -8.6599738], [118.1551802, -8.659645], [118.1596054, -8.6561569], [118.1649897, -8.6558327], [118.1665073, -8.6574839], [118.1703053, -8.6616155], [118.1753987, -8.6648475], [118.1774283, -8.6662372], [118.1808869, -8.6684085], [118.1828622, -8.6696148], [118.1880771, -8.6711111], [118.1904428, -8.6717899], [118.1942446, -8.672932], [118.1972426, -8.6725847], [118.1997156, -8.6715665], [118.2020491, -8.6731681], [118.2057989, -8.6742976], [118.2113081, -8.6758408], [118.2143256, -8.6767363], [118.2173055, -8.6767954], [118.2208913, -8.6768675], [118.2223803, -8.6754166], [118.2264358, -8.675512], [118.2282168, -8.674987], [118.2325834, -8.6738469], [118.2376045, -8.6724522], [118.2400346, -8.6718211], [118.2447392, -8.67049], [118.248328, -8.6684536], [118.251434, -8.6661573], [118.2535797, -8.6645399], [118.2568145, -8.6621534], [118.2601082, -8.6596662], [118.2629299, -8.6599685], [118.2643998, -8.6617239], [118.2697266, -8.6631451], [118.2722801, -8.6629436], [118.2759333, -8.6625353], [118.2786959, -8.6622277], [118.281067, -8.6611511], [118.2843018, -8.6596768], [118.287456, -8.6582555], [118.2892746, -8.6556039], [118.2905084, -8.6537954], [118.2922357, -8.6512657], [118.2918388, -8.6482216], [118.2913452, -8.6445198], [118.2908678, -8.6411574], [118.2900685, -8.6375297], [118.2920426, -8.6364584], [118.2936144, -8.6348355], [118.2949823, -8.6333558], [118.2952559, -8.6310858], [118.2955563, -8.6284552], [118.2939309, -8.6262223], [118.2923859, -8.6240478], [118.2911199, -8.622271], [118.2891458, -8.619529], [118.2874668, -8.6171051], [118.2861096, -8.6147608], [118.2855141, -8.6117906], [118.2847524, -8.6079983], [118.2835132, -8.6047416], [118.2821506, -8.6012462], [118.2821935, -8.5962869], [118.2849026, -8.5941334], [118.2856321, -8.5886594], [118.2850474, -8.5847767], [118.2870591, -8.5809788], [118.2890814, -8.5772074], [118.2893228, -8.5740777], [118.2896554, -8.5708897], [118.2899619, -8.5672655], [118.2913023, -8.5646304], [118.2928473, -8.5615537], [118.2942688, -8.5586255], [118.2956743, -8.5557928], [118.2975304, -8.5531404], [118.2993543, -8.5504721], [118.3010709, -8.5480956], [118.3029699, -8.5453636], [118.304826, -8.542743], [118.3072829, -8.5397775], [118.308844, -8.5378943], [118.3106679, -8.5356715], [118.3123255, -8.5336715], [118.3146697, -8.5308174], [118.3170569, -8.5278836], [118.3202594, -8.5267961], [118.3231562, -8.525751], [118.326273, -8.5246581], [118.3291429, -8.5236767], [118.3321255, -8.5251993], [118.3354407, -8.5269446], [118.3385414, -8.530255], [118.3392066, -8.5342497], [118.339861, -8.5377775], [118.3396786, -8.5407271], [118.3394372, -8.5435599], [118.3405906, -8.54765], [118.3437341, -8.5482123], [118.346529, -8.547077], [118.3503109, -8.546589], [118.3547848, -8.5464352], [118.3592346, -8.5455148], [118.3623809, -8.5449127], [118.3659026, -8.5442496], [118.3684662, -8.5436473], [118.371259, -8.5430666], [118.3740699, -8.54243], [118.3778411, -8.5417297], [118.3816338, -8.5407801], [118.3842945, -8.5402019], [118.3872342, -8.5395123], [118.3906084, -8.5386953], [118.3932209, -8.5382072], [118.3967453, -8.537438], [118.3999318, -8.5367165], [118.4030217, -8.5360375], [118.406015, -8.5353532], [118.4089547, -8.5346264], [118.4122807, -8.5340004], [118.4154242, -8.5333001], [118.4178328, -8.5331781], [118.4220171, -8.533003], [118.4256112, -8.5329182], [118.4282076, -8.5328121], [118.4326279, -8.532568], [118.4348702, -8.5323452], [118.4381854, -8.5320004], [118.4408301, -8.5319686], [118.4438235, -8.5319155], [118.4468597, -8.531942], [118.4545469, -8.5332099], [118.4548795, -8.533072]]}, "properties": {"id": "TRM-NTB-0016", "province": "Nusa Tenggara Barat", "system": "NTB", "voltage_class": "150 kV", "voltage_kv_max": 150.0, "voltage_kv_all": "150", "length_km": 77.352, "osm_id": "way/707533373", "osm_voltage": "150000", "source_id": "OSM-overpass", "color": "#1f77b4", "weight": 1.8}}, {"type": "Feature", "geometry": {"type": "LineString", "coordinates": [[118.7668466, -8.4706167], [118.7670726, -8.4708309], [118.7693739, -8.4701597], [118.7719488, -8.4712103], [118.7732577, -8.4732902], [118.7743789, -8.4751632], [118.775661, -8.4772006], [118.7770933, -8.4795935], [118.778488, -8.4818803], [118.7799901, -8.484252], [118.7804353, -8.4868942], [118.7810147, -8.489876], [118.7826347, -8.4912607], [118.7840134, -8.4924598], [118.7854779, -8.4947412], [118.7868023, -8.4968595], [118.7878382, -8.4987363], [118.7888682, -8.5005348], [118.7902093, -8.5029064], [118.789174, -8.5058085], [118.786996, -8.5074744], [118.78654, -8.5078988], [118.7839597, -8.5093418], [118.7816852, -8.5107265], [118.7800759, -8.5125357], [118.7789011, -8.5147639], [118.7775278, -8.5171778], [118.7766856, -8.518711], [118.7753981, -8.5200638], [118.7738371, -8.5218092], [118.7725443, -8.5232735], [118.7709923, -8.525324], [118.7692026, -8.5272754], [118.7678525, -8.5288238], [118.7665682, -8.5302563], [118.7645618, -8.5323696], [118.7628216, -8.533372], [118.760871, -8.5344726], [118.758866, -8.5356308], [118.757003, -8.5365839], [118.7552522, -8.5375809], [118.7533341, -8.53865], [118.7517342, -8.5395905], [118.7498049, -8.5406966], [118.7479034, -8.5417288], [118.7459363, -8.5428663], [118.7442018, -8.5438369], [118.7421864, -8.5449685], [118.7388718, -8.5470983], [118.7367958, -8.5482706], [118.7352723, -8.5491937], [118.7336039, -8.5502069], [118.7315172, -8.5513315], [118.7299937, -8.5522333], [118.7280035, -8.553342], [118.726185, -8.554334], [118.7242055, -8.5554692], [118.7222207, -8.5565991], [118.7202251, -8.5577237], [118.7187499, -8.5585937], [118.7165719, -8.5598191], [118.7147266, -8.5608959], [118.7127954, -8.5619621], [118.7107998, -8.563092], [118.7086165, -8.5643439], [118.7066531, -8.5654207], [118.7050384, -8.5663278], [118.7029678, -8.5674577], [118.7011063, -8.5684443], [118.6981237, -8.5696166], [118.6960959, -8.5699667], [118.6939824, -8.5703381], [118.6917132, -8.5706988], [118.6895299, -8.5711125], [118.6871642, -8.5714944], [118.6846536, -8.5719559], [118.6831033, -8.5721946], [118.6809307, -8.57255], [118.6779588, -8.5730646], [118.6754858, -8.5734995], [118.6730772, -8.5738974], [118.6711085, -8.5742475], [118.6687696, -8.5746559], [118.6666936, -8.5750325], [118.6641508, -8.5747567], [118.6620104, -8.5745551], [118.6598539, -8.5743376], [118.6576438, -8.5741361], [118.6549348, -8.5738815], [118.6529124, -8.5736852], [118.6510938, -8.5716005], [118.6499029, -8.5702426], [118.6483204, -8.5684497], [118.6469418, -8.5668901], [118.645547, -8.5652881], [118.6440986, -8.563649], [118.6425161, -8.5621107], [118.6410034, -8.560392], [118.6395764, -8.5587316], [118.6378652, -8.5567264], [118.6367574, -8.5555037], [118.6351079, -8.5535966], [118.63433, -8.552297], [118.6327583, -8.5497507], [118.6317605, -8.5480956], [118.6306071, -8.5461646], [118.6287886, -8.5432178], [118.6270881, -8.5404619], [118.6251301, -8.5395282], [118.6246365, -8.5393001], [118.6242074, -8.539056], [118.6206132, -8.5373903], [118.6180973, -8.5361967], [118.6165416, -8.5355017], [118.6143637, -8.5344831], [118.6117887, -8.5332789], [118.6097771, -8.5323399], [118.6074007, -8.5311781], [118.6047345, -8.5299685], [118.6029509, -8.527629], [118.601245, -8.5253849], [118.600089, -8.5238226], [118.5987478, -8.5218676], [118.5976374, -8.5205042], [118.5960495, -8.518451], [118.5949981, -8.5170929], [118.5935497, -8.5151989], [118.5920531, -8.5132254], [118.5911465, -8.512021], [118.5897624, -8.5101589], [118.5868013, -8.5089546], [118.5850525, -8.5082755], [118.5832393, -8.507538], [118.5813564, -8.5068059], [118.5788834, -8.5057925], [118.5767913, -8.504949], [118.5749888, -8.5042327], [118.572768, -8.5033627], [118.5705176, -8.5024369], [118.5684121, -8.5015588], [118.5666311, -8.5008823], [118.5648447, -8.5001635], [118.5631013, -8.4994313], [118.560226, -8.49828], [118.5582787, -8.4975107], [118.5564172, -8.4967891], [118.5547167, -8.4960888], [118.5528713, -8.495346], [118.5507309, -8.494529], [118.54895, -8.4938339], [118.5463214, -8.4927516], [118.5418636, -8.4908787], [118.5397661, -8.4900351], [118.5372609, -8.488974], [118.535555, -8.4883267], [118.5335809, -8.4875362], [118.5322237, -8.4865122], [118.5295308, -8.4844695], [118.5258722, -8.4844005], [118.5238391, -8.4835887], [118.5221171, -8.4828937], [118.5204273, -8.4822358], [118.5188341, -8.4815726], [118.5154813, -8.4823737], [118.5130835, -8.4828088], [118.5087973, -8.4821721], [118.506394, -8.482326], [118.5043958, -8.4839345], [118.5026765, -8.4853184], [118.5008526, -8.4868093], [118.4994793, -8.487897], [118.4976608, -8.4893985], [118.4952772, -8.4913635], [118.4934268, -8.4928401], [118.4915936, -8.4942835], [118.4903115, -8.495293], [118.4877634, -8.4971552], [118.4851241, -8.4990493], [118.4838742, -8.5004128], [118.4826833, -8.5017551], [118.4812134, -8.5034263], [118.4795612, -8.5052832], [118.4783059, -8.5067263], [118.4767073, -8.5085301], [118.4756237, -8.5097663], [118.474009, -8.5116152], [118.4726626, -8.5132254], [118.4713322, -8.5147188], [118.469401, -8.5169974], [118.4686768, -8.5178303], [118.4671104, -8.5196394], [118.4655011, -8.5215546], [118.4642029, -8.5233], [118.4629771, -8.5249128], [118.4616977, -8.5266104], [118.4605122, -8.5283558], [118.4587365, -8.5304407], [118.4571648, -8.5317033], [118.4554106, -8.5330561], [118.4552979, -8.5332259]]}, "properties": {"id": "TRM-NTB-0017", "province": "Nusa Tenggara Barat", "system": "NTB", "voltage_class": "70 kV", "voltage_kv_max": 70.0, "voltage_kv_all": "70", "length_km": 50.591, "osm_id": "way/707533374", "osm_voltage": "70000", "source_id": "OSM-overpass", "color": "#2ca02c", "weight": 1.2}}, {"type": "Feature", "geometry": {"type": "LineString", "coordinates": [[116.0741052, -8.6582662], [116.0743399, -8.6581123]]}, "properties": {"id": "TRM-NTB-0018", "province": "Nusa Tenggara Barat", "system": "NTB", "voltage_class": "150 kV", "voltage_kv_max": 150.0, "voltage_kv_all": "150", "length_km": 0.031, "osm_id": "way/929160632", "osm_voltage": "150000", "source_id": "OSM-overpass", "color": "#1f77b4", "weight": 1.8}}, {"type": "Feature", "geometry": {"type": "LineString", "coordinates": [[116.6298723, -8.5433159], [116.6302478, -8.5434432], [116.6311084, -8.5404892], [116.6297086, -8.5379844], [116.628065, -8.5352491], [116.6277165, -8.5326115], [116.6274723, -8.5298381], [116.6299062, -8.5279684], [116.6322852, -8.5261856], [116.6340002, -8.5249129], [116.6342884, -8.521594], [116.6346094, -8.5182019], [116.6349387, -8.5149481], [116.6367662, -8.5122127], [116.6385553, -8.5095043], [116.6402785, -8.5069208], [116.6425834, -8.5055856], [116.6448225, -8.5042667], [116.6472619, -8.5028691], [116.649693, -8.5014661], [116.6520234, -8.5001724], [116.6523162, -8.4978722], [116.6526043, -8.4951652], [116.6530119, -8.4920275], [116.6532465, -8.4897939], [116.6549589, -8.4878015], [116.6567224, -8.4857287], [116.6585208, -8.4835594], [116.6602657, -8.4814911], [116.6619781, -8.4794826], [116.6638159, -8.4773891], [116.6658954, -8.4756058], [116.6678959, -8.4737834], [116.6700033, -8.4720621], [116.6720944, -8.4702903], [116.6741925, -8.4685667], [116.6761094, -8.4671372], [116.6782005, -8.4647058], [116.6798246, -8.4627317], [116.6815927, -8.4606725], [116.6833493, -8.4585927], [116.6851337, -8.4565427], [116.6868856, -8.4544559], [116.6886491, -8.4524105], [116.690394, -8.4503283], [116.691414, -8.4478209], [116.6924363, -8.4452997], [116.6934447, -8.4427946], [116.694474, -8.4402642], [116.6954824, -8.4377039], [116.6964954, -8.4352148], [116.6974248, -8.4329487], [116.6985307, -8.4301746], [116.6999679, -8.4275634], [116.7018972, -8.4255247], [116.7037651, -8.4235309], [116.7056099, -8.4215688], [116.707768, -8.4223949], [116.7082719, -8.4222311]]}, "properties": {"id": "TRM-NTB-0019", "province": "Nusa Tenggara Barat", "system": "NTB", "voltage_class": "150 kV", "voltage_kv_max": 150.0, "voltage_kv_all": "150", "length_km": 17.385, "osm_id": "way/929160633", "osm_voltage": "150000", "source_id": "OSM-overpass", "color": "#1f77b4", "weight": 1.8}}, {"type": "Feature", "geometry": {"type": "LineString", "coordinates": [[116.3057488, -8.8895661], [116.3057515, -8.8892746], [116.3035762, -8.8878648], [116.3005722, -8.8864921], [116.2999338, -8.8862695], [116.2963611, -8.8844781], [116.2934107, -8.8831106], [116.2870216, -8.8801585], [116.2841463, -8.8787433], [116.2827086, -8.8783776], [116.280005, -8.8760562], [116.2773174, -8.8732418], [116.2775212, -8.8721446], [116.2781328, -8.8691182], [116.2790877, -8.8654981], [116.2798494, -8.8626995], [116.2804127, -8.8606005], [116.2810618, -8.8577383], [116.2819791, -8.8537842], [116.2825584, -8.8511816], [116.2830734, -8.8490243], [116.2847471, -8.8491886], [116.2882823, -8.8490561], [116.291104, -8.8471479], [116.2932444, -8.8445453], [116.294843, -8.8425946], [116.2965059, -8.840591], [116.2980401, -8.8387463], [116.299805, -8.8366313], [116.2993383, -8.8340287], [116.2986892, -8.8316115], [116.2981689, -8.8292844], [116.2973535, -8.8260032], [116.2965435, -8.8227113], [116.2958622, -8.8198011], [116.2950683, -8.8166735], [116.2944728, -8.8141714], [116.2913722, -8.8141078], [116.2910423, -8.8140336]]}, "properties": {"id": "TRM-NTB-0020", "province": "Nusa Tenggara Barat", "system": "NTB", "voltage_class": "150 kV", "voltage_kv_max": 150.0, "voltage_kv_all": "150", "length_km": 11.839, "osm_id": "way/929160634", "osm_voltage": "150000", "source_id": "OSM-overpass", "color": "#1f77b4", "weight": 1.8}}, {"type": "Feature", "geometry": {"type": "LineString", "coordinates": [[116.7082357, -8.4220587], [116.7077368, -8.4222179], [116.7067122, -8.4207214], [116.7056125, -8.4192674], [116.7055642, -8.4164867], [116.7055213, -8.4129843], [116.7071199, -8.4100656], [116.7086756, -8.4071257], [116.7098665, -8.4048332], [116.710977, -8.4027954], [116.7093033, -8.4000915], [116.707592, -8.3972444], [116.7059183, -8.3945378], [116.7042446, -8.3917039], [116.7025924, -8.3889973], [116.7008436, -8.3862271], [116.699202, -8.3834886], [116.6976464, -8.380973], [116.6958868, -8.3780541], [116.6944492, -8.3756446], [116.6947389, -8.3723117], [116.6949212, -8.3692972], [116.6951465, -8.3659854], [116.6953289, -8.3634485], [116.695565, -8.3604233], [116.6957688, -8.3573503], [116.6960156, -8.3542295], [116.6962033, -8.3513794], [116.6964072, -8.3481789], [116.6966647, -8.345143], [116.6946208, -8.3429084], [116.6925609, -8.34052], [116.6906512, -8.3382908], [116.6883713, -8.3356422], [116.6865474, -8.33362], [116.6845304, -8.3312739], [116.6825294, -8.328965], [116.6804802, -8.3266083], [116.678549, -8.3244215], [116.6765588, -8.3220541], [116.6743702, -8.3195753], [116.6724014, -8.3173088], [116.6703522, -8.3149468], [116.6683781, -8.3126961], [116.6653204, -8.3115496], [116.6626596, -8.3106366], [116.6595805, -8.3095219], [116.6570806, -8.3086408], [116.6544413, -8.3076853], [116.6517055, -8.3071439], [116.6489804, -8.3066874], [116.6463089, -8.3062627], [116.6437018, -8.3057531], [116.6409445, -8.3052117], [116.637817, -8.3046225], [116.6357034, -8.3042509], [116.6329461, -8.3037254], [116.630457, -8.3018092], [116.6285795, -8.3003919], [116.6264176, -8.2986667], [116.624347, -8.2970211], [116.6217399, -8.2950889], [116.618864, -8.2928218], [116.6159248, -8.2909697], [116.6127312, -8.2890116], [116.6106838, -8.2877475], [116.6073686, -8.28564], [116.6053033, -8.2843182], [116.6026801, -8.2836494], [116.600588, -8.2830177], [116.5984207, -8.2823753], [116.5955937, -8.2815313], [116.5930898, -8.2807948], [116.5905163, -8.2800609], [116.5886168, -8.2780901], [116.5863186, -8.2757901], [116.5845752, -8.2744657], [116.5808362, -8.2713123], [116.5782934, -8.2701657], [116.5711802, -8.267798], [116.5688735, -8.2676122], [116.5655985, -8.2672937], [116.5511602, -8.265871], [116.5416974, -8.2689128], [116.5389562, -8.2693269], [116.5364349, -8.2691039], [116.5330553, -8.2687005], [116.5298259, -8.2683926], [116.5276158, -8.2675538], [116.5258992, -8.2667469], [116.5225625, -8.2657276], [116.5205455, -8.2650163], [116.5182066, -8.2643368], [116.5160286, -8.2637209], [116.5143764, -8.2631688], [116.5114045, -8.2628185], [116.5093446, -8.2626698], [116.5066624, -8.2625106], [116.5039158, -8.2622982], [116.5009439, -8.2623301], [116.49776, -8.2623705], [116.4950967, -8.2624044], [116.4914489, -8.2623831], [116.4872539, -8.2625743], [116.4845395, -8.2626167], [116.4819431, -8.2626698], [116.4791322, -8.2627548], [116.4760101, -8.2627972], [116.4741325, -8.2628397], [116.4714932, -8.2615762], [116.4690471, -8.2604401], [116.4661717, -8.2590599], [116.4630711, -8.2585927], [116.460346, -8.2581786], [116.457181, -8.257669], [116.4540374, -8.2571912], [116.4513123, -8.2556198], [116.4496708, -8.2546005], [116.4476538, -8.2533582], [116.4445853, -8.2515001], [116.4422464, -8.2500667], [116.4396608, -8.2485377], [116.4373022, -8.2472048], [116.4359593, -8.246446], [116.4328587, -8.2447047], [116.430831, -8.2435154], [116.4281541, -8.2419599], [116.4253592, -8.2403884], [116.4229023, -8.2390028], [116.4197212, -8.2372296], [116.417731, -8.2364757], [116.415478, -8.235605], [116.412946, -8.2346706], [116.4100331, -8.2335981], [116.4061761, -8.232154], [116.4032686, -8.2310497], [116.4010423, -8.2302427], [116.3988268, -8.2293774], [116.3975823, -8.2284376], [116.3976225, -8.2281456]]}, "properties": {"id": "TRM-NTB-0021", "province": "Nusa Tenggara Barat", "system": "NTB", "voltage_class": "150 kV", "voltage_kv_max": 150.0, "voltage_kv_all": "150", "length_km": 46.401, "osm_id": "way/929160636", "osm_voltage": "150000", "source_id": "OSM-overpass", "color": "#1f77b4", "weight": 1.8}}, {"type": "Feature", "geometry": {"type": "LineString", "coordinates": [[116.0758084, -8.5543367], [116.0761517, -8.5544878], [116.0796225, -8.5551456], [116.0826963, -8.555623], [116.0845188, -8.5559329], [116.0855411, -8.5561067], [116.0868698, -8.5533102], [116.0869825, -8.5508594], [116.0875189, -8.5486208], [116.0882471, -8.5462548], [116.0916817, -8.5446209], [116.094659, -8.5456182], [116.0976309, -8.5463874], [116.0995513, -8.5475412], [116.102711, -8.5493316], [116.1057258, -8.5497454], [116.1089122, -8.5501167], [116.1121416, -8.5505941], [116.1145449, -8.5509124], [116.116696, -8.5512307], [116.119169, -8.553098], [116.121642, -8.5549812], [116.1238575, -8.5566681], [116.1262071, -8.5585088], [116.129179, -8.5595061], [116.1315179, -8.5601214], [116.1346292, -8.5611505], [116.1373973, -8.5620205], [116.1405623, -8.5622645], [116.1437058, -8.5624555], [116.1450255, -8.5650229], [116.146667, -8.5682056], [116.1480296, -8.5708261], [116.1491775, -8.5730009], [116.1515701, -8.5759714], [116.1534154, -8.5779128], [116.1559474, -8.5801725], [116.15834, -8.5824534], [116.1606467, -8.584469], [116.1627602, -8.5874819], [116.1641979, -8.5896248], [116.1656141, -8.5921443], [116.166054, -8.5921867]]}, "properties": {"id": "TRM-NTB-0022", "province": "Nusa Tenggara Barat", "system": "NTB", "voltage_class": "150 kV", "voltage_kv_max": 150.0, "voltage_kv_all": "150", "length_km": 13.026, "osm_id": "way/929160640", "osm_voltage": "150000", "source_id": "OSM-overpass", "color": "#1f77b4", "weight": 1.8}}, {"type": "Feature", "geometry": {"type": "LineString", "coordinates": [[118.6992663, -8.4101744], [118.699269, -8.4104849], [118.7012351, -8.4119761], [118.7039575, -8.4121432], [118.7066747, -8.4123827], [118.7091047, -8.4144649], [118.7117279, -8.4166512], [118.7172961, -8.4214537], [118.718605, -8.4227379], [118.7235564, -8.4279542], [118.7266034, -8.4311593], [118.7309754, -8.4332925], [118.7342852, -8.4348791], [118.740347, -8.4378772], [118.7438875, -8.439692], [118.7449416, -8.4413449], [118.7477124, -8.4458579], [118.7491232, -8.4482192], [118.7505072, -8.4504478], [118.7525269, -8.4537243], [118.7545949, -8.453918], [118.7565583, -8.4540931], [118.7579852, -8.4541992], [118.7606674, -8.4544858], [118.7623519, -8.4546449], [118.7677136, -8.4597016], [118.7671208, -8.4651509], [118.7664503, -8.4701438], [118.7667775, -8.4704064]]}, "properties": {"id": "TRM-NTB-0023", "province": "Nusa Tenggara Barat", "system": "NTB", "voltage_class": "70 kV", "voltage_kv_max": 70.0, "voltage_kv_all": "70", "length_km": 11.006, "osm_id": "way/937059858", "osm_voltage": "70000", "source_id": "OSM-overpass", "color": "#2ca02c", "weight": 1.2}}, {"type": "Feature", "geometry": {"type": "LineString", "coordinates": [[116.8027192, -9.0042555], [116.8023598, -9.0037734], [116.8024564, -9.0030449], [116.8026575, -9.0022554], [116.8028989, -9.0015772], [116.8031216, -9.0008619], [116.8032637, -9.0000937], [116.8037277, -8.9995479], [116.8042293, -8.9990181], [116.8048221, -8.9983664], [116.8053371, -8.9978339], [116.805836, -8.9973014], [116.8062571, -8.9967583], [116.8065923, -8.9962258], [116.8070993, -8.9954576], [116.8076465, -8.9946999], [116.808089, -8.9941806], [116.8085316, -8.9936137], [116.8089822, -8.9930309], [116.8094301, -8.9924613], [116.8098754, -8.9918334], [116.810149, -8.9914784], [116.8100283, -8.990424], [116.8104199, -8.9895392], [116.8106693, -8.9889245], [116.8108892, -8.9882357], [116.8111601, -8.9875443], [116.811305, -8.9871575], [116.8118146, -8.9865905], [116.8123028, -8.9860633], [116.8128312, -8.9856262], [116.813381, -8.9852129], [116.8141749, -8.9846221], [116.8144914, -8.9841452], [116.8148884, -8.9835491], [116.8152747, -8.9829133], [116.81539, -8.9826139], [116.8149421, -8.9822987], [116.8141589, -8.9817953], [116.813727, -8.9815039]]}, "properties": {"id": "TRM-NTB-0024", "province": "Nusa Tenggara Barat", "system": "NTB", "voltage_class": "150 kV", "voltage_kv_max": 150.0, "voltage_kv_all": "150", "length_km": 3.125, "osm_id": "way/1320144714", "osm_voltage": "150000", "source_id": "OSM-overpass", "color": "#1f77b4", "weight": 1.8}}, {"type": "Feature", "geometry": {"type": "LineString", "coordinates": [[116.8131879, -8.9807435], [116.8123296, -8.9799222]]}, "properties": {"id": "TRM-NTB-0025", "province": "Nusa Tenggara Barat", "system": "NTB", "voltage_class": "150 kV", "voltage_kv_max": 150.0, "voltage_kv_all": "150", "length_km": 0.131, "osm_id": "way/1320144724", "osm_voltage": "150000", "source_id": "OSM-overpass", "color": "#1f77b4", "weight": 1.8}}, {"type": "Feature", "geometry": {"type": "LineString", "coordinates": [[116.8132549, -8.9806031], [116.8123296, -8.9799222]]}, "properties": {"id": "TRM-NTB-0026", "province": "Nusa Tenggara Barat", "system": "NTB", "voltage_class": "150 kV", "voltage_kv_max": 150.0, "voltage_kv_all": "150", "length_km": 0.127, "osm_id": "way/1320144725", "osm_voltage": "150000", "source_id": "OSM-overpass", "color": "#1f77b4", "weight": 1.8}}, {"type": "Feature", "geometry": {"type": "LineString", "coordinates": [[116.7418063, -8.9045753], [116.7405939, -8.9031417]]}, "properties": {"id": "TRM-NTB-0027", "province": "Nusa Tenggara Barat", "system": "NTB", "voltage_class": "150 kV", "voltage_kv_max": 150.0, "voltage_kv_all": "150", "length_km": 0.208, "osm_id": "way/1320144726", "osm_voltage": "150000", "source_id": "OSM-overpass", "color": "#1f77b4", "weight": 1.8}}, {"type": "Feature", "geometry": {"type": "LineString", "coordinates": [[116.7406744, -8.9030596], [116.7418063, -8.9045753]]}, "properties": {"id": "TRM-NTB-0028", "province": "Nusa Tenggara Barat", "system": "NTB", "voltage_class": "150 kV", "voltage_kv_max": 150.0, "voltage_kv_all": "150", "length_km": 0.209, "osm_id": "way/1320144727", "osm_voltage": "150000", "source_id": "OSM-overpass", "color": "#1f77b4", "weight": 1.8}}, {"type": "Feature", "geometry": {"type": "LineString", "coordinates": [[116.8123296, -8.9799222], [116.8111682, -8.9775775], [116.808486, -8.978367], [116.8051547, -8.9799619], [116.8052351, -8.9820867], [116.804572, -8.9826624], [116.7997366, -8.9842591], [116.796459, -8.985356], [116.7940718, -8.9861507], [116.7903918, -8.9874065], [116.7882782, -8.9862037], [116.7839116, -8.9834855], [116.7795932, -8.9808786], [116.7785257, -8.9785631], [116.7762566, -8.973577], [116.7751408, -8.9711396], [116.7742342, -8.9690253], [116.772598, -8.9656129], [116.7712837, -8.9627091], [116.7673838, -8.9542625], [116.7658335, -8.9507916], [116.7666864, -8.9471458], [116.7649484, -8.9415075], [116.7642832, -8.9370826], [116.7628509, -8.9325676], [116.761837, -8.9299444], [116.7612415, -8.926415], [116.7598361, -8.9227795], [116.7583287, -8.9189162], [116.7583501, -8.9159643], [116.7584145, -8.9130336], [116.7577279, -8.9096683], [116.7556947, -8.9090536], [116.7519182, -8.9081632], [116.7490536, -8.9092603], [116.745792, -8.9092391], [116.7438447, -8.9070927], [116.7418063, -8.9045753]]}, "properties": {"id": "TRM-NTB-0029", "province": "Nusa Tenggara Barat", "system": "NTB", "voltage_class": "150 kV", "voltage_kv_max": 150.0, "voltage_kv_all": "150", "length_km": 14.813, "osm_id": "way/1320144728", "osm_voltage": "150000", "source_id": "OSM-overpass", "color": "#1f77b4", "weight": 1.8}}, {"type": "Feature", "geometry": {"type": "LineString", "coordinates": [[116.0743399, -8.6581123], [116.0740623, -8.6581402]]}, "properties": {"id": "TRM-NTB-0030", "province": "Nusa Tenggara Barat", "system": "NTB", "voltage_class": "150 kV", "voltage_kv_max": 150.0, "voltage_kv_all": "150", "length_km": 0.031, "osm_id": "way/1411184738", "osm_voltage": "150000", "source_id": "OSM-overpass", "color": "#1f77b4", "weight": 1.8}}, {"type": "Feature", "geometry": {"type": "LineString", "coordinates": [[116.0744593, -8.6583722], [116.0741871, -8.6585141]]}, "properties": {"id": "TRM-NTB-0031", "province": "Nusa Tenggara Barat", "system": "NTB", "voltage_class": "150 kV", "voltage_kv_max": 150.0, "voltage_kv_all": "150", "length_km": 0.034, "osm_id": "way/1411184739", "osm_voltage": "150000", "source_id": "OSM-overpass", "color": "#1f77b4", "weight": 1.8}}]}